sitename,Country or Area Name,Full Address,Latitude,Longitude,Air Quality Monitor,IDXi,IDXj,SRadius,MERRALat,MERRALon,agencyname,stationid,utcoff,Continent
Cairo,Egypt,Al Qāhirah,30.0444,31.2358,N,481,677,0,30.04,31.24,AAQE,1818253931,0,africa
Lagos,Nigeria,Lagos,6.455,3.3841,N,387,588,0,6.46,3.38,AAQE,1566593751,0,africa
Kinshasa,Congo (Kinshasa),Kinshasa,-4.3219,15.3119,N,344,626,0,-4.32,15.31,AAQE,1180000363,0,africa
Luanda,Angola,Luanda,-8.8383,13.2344,N,326,619,0,-8.84,13.23,AAQE,1024949724,0,africa
Dar_es_Salaam,Tanzania,Dar es Salaam,-6.8161,39.2803,N,334,703,0,-6.82,39.28,AAQE,1834843853,0,africa
Khartoum,Sudan,Khartoum,15.6031,32.5265,N,423,681,0,15.6,32.53,AAQE,1729268475,0,africa
Johannesburg,South Africa,Gauteng,-26.2044,28.0456,N,256,667,0,-26.2,28.05,AAQE,1710550792,0,africa
Douala,Cameroon,Littoral,4.05,9.7,N,377,608,0,4.05,9.7,AAQE,1120494607,0,africa
Addis_Ababa,Ethiopia,Ādīs Ābeba,9.03,38.74,N,397,701,0,9.03,38.74,AAQE,1231824991,0,africa
Giza,Egypt,Al Jīzah,29.987,31.2118,N,481,677,0,29.99,31.21,AAQE,1818925479,0,africa
Nairobi,Kenya,Nairobi City,-1.2864,36.8172,N,356,695,0,-1.29,36.82,AAQE,1404000661,0,africa
Abidjan,Côte d’Ivoire,Abidjan,5.3364,-4.0267,N,382,564,0,5.34,-4.03,AAQE,1384207980,0,africa
Alexandria,Egypt,Al Iskandarīyah,31.1975,29.8925,N,486,673,0,31.2,29.89,AAQE,1818695837,0,africa
Cape_Town,South Africa,Western Cape,-33.9253,18.4239,N,225,636,0,-33.93,18.42,AAQE,1710680650,0,africa
Bamako,Mali,Bamako,12.6458,-7.9922,N,412,551,0,12.65,-7.99,AAQE,1466965925,0,africa
Kano,Nigeria,Kano,12,8.5167,N,409,604,0,12,8.52,AAQE,1566422868,0,africa
Kumasi,Ghana,Ashanti,6.7,-1.625,N,388,572,0,6.7,-1.63,AAQE,1288181103,0,africa
Abuja,Nigeria,Federal Capital Territory,9.0667,7.4833,N,397,601,0,9.07,7.48,AAQE,1566342270,0,africa
Ibadan,Nigeria,Oyo,7.3964,3.9167,N,391,590,0,7.4,3.92,AAQE,1566366407,0,africa
Boankra,Ghana,Ashanti,6.6919,-1.4051,N,388,573,0,6.69,-1.41,AAQE,1288164978,0,africa
Casablanca,Morocco,Casablanca-Settat,33.5333,-7.5833,N,495,553,0,33.53,-7.58,AAQE,1504175315,0,africa
Ouagadougou,Burkina Faso,Centre,12.3686,-1.5275,N,410,572,0,12.37,-1.53,AAQE,1854029208,0,africa
Mbuji_Mayi,Congo (Kinshasa),Kasaï Oriental,-6.15,23.6,N,336,653,0,-6.15,23.6,AAQE,1180399586,0,africa
Pretoria,South Africa,Gauteng,-25.7461,28.1881,N,258,667,0,-25.75,28.19,AAQE,1710176249,0,africa
Omdurman,Sudan,Khartoum,15.6835,32.4629,N,424,681,0,15.68,32.46,AAQE,1729912179,0,africa
Brazzaville,Congo (Brazzaville),Brazzaville,-4.2667,15.2667,N,344,626,0,-4.27,15.27,AAQE,1178340306,0,africa
Yaounde,Cameroon,Centre,3.8667,11.5167,N,376,614,0,3.87,11.52,AAQE,1120298240,0,africa
Algiers,Algeria,Alger,36.7325,3.0872,N,508,587,0,36.73,3.09,AAQE,1012973369,0,africa
Awka,Nigeria,Anambra,6.2069,7.0678,N,386,600,0,6.21,7.07,AAQE,1566560581,0,africa
Mogadishu,Somalia,Banaadir,2.0392,45.3419,N,369,722,0,2.04,45.34,AAQE,1706893395,0,africa
Kananga,Congo (Kinshasa),Kasaï Central,-5.897,22.4488,N,337,649,0,-5.9,22.45,AAQE,1180172460,0,africa
Port_Harcourt,Nigeria,Rivers,4.8242,7.0336,N,380,600,0,4.82,7.03,AAQE,1566070649,0,africa
Lubumbashi,Congo (Kinshasa),Haut-Katanga,-11.6647,27.4794,N,314,665,0,-11.66,27.48,AAQE,1180506234,0,africa
Benin_City,Nigeria,Edo,6.3333,5.6222,N,386,595,0,6.33,5.62,AAQE,1566080151,0,africa
Lusaka,Zambia,Lusaka,-15.4167,28.2833,N,299,668,0,-15.42,28.28,AAQE,1894157390,0,africa
Kampala,Uganda,Kampala,0.3136,32.5811,N,362,681,0,0.31,32.58,AAQE,1800406299,0,africa
Conakry,Guinea,Conakry,9.5092,-13.7122,N,399,533,0,9.51,-13.71,AAQE,1324568159,0,africa
Yopougon,Côte d’Ivoire,Abidjan,5.3748,-4.0867,N,382,564,0,5.37,-4.09,AAQE,1384759584,0,africa
Harare,Zimbabwe,Harare,-17.8292,31.0522,N,290,676,0,-17.83,31.05,AAQE,1716196799,0,africa
Lome,Togo,Maritime,6.1308,1.2153,N,386,581,0,6.13,1.22,AAQE,1768409132,0,africa
Niamey,Niger,Niamey,13.515,2.1175,N,415,584,0,13.52,2.12,AAQE,1562932886,0,africa
Onitsha,Nigeria,Anambra,6.1667,6.7833,N,386,599,0,6.17,6.78,AAQE,1566593483,0,africa
Dakar,Senegal,Dakar,14.6726,-17.432,N,420,521,0,14.67,-17.43,AAQE,1686604760,0,africa
Pointe_Noire,Congo (Brazzaville),Pointe-Noire,-4.7975,11.8503,N,342,615,0,-4.8,11.85,AAQE,1178411563,0,africa
Cacuaco,Angola,Luanda,-8.8053,13.2444,N,326,619,0,-8.81,13.24,AAQE,1024559448,0,africa
Tangier,Morocco,Tanger-Tétouan-Al Hoceïma,35.7767,-5.8039,N,504,558,0,35.78,-5.8,AAQE,1504861504,0,africa
Antananarivo,Madagascar,Antananarivo,-18.91,47.525,N,285,729,0,-18.91,47.53,AAQE,1450978461,0,africa
Soweto,South Africa,Gauteng,-26.2678,27.8585,N,256,666,0,-26.27,27.86,AAQE,1710627007,0,africa
Hargeysa,Somalia,Woqooyi Galbeed,9.56,44.065,N,399,718,0,9.56,44.07,AAQE,1706832021,0,africa
Baidoa,Somalia,Bay,3.1167,43.65,N,373,717,0,3.12,43.65,AAQE,1706563100,0,africa
Mombasa,Kenya,Mombasa,-4.05,39.6667,N,345,704,0,-4.05,39.67,AAQE,1404512373,0,africa
Maiduguri,Nigeria,Borno,11.8372,13.1542,N,408,619,0,11.84,13.15,AAQE,1566540296,0,africa
Mbandaka,Congo (Kinshasa),Équateur,0.0478,18.2558,N,361,635,0,0.05,18.26,AAQE,1180720887,0,africa
Tripoli,Libya,Ţarābulus,32.8872,13.1914,N,493,619,0,32.89,13.19,AAQE,1434201852,0,africa
Aba,Nigeria,Abia,5.1167,7.3667,N,381,601,0,5.12,7.37,AAQE,1566262000,0,africa
Kigali,Rwanda,Kigali,-1.9536,30.0606,N,353,673,0,-1.95,30.06,AAQE,1646923541,0,africa
Bujumbura,Burundi,Bujumbura Mairie,-3.3833,29.3667,N,347,671,0,-3.38,29.37,AAQE,1108101689,0,africa
Maputo,Mozambique,Maputo,-25.9153,32.5764,N,257,681,0,-25.92,32.58,AAQE,1508074843,0,africa
Bukavu,Congo (Kinshasa),Sud-Kivu,-2.5061,28.8608,N,351,669,0,-2.51,28.86,AAQE,1180475821,0,africa
Shagamu,Nigeria,Ogun,6.8333,3.65,N,388,589,0,6.83,3.65,AAQE,1566202131,0,africa
Fes,Morocco,Fès-Meknès,34.0433,-5.0033,N,497,561,0,34.04,-5,AAQE,1504861997,0,africa
Mwanza,Tanzania,Mwanza,-2.5167,32.9,N,351,682,0,-2.52,32.9,AAQE,1834011288,0,africa
Ikare,Nigeria,Ondo,7.5167,5.75,N,391,595,0,7.52,5.75,AAQE,1566683694,0,africa
Tamale,Ghana,Northern,9.4075,-0.8533,N,399,574,0,9.41,-0.85,AAQE,1288890688,0,africa
Ubungo,Tanzania,Dar es Salaam,-6.7889,39.2056,N,334,702,0,-6.79,39.21,AAQE,1834358621,0,africa
Kisangani,Congo (Kinshasa),Tshopo,0.5167,25.2,N,363,658,0,0.52,25.2,AAQE,1180478201,0,africa
Nouakchott,Mauritania,Nouakchott Ouest,18.0858,-15.9785,N,433,526,0,18.09,-15.98,AAQE,1478414984,0,africa
Matola,Mozambique,Maputo,-25.9667,32.4667,N,257,681,0,-25.97,32.47,AAQE,1508768577,0,africa
Ogbomoso,Nigeria,Oyo,8.1333,4.25,N,394,591,0,8.13,4.25,AAQE,1566373448,0,africa
Enugu,Nigeria,Enugu,6.5,7.5,N,387,601,0,6.5,7.5,AAQE,1566212729,0,africa
Shubra_al_Khaymah,Egypt,Al Qalyūbīyah,30.1286,31.2422,N,482,677,0,30.13,31.24,AAQE,1818909612,0,africa
Monrovia,Liberia,Montserrado,6.3133,-10.8014,N,386,542,0,6.31,-10.8,AAQE,1430477826,0,africa
Tshikapa,Congo (Kinshasa),Kasaï,-6.4167,20.8,N,335,644,0,-6.42,20.8,AAQE,1180581239,0,africa
Domaa_Ahenkro,Ghana,Bono,7.2739,-2.8735,N,390,568,0,7.27,-2.87,AAQE,1288459533,0,africa
Lilongwe,Malawi,Lilongwe,-13.9669,33.7873,N,305,685,0,-13.97,33.79,AAQE,1454688499,0,africa
Gqeberha,South Africa,Eastern Cape,-33.9581,25.6,N,225,659,0,-33.96,25.6,AAQE,1710918997,0,africa
Marrakech,Morocco,Marrakech-Safi,31.63,-8.0089,N,488,551,0,31.63,-8.01,AAQE,1504172585,0,africa
Asmara,Eritrea,Ma’ĭkel,15.3358,38.9411,N,422,702,0,15.34,38.94,AAQE,1232791236,0,africa
Freetown,Sierra Leone,Western Area,8.4833,-13.2331,N,395,535,0,8.48,-13.23,AAQE,1694085071,0,africa
Kibanseke_Premiere,Congo (Kinshasa),Kinshasa,-4.4419,15.395,N,343,626,0,-4.44,15.4,AAQE,1180763985,0,africa
Sale,Morocco,Rabat-Salé-Kénitra,34.0333,-6.8,N,497,555,0,34.03,-6.8,AAQE,1504989034,0,africa
Khartoum_North,Sudan,Khartoum,15.6333,32.6333,N,424,681,0,15.63,32.63,AAQE,1729318628,0,africa
Mushin,Nigeria,Lagos,6.5333,3.35,N,387,588,0,6.53,3.35,AAQE,1566329100,0,africa
Owerri,Nigeria,Imo,5.485,7.035,N,383,600,0,5.49,7.04,AAQE,1566679132,0,africa
Bobo_Dioulasso,Burkina Faso,Hauts-Bassins,11.1833,-4.2833,N,406,563,0,11.18,-4.28,AAQE,1854348796,0,africa
Ashmun,Egypt,Al Minūfīyah,30.2974,30.9764,N,482,676,0,30.3,30.98,AAQE,1818251892,0,africa
Bunia,Congo (Kinshasa),Ituri,1.5667,30.25,N,367,674,0,1.57,30.25,AAQE,1180006418,0,africa
Cazenga,Angola,Luanda,-8.8214,13.2911,N,326,620,0,-8.82,13.29,AAQE,1024791607,0,africa
Bangui,Central African Republic,Bangui,4.3733,18.5628,N,378,636,0,4.37,18.56,AAQE,1140080881,0,africa
Abeokuta,Nigeria,Ogun,7.1608,3.3483,N,390,588,0,7.16,3.35,AAQE,1566979497,0,africa
Ikeja,Nigeria,Lagos,6.6,3.35,N,387,588,0,6.6,3.35,AAQE,1566486388,0,africa
Akure,Nigeria,Ondo,7.25,5.195,N,390,594,0,7.25,5.2,AAQE,1566568277,0,africa
Ilorin,Nigeria,Kwara,8.5,4.55,N,395,592,0,8.5,4.55,AAQE,1566480168,0,africa
Pietermaritzburg,South Africa,KwaZulu-Natal,-29.6167,30.3833,N,243,674,0,-29.62,30.38,AAQE,1710690280,0,africa
Durban,South Africa,KwaZulu-Natal,-29.8833,31.05,N,241,676,0,-29.88,31.05,AAQE,1710149138,0,africa
N_Djamena,Chad,N’Djamena,12.1053,15.0447,N,409,625,0,12.11,15.04,AAQE,1148708596,0,africa
Oran,Algeria,Oran,35.6969,-0.6331,N,504,575,0,35.7,-0.63,AAQE,1012126319,0,africa
Blantyre,Malawi,Blantyre,-15.7861,35.0058,N,298,689,0,-15.79,35.01,AAQE,1454145012,0,africa
Libreville,Gabon,Estuaire,0.3901,9.4544,N,363,607,0,0.39,9.45,AAQE,1266952885,0,africa
Lubango,Angola,Huíla,-14.9167,13.5,N,301,620,0,-14.92,13.5,AAQE,1024669127,0,africa
Dodoma,Tanzania,Dodoma,-6.1731,35.7419,N,336,691,0,-6.17,35.74,AAQE,1834288497,0,africa
Pikine,Senegal,Dakar,14.744,-17.4021,N,420,521,0,14.74,-17.4,AAQE,1686165071,0,africa
Kaduna,Nigeria,Kaduna,10.5167,7.4333,N,403,601,0,10.52,7.43,AAQE,1566368729,0,africa
Baardheere,Somalia,Gedo,2.3447,42.2764,N,370,712,0,2.34,42.28,AAQE,1706822684,0,africa
Gaalkacyo,Somalia,Mudug,6.7697,47.4308,N,388,729,0,6.77,47.43,AAQE,1706067930,0,africa
Nampula,Mozambique,Nampula,-15.1167,39.2667,N,301,703,0,-15.12,39.27,AAQE,1508958445,0,africa
Bouake,Côte d’Ivoire,Vallée du Bandama,7.6833,-5.0331,N,392,561,0,7.68,-5.03,AAQE,1384983838,0,africa
Cabinda,Angola,Cabinda,-5.56,12.19,N,339,616,0,-5.56,12.19,AAQE,1024474012,0,africa
Osogbo,Nigeria,Osun,7.7667,4.5667,N,392,592,0,7.77,4.57,AAQE,1566395088,0,africa
Uvira,Congo (Kinshasa),Sud-Kivu,-3.4,29.15,N,347,670,0,-3.4,29.15,AAQE,1180205443,0,africa
Huambo,Angola,Huambo,-12.7767,15.7347,N,310,627,0,-12.78,15.73,AAQE,1024079828,0,africa
Boosaaso,Somalia,Bari,11.28,49.18,N,406,734,0,11.28,49.18,AAQE,1706054548,0,africa
Bauchi,Nigeria,Bauchi,10.5,10,N,403,609,0,10.5,10,AAQE,1566483284,0,africa
Sinnuris,Egypt,Al Fayyūm,29.4072,30.8667,N,479,676,0,29.41,30.87,AAQE,1818442898,0,africa
Cocody,Côte d’Ivoire,Abidjan,5.3351,-4.0039,N,382,564,0,5.34,-4,AAQE,1384351512,0,africa
Lokoja,Nigeria,Kogi,7.8019,6.7442,N,392,599,0,7.8,6.74,AAQE,1566772925,0,africa
Agege,Nigeria,Lagos,6.6219,3.3258,N,387,588,0,6.62,3.33,AAQE,1566564887,0,africa
Cotonou,Benin,Littoral,6.3667,2.4333,N,386,585,0,6.37,2.43,AAQE,1204955174,0,africa
Bulawayo,Zimbabwe,Bulawayo,-20.17,28.58,N,280,668,0,-20.17,28.58,AAQE,1716032632,0,africa
Kitwe,Zambia,Copperbelt,-12.8167,28.2,N,310,667,0,-12.82,28.2,AAQE,1894321752,0,africa
Nneyi_Umuleri,Nigeria,Anambra,6.3333,6.8333,N,386,599,0,6.33,6.83,AAQE,1566349733,0,africa
Jalingo,Nigeria,Taraba,8.9,11.3667,N,397,613,0,8.9,11.37,AAQE,1566732241,0,africa
Abomey_Calavi,Benin,Atlantique,6.4486,2.3556,N,387,585,0,6.45,2.36,AAQE,1204016569,0,africa
Dayrut,Egypt,Asyūţ,27.5564,30.8106,N,471,676,0,27.56,30.81,AAQE,1818248895,0,africa
Benghazi,Libya,Banghāzī,32.1167,20.0667,N,489,641,0,32.12,20.07,AAQE,1434915572,0,africa
Ndola,Zambia,Copperbelt,-12.9689,28.6325,N,309,669,0,-12.97,28.63,AAQE,1894032745,0,africa
Tukh,Egypt,Al Qalyūbīyah,30.3549,31.2011,N,482,677,0,30.35,31.2,AAQE,1818411967,0,africa
Jos,Nigeria,Plateau,9.9167,8.8903,N,401,605,0,9.92,8.89,AAQE,1566773679,0,africa
Al_Mansurah,Egypt,Ad Daqahlīyah,31.05,31.3833,N,485,677,0,31.05,31.38,AAQE,1818255319,0,africa
Halwan,Egypt,Al Qāhirah,29.8493,31.3327,N,480,677,0,29.85,31.33,AAQE,1818000039,0,africa
Port_Bouet,Côte d’Ivoire,Abidjan,5.2568,-3.963,N,382,564,0,5.26,-3.96,AAQE,1384512844,0,africa
Arusha,Tanzania,Arusha,-3.3667,36.6833,N,348,694,0,-3.37,36.68,AAQE,1834484937,0,africa
Oujda_Angad,Morocco,Oriental,34.6867,-1.9114,N,500,571,0,34.69,-1.91,AAQE,1504891036,0,africa
Malanje,Angola,Malanje,-9.5333,16.35,N,323,629,0,-9.53,16.35,AAQE,1024774947,0,africa
Djibouti,Djibouti,Djibouti,11.5944,43.1481,N,407,715,0,11.59,43.15,AAQE,1262028958,0,africa
Garoua,Cameroon,Nord,9.3,13.4,N,398,620,0,9.3,13.4,AAQE,1120803808,0,africa
Bamenda,Cameroon,North-West,5.9614,10.1517,N,385,609,0,5.96,10.15,AAQE,1120909610,0,africa
Bafoussam,Cameroon,Ouest,5.4667,10.4167,N,383,610,0,5.47,10.42,AAQE,1120435460,0,africa
Tunis,Tunisia,Tunis,36.8064,10.1817,N,508,610,0,36.81,10.18,AAQE,1788742103,0,africa
Somolu,Nigeria,Lagos,6.5408,3.3872,N,387,588,0,6.54,3.39,AAQE,1566609760,0,africa
Al_Mahallah_al_Kubra,Egypt,Al Gharbīyah,30.9667,31.1667,N,485,677,0,30.97,31.17,AAQE,1818406471,0,africa
Port_Sudan,Sudan,Red Sea,19.6158,37.2164,N,439,696,0,19.62,37.22,AAQE,1729710259,0,africa
Rabat,Morocco,Rabat-Salé-Kénitra,34.0209,-6.8416,N,497,555,0,34.02,-6.84,AAQE,1504023252,0,africa
Kabinda,Congo (Kinshasa),Lomami,-6.13,24.48,N,336,655,0,-6.13,24.48,AAQE,1180751831,0,africa
Shibin_al_Qanatir,Egypt,Al Qalyūbīyah,30.3127,31.3202,N,482,677,0,30.31,31.32,AAQE,1818406704,0,africa
Abu_Hummus,Egypt,Al Buḩayrah,31.0931,30.3142,N,485,674,0,31.09,30.31,AAQE,1818221429,0,africa
Uyo,Nigeria,Akwa Ibom,5.0333,7.9275,N,381,602,0,5.03,7.93,AAQE,1566061694,0,africa
Rustenburg,South Africa,North West,-25.6667,27.2428,N,258,664,0,-25.67,27.24,AAQE,1710326039,0,africa
K_ebri_Beyah,Ethiopia,Sumalē,9.0833,43.0833,N,397,715,0,9.08,43.08,AAQE,1231877186,0,africa
Mbeya,Tanzania,Mbeya,-8.9,33.45,N,325,684,0,-8.9,33.45,AAQE,1834396594,0,africa
El_Geneina,Sudan,West Darfur,13.45,22.44,N,415,649,0,13.45,22.44,AAQE,1729642412,0,africa
Agadir,Morocco,Souss-Massa,30.4214,-9.5831,N,483,546,0,30.42,-9.58,AAQE,1504116858,0,africa
Kassala,Sudan,Kassala,15.45,36.4,N,423,693,0,15.45,36.4,AAQE,1729157224,0,africa
Nansana,Uganda,Wakiso,0.3639,32.5286,N,362,681,0,0.36,32.53,AAQE,1800032516,0,africa
Beira,Mozambique,Sofala,-19.8333,34.85,N,282,689,0,-19.83,34.85,AAQE,1508407369,0,africa
Touba,Senegal,Diourbel,14.8667,-15.8833,N,420,526,0,14.87,-15.88,AAQE,1686956738,0,africa
Port_Said,Egypt,Būr Sa‘īd,31.2625,32.3061,N,486,680,0,31.26,32.31,AAQE,1818628574,0,africa
Meknes,Morocco,Fès-Meknès,33.895,-5.5547,N,497,559,0,33.9,-5.55,AAQE,1504333193,0,africa
Al_Fayyum,Egypt,Al Fayyūm,29.3,30.8333,N,478,676,0,29.3,30.83,AAQE,1818281002,0,africa
Suez,Egypt,As Suways,29.9667,32.5333,N,481,681,0,29.97,32.53,AAQE,1818495972,0,africa
Abu_Tisht,Egypt,Qinā,26.1204,32.0954,N,465,680,0,26.12,32.1,AAQE,1818097618,0,africa
Benguela,Angola,Benguela,-12.55,13.4167,N,311,620,0,-12.55,13.42,AAQE,1024141961,0,africa
Cuito,Angola,Bié,-12.3833,16.9333,N,311,631,0,-12.38,16.93,AAQE,1024939858,0,africa
Al_Fashn,Egypt,Banī Suwayf,28.8231,30.899,N,476,676,0,28.82,30.9,AAQE,1818503615,0,africa
Cadaado,Somalia,Galguduud,6.1393,46.6241,N,386,726,0,6.14,46.62,AAQE,1706406560,0,africa
Kenitra,Morocco,Rabat-Salé-Kénitra,34.25,-6.5833,N,498,556,0,34.25,-6.58,AAQE,1504534876,0,africa
Newcastle,South Africa,KwaZulu-Natal,-27.7464,29.9328,N,250,673,0,-27.75,29.93,AAQE,1710031016,0,africa
Ile_Ife,Nigeria,Osun,7.4833,4.5592,N,391,592,0,7.48,4.56,AAQE,1566756897,0,africa
Belas,Angola,Luanda,-8.9983,13.265,N,325,619,0,-9,13.27,AAQE,1024196826,0,africa
Talatona,Angola,Luanda,-8.9167,13.1833,N,325,619,0,-8.92,13.18,AAQE,1024988332,0,africa
Asaba,Nigeria,Delta,6.1833,6.7333,N,386,599,0,6.18,6.73,AAQE,1566322425,0,africa
El_Fasher,Sudan,North Darfur,13.63,25.35,N,416,658,0,13.63,25.35,AAQE,1729372385,0,africa
K_ebri_Dehar,Ethiopia,Sumalē,6.7333,44.2667,N,388,719,0,6.73,44.27,AAQE,1231393469,0,africa
Likasi,Congo (Kinshasa),Haut-Katanga,-10.9833,26.7333,N,317,663,0,-10.98,26.73,AAQE,1180978192,0,africa
Nyala,Sudan,South Darfur,12.05,24.8833,N,409,657,0,12.05,24.88,AAQE,1729833248,0,africa
Bissau,Guinea-Bissau,Bissau,11.85,-15.5667,N,408,527,0,11.85,-15.57,AAQE,1624168850,0,africa
Accra,Ghana,Greater Accra,5.5461,-0.2067,N,383,576,0,5.55,-0.21,AAQE,1288299415,0,africa
Garoowe,Somalia,Nugaal,8.4,48.4833,N,395,732,0,8.4,48.48,AAQE,1706512367,0,africa
Akhmim,Egypt,Sūhāj,26.5667,31.75,N,467,679,0,26.57,31.75,AAQE,1818295057,0,africa
Kolwezi,Congo (Kinshasa),Lualaba,-10.7167,25.4667,N,318,658,0,-10.72,25.47,AAQE,1180380965,0,africa
Berbera,Somalia,Woqooyi Galbeed,10.4396,45.0143,N,403,721,0,10.44,45.01,AAQE,1706893125,0,africa
Morogoro,Tanzania,Morogoro,-6.8242,37.6633,N,334,698,0,-6.82,37.66,AAQE,1834185429,0,africa
Katlehong,South Africa,Gauteng,-26.3333,28.15,N,256,667,0,-26.33,28.15,AAQE,1710975690,0,africa
Juba,South Sudan,Central Equatoria,4.83,31.58,N,380,678,0,4.83,31.58,AAQE,1728444337,0,africa
Kikwit,Congo (Kinshasa),Kwilu,-5.0386,18.8181,N,341,637,0,-5.04,18.82,AAQE,1180518247,0,africa
Kahama,Tanzania,Shinyanga,-3.8375,32.6,N,346,681,0,-3.84,32.6,AAQE,1834043034,0,africa
Warder,Ethiopia,Sumalē,6.9667,45.35,N,389,722,0,6.97,45.35,AAQE,1231158948,0,africa
Constantine,Algeria,Constantine,36.35,6.6,N,506,598,0,36.35,6.6,AAQE,1012275076,0,africa
Zebediela,South Africa,Limpopo,-24.31,29.27,N,264,671,0,-24.31,29.27,AAQE,1710272814,0,africa
Matadi,Congo (Kinshasa),Kongo Central,-5.8167,13.4833,N,338,620,0,-5.82,13.48,AAQE,1180529604,0,africa
Ado_Ekiti,Nigeria,Ekiti,7.6211,5.2214,N,391,594,0,7.62,5.22,AAQE,1566196391,0,africa
Ndjili,Congo (Kinshasa),Kinshasa,-4.4089,15.3775,N,343,626,0,-4.41,15.38,AAQE,1180965012,0,africa
Korhogo,Côte d’Ivoire,Savanes,9.4578,-5.6294,N,399,559,0,9.46,-5.63,AAQE,1384205840,0,africa
Lobito,Angola,Benguela,-12.35,13.5464,N,312,620,0,-12.35,13.55,AAQE,1024128946,0,africa
Al_Maraghah,Egypt,Sūhāj,26.6998,31.6046,N,468,678,0,26.7,31.6,AAQE,1818170583,0,africa
Windhoek,Namibia,Khomas,-22.57,17.0836,N,271,632,0,-22.57,17.08,AAQE,1516802003,0,africa
Ismailia,Egypt,Al Ismā‘īlīyah,30.5833,32.2667,N,483,680,0,30.58,32.27,AAQE,1818532766,0,africa
Sokoto,Nigeria,Sokoto,13.0833,5.25,N,413,594,0,13.08,5.25,AAQE,1566574518,0,africa
Al_Bajur,Egypt,Al Minūfīyah,30.4305,31.0368,N,483,676,0,30.43,31.04,AAQE,1818896076,0,africa
Burco,Somalia,Togdheer,9.5221,45.5336,N,399,723,0,9.52,45.53,AAQE,1706322754,0,africa
Tetouan,Morocco,Tanger-Tétouan-Al Hoceïma,35.5667,-5.3667,N,503,560,0,35.57,-5.37,AAQE,1504709141,0,africa
Daloa,Côte d’Ivoire,Sassandra-Marahoué,6.89,-6.45,N,389,556,0,6.89,-6.45,AAQE,1384564974,0,africa
Ugep,Nigeria,Cross River,5.8,8.0833,N,384,603,0,5.8,8.08,AAQE,1566000091,0,africa
El_Obeid,Sudan,North Kordofan,13.1833,30.2167,N,414,674,0,13.18,30.22,AAQE,1729215531,0,africa
Ajdabiya,Libya,Al Wāḩāt,30.77,20.22,N,484,642,0,30.77,20.22,AAQE,1434401280,0,africa
Awsim,Egypt,Al Jīzah,30.1222,31.1333,N,481,677,0,30.12,31.13,AAQE,1818167257,0,africa
Tala,Egypt,Al Minūfīyah,30.6798,30.9436,N,484,676,0,30.68,30.94,AAQE,1818590732,0,africa
Talkha,Egypt,Ad Daqahlīyah,31.0592,31.3767,N,485,677,0,31.06,31.38,AAQE,1818821824,0,africa
Banjul,"Gambia, The",Banjul,13.4581,-16.5786,N,415,524,0,13.46,-16.58,AAQE,1270723713,0,africa
Koumassi,Côte d’Ivoire,Abidjan,5.2972,-3.9675,N,382,564,0,5.3,-3.97,AAQE,1384863297,0,africa
Kisumu,Kenya,Kisumu,-0.1,34.75,N,361,688,0,-0.1,34.75,AAQE,1404511920,0,africa
Zaria,Nigeria,Kaduna,11.0667,7.7,N,405,602,0,11.07,7.7,AAQE,1566287704,0,africa
Shashemene,Ethiopia,Oromīya,7.2,38.6,N,390,701,0,7.2,38.6,AAQE,1231110370,0,africa
Igboho,Nigeria,Oyo,8.8333,3.75,N,396,589,0,8.83,3.75,AAQE,1566640824,0,africa
Betsiboka,Madagascar,Mahajanga,-16.8667,46.95,N,294,727,0,-16.87,46.95,AAQE,1450524066,0,africa
Ijebu_Ode,Nigeria,Ogun,6.8208,3.9208,N,388,590,0,6.82,3.92,AAQE,1566495747,0,africa
Tanga,Tanzania,Tanga,-5.0742,39.0992,N,341,702,0,-5.07,39.1,AAQE,1834004568,0,africa
Saurimo,Angola,Lunda-Sul,-9.65,20.4,N,322,642,0,-9.65,20.4,AAQE,1024326839,0,africa
Yola,Nigeria,Adamawa,9.23,12.46,N,398,617,0,9.23,12.46,AAQE,1566782065,0,africa
Khayelitsha,South Africa,Western Cape,-34.0403,18.6778,N,225,637,0,-34.04,18.68,AAQE,1710736316,0,africa
Nnewi,Nigeria,Anambra,6.0167,6.9167,N,385,599,0,6.02,6.92,AAQE,1566097410,0,africa
San_Pedro,Côte d’Ivoire,Bas-Sassandra,4.7704,-6.64,N,380,556,0,4.77,-6.64,AAQE,1384436547,0,africa
Asyut,Egypt,Asyūţ,27.1869,31.1714,N,470,677,0,27.19,31.17,AAQE,1818456592,0,africa
Gwoza,Nigeria,Borno,11.0861,13.6914,N,405,621,0,11.09,13.69,AAQE,1566834535,0,africa
Saki,Nigeria,Oyo,8.6667,3.4,N,396,588,0,8.67,3.4,AAQE,1566404680,0,africa
Uvinza,Tanzania,Kigoma,-5.1069,30.3839,N,341,674,0,-5.11,30.38,AAQE,1834561245,0,africa
Oyo,Nigeria,Oyo,7.8417,3.9306,N,392,590,0,7.84,3.93,AAQE,1566930579,0,africa
Kisenzi,Congo (Kinshasa),Kinshasa,-4.4094,15.3425,N,343,626,0,-4.41,15.34,AAQE,1180795720,0,africa
Ceel_Baraf,Somalia,Shabeellaha Dhexe,3.2072,45.7593,N,374,723,0,3.21,45.76,AAQE,1706959191,0,africa
Ilesa,Nigeria,Osun,7.6167,4.7167,N,391,592,0,7.62,4.72,AAQE,1566937414,0,africa
Gusau,Nigeria,Zamfara,12.15,6.6667,N,410,598,0,12.15,6.67,AAQE,1566383682,0,africa
Serekunda,"Gambia, The",Kanifing,13.445,-16.675,N,415,524,0,13.45,-16.68,AAQE,1270640044,0,africa
Kanifing,"Gambia, The",Kanifing,13.4475,-16.6725,N,415,524,0,13.45,-16.67,AAQE,1270000000,0,africa
Madinat_as_Sadis_min_Uktubar,Egypt,Al Jīzah,29.9361,30.9269,N,481,676,0,29.94,30.93,AAQE,1818735651,0,africa
Mamou,Guinea,Mamou,10.3833,-12.0833,N,403,538,0,10.38,-12.08,AAQE,1324990909,0,africa
Dikirnis,Egypt,Ad Daqahlīyah,31.089,31.5948,N,485,678,0,31.09,31.59,AAQE,1818065059,0,africa
Chitungwiza,Zimbabwe,Harare,-17.9939,31.0481,N,289,676,0,-17.99,31.05,AAQE,1716688236,0,africa
Qardho,Somalia,Bari,9.5004,49.166,N,399,734,0,9.5,49.17,AAQE,1706405003,0,africa
Warri,Nigeria,Delta,5.5167,5.75,N,383,595,0,5.52,5.75,AAQE,1566325734,0,africa
Geita,Tanzania,Geita,-2.8714,32.2294,N,350,680,0,-2.87,32.23,AAQE,1834469543,0,africa
Buurhakaba,Somalia,Bay,2.7837,44.0833,N,372,718,0,2.78,44.08,AAQE,1706176225,0,africa
Umuahia,Nigeria,Abia,5.5333,7.4833,N,383,601,0,5.53,7.48,AAQE,1566217980,0,africa
Ash_Shuhada,Egypt,Al Minūfīyah,30.5968,30.8993,N,483,676,0,30.6,30.9,AAQE,1818906012,0,africa
Ondo,Nigeria,Ondo,7.0833,4.8333,N,389,592,0,7.08,4.83,AAQE,1566993724,0,africa
Cubal,Angola,Benguela,-13.0333,14.25,N,309,623,0,-13.03,14.25,AAQE,1024580158,0,africa
Luena,Angola,Moxico,-11.7918,19.9062,N,314,641,0,-11.79,19.91,AAQE,1024283760,0,africa
Gedaref,Sudan,Gedaref,14.0333,35.3833,N,417,690,0,14.03,35.38,AAQE,1729215057,0,africa
Gode,Ethiopia,Sumalē,5.9527,43.5516,N,385,716,0,5.95,43.55,AAQE,1231128743,0,africa
Antonio_Enes,Mozambique,Nampula,-16.2308,39.9105,N,296,705,0,-16.23,39.91,AAQE,1508591443,0,africa
Gwagwalada,Nigeria,Federal Capital Territory,8.9392,7.0758,N,397,600,0,8.94,7.08,AAQE,1566419265,0,africa
Wad_Medani,Sudan,Gezira,14.4,33.51,N,419,684,0,14.4,33.51,AAQE,1729581572,0,africa
Kusti,Sudan,White Nile,13.17,32.66,N,414,682,0,13.17,32.66,AAQE,1729229371,0,africa
Maseru,Lesotho,Maseru,-29.31,27.48,N,244,665,0,-29.31,27.48,AAQE,1426977668,0,africa
Sfax,Tunisia,Sfax,34.74,10.76,N,500,611,0,34.74,10.76,AAQE,1788741658,0,africa
Yamoussoukro,Côte d’Ivoire,Yamoussoukro,6.8161,-5.2742,N,388,560,0,6.82,-5.27,AAQE,1384683557,0,africa
Randburg,South Africa,Gauteng,-26.0936,28.0064,N,257,667,0,-26.09,28.01,AAQE,1710279034,0,africa
Birkat_as_Sab,Egypt,Al Minūfīyah,30.6291,31.0824,N,484,676,0,30.63,31.08,AAQE,1818672478,0,africa
Lafia,Nigeria,Nasarawa,8.4917,8.5167,N,395,604,0,8.49,8.52,AAQE,1566042542,0,africa
Guediawaye,Senegal,Dakar,14.7724,-17.3884,N,420,521,0,14.77,-17.39,AAQE,1686908896,0,africa
Chipata,Zambia,Eastern,-13.6453,32.6464,N,306,681,0,-13.65,32.65,AAQE,1894816262,0,africa
Roodepoort,South Africa,Gauteng,-26.1625,27.8725,N,256,666,0,-26.16,27.87,AAQE,1710090212,0,africa
Nazret,Ethiopia,Oromīya,8.5414,39.2689,N,395,703,0,8.54,39.27,AAQE,1231826873,0,africa
Safi,Morocco,Marrakech-Safi,32.2833,-9.2333,N,490,547,0,32.28,-9.23,AAQE,1504000717,0,africa
Kikuyu,Kenya,Kiambu,-1.2463,36.6629,N,356,694,0,-1.25,36.66,AAQE,1404116834,0,africa
Mekele,Ethiopia,Tigray,13.4969,39.4769,N,415,703,0,13.5,39.48,AAQE,1231468531,0,africa
Uige,Angola,Uíge,-7.6167,15.05,N,331,625,0,-7.62,15.05,AAQE,1024666275,0,africa
Minna,Nigeria,Niger,9.6139,6.5569,N,399,598,0,9.61,6.56,AAQE,1566285237,0,africa
Taourirt,Morocco,Oriental,34.4169,-2.885,N,499,568,0,34.42,-2.89,AAQE,1504648957,0,africa
Menongue,Angola,Cuando Cubango,-14.6556,17.6842,N,302,634,0,-14.66,17.68,AAQE,1024725650,0,africa
Okene,Nigeria,Kogi,7.5619,6.2411,N,391,597,0,7.56,6.24,AAQE,1566909987,0,africa
Muhanga,Rwanda,Southern Province,-2.0845,29.7527,N,353,672,0,-2.08,29.75,AAQE,1646187395,0,africa
Katsina,Nigeria,Katsina,12.25,7.5,N,410,601,0,12.25,7.5,AAQE,1566777297,0,africa
Bor,South Sudan,Jonglei,6.2072,31.5591,N,386,678,0,6.21,31.56,AAQE,1728186782,0,africa
N_Zerekore,Guinea,N’Zérékoré,7.7522,-8.8217,N,392,549,0,7.75,-8.82,AAQE,1324336588,0,africa
Sousse,Tunisia,Sousse,35.8333,10.6333,N,504,611,0,35.83,10.63,AAQE,1788927583,0,africa
Attiecoube,Côte d’Ivoire,Abidjan,5.3453,-4.035,N,382,564,0,5.35,-4.04,AAQE,1384919817,0,africa
Mitchells_Plain,South Africa,Western Cape,-34.0506,18.6181,N,225,637,0,-34.05,18.62,AAQE,1710549821,0,africa
Tabora,Tanzania,Tabora,-5.0167,32.8,N,341,682,0,-5.02,32.8,AAQE,1834712235,0,africa
Nakuru,Kenya,Nakuru,-0.2833,36.0667,N,360,692,0,-0.28,36.07,AAQE,1404140179,0,africa
Sumbawanga,Tanzania,Rukwa,-7.9667,31.6167,N,329,678,0,-7.97,31.62,AAQE,1834684278,0,africa
Az_Zaqaziq,Egypt,Ash Sharqīyah,30.5667,31.5,N,483,678,0,30.57,31.5,AAQE,1818017750,0,africa
Al_Waqf,Egypt,Qinā,26.0866,32.4226,N,465,681,0,26.09,32.42,AAQE,1818448534,0,africa
Awasa,Ethiopia,Sīdama,7.05,38.4667,N,389,700,0,7.05,38.47,AAQE,1231663122,0,africa
Al_Ajami,Egypt,Al Iskandarīyah,31.1227,29.7838,N,485,672,0,31.12,29.78,AAQE,1818001525,0,africa
Al_Matariyah,Egypt,Ad Daqahlīyah,31.1833,32.0333,N,486,680,0,31.18,32.03,AAQE,1818621008,0,africa
Jinja,Uganda,Jinja,0.4233,33.2039,N,363,683,0,0.42,33.2,AAQE,1800632405,0,africa
Temara,Morocco,Rabat-Salé-Kénitra,33.9267,-6.9122,N,497,555,0,33.93,-6.91,AAQE,1504016606,0,africa
Malabo,Equatorial Guinea,Bioko Norte,3.7456,8.7744,N,376,605,0,3.75,8.77,AAQE,1226861333,0,africa
Shubrakhit,Egypt,Al Buḩayrah,31.0279,30.7149,N,485,675,0,31.03,30.71,AAQE,1818459935,0,africa
Rufisque,Senegal,Dakar,14.714,-17.2723,N,420,522,0,14.71,-17.27,AAQE,1686348669,0,africa
Kafr_Saqr,Egypt,Ash Sharqīyah,30.7934,31.6257,N,484,678,0,30.79,31.63,AAQE,1818242505,0,africa
Divo,Côte d’Ivoire,Gôh-Djiboua,5.8372,-5.3572,N,384,560,0,5.84,-5.36,AAQE,1384831436,0,africa
Vila_Teixeira_da_Silva,Angola,Huambo,-12.1958,15.8556,N,312,628,0,-12.2,15.86,AAQE,1024863343,0,africa
Paarl,South Africa,Western Cape,-33.7242,18.9558,N,226,638,0,-33.72,18.96,AAQE,1710440011,0,africa
Mahikeng,South Africa,North West,-25.8656,25.6436,N,258,659,0,-25.87,25.64,AAQE,1710965423,0,africa
Batna,Algeria,Batna,35.55,6.1667,N,503,597,0,35.55,6.17,AAQE,1012093229,0,africa
Eldoret,Kenya,Uasin Gishu,0.5167,35.2833,N,363,690,0,0.52,35.28,AAQE,1404676289,0,africa
Kabwe,Zambia,Central,-14.4333,28.45,N,303,668,0,-14.43,28.45,AAQE,1894711746,0,africa
Setif,Algeria,Sétif,36.19,5.41,N,506,594,0,36.19,5.41,AAQE,1012981116,0,africa
Songea,Tanzania,Ruvuma,-10.6833,35.65,N,318,691,0,-10.68,35.65,AAQE,1834461509,0,africa
Masaka,Uganda,Masaka,-0.3411,31.7361,N,360,679,0,-0.34,31.74,AAQE,1800731885,0,africa
Qillin,Egypt,Kafr ash Shaykh,31.0475,30.8549,N,485,676,0,31.05,30.85,AAQE,1818166178,0,africa
Kaura_Namoda,Nigeria,Zamfara,12.6,6.5897,N,411,598,0,12.6,6.59,AAQE,1566455111,0,africa
Sumbe,Angola,Cuanza-Sul,-11.2053,13.8417,N,316,621,0,-11.21,13.84,AAQE,1024297937,0,africa
Caala,Angola,Huambo,-12.85,15.55,N,310,627,0,-12.85,15.55,AAQE,1024160241,0,africa
Gagnoa,Côte d’Ivoire,Gôh-Djiboua,6.1333,-5.9333,N,386,558,0,6.13,-5.93,AAQE,1384138010,0,africa
Dire_Dawa,Ethiopia,Dirē Dawa,9.6,41.8667,N,399,711,0,9.6,41.87,AAQE,1231089714,0,africa
Soubre,Côte d’Ivoire,Bas-Sassandra,5.7836,-6.5939,N,384,556,0,5.78,-6.59,AAQE,1384745470,0,africa
Gabela,Angola,Cuanza-Sul,-10.85,14.3667,N,318,623,0,-10.85,14.37,AAQE,1024159015,0,africa
Nguru,Nigeria,Yobe,12.8792,10.4525,N,413,610,0,12.88,10.45,AAQE,1566737779,0,africa
Shibin_al_Kawm,Egypt,Al Minūfīyah,30.55,31,N,483,676,0,30.55,31,AAQE,1818787044,0,africa
Aswan,Egypt,Aswān,24.0889,32.8997,N,457,682,0,24.09,32.9,AAQE,1818262512,0,africa
Maradi,Niger,Maradi,13.501,7.1036,N,415,600,0,13.5,7.1,AAQE,1562200314,0,africa
East_London,South Africa,Eastern Cape,-33.0175,27.9047,N,229,666,0,-33.02,27.9,AAQE,1710178149,0,africa
Kibaha,Tanzania,Coast,-6.7667,38.9167,N,334,702,0,-6.77,38.92,AAQE,1834065400,0,africa
Antsirabe,Madagascar,Antananarivo,-19.8667,47.0333,N,282,728,0,-19.87,47.03,AAQE,1450791699,0,africa
Ed_Daein,Sudan,East Darfur,11.4672,26.1317,N,407,661,0,11.47,26.13,AAQE,1729512354,0,africa
Tchibota,Congo (Brazzaville),Kouilou,-4.1794,11.3731,N,344,613,0,-4.18,11.37,AAQE,1178731596,0,africa
Matala,Angola,Huíla,-14.7306,15.0367,N,302,625,0,-14.73,15.04,AAQE,1024249088,0,africa
Bariadi,Tanzania,Simiyu,-2.7919,33.9894,N,350,686,0,-2.79,33.99,AAQE,1834546025,0,africa
Hong,Nigeria,Adamawa,10.2317,12.9303,N,402,618,0,10.23,12.93,AAQE,1566033629,0,africa
Boksburg,South Africa,Gauteng,-26.2125,28.2625,N,256,667,0,-26.21,28.26,AAQE,1710932183,0,africa
Misratah,Libya,Mişrātah,32.3775,15.092,N,491,625,0,32.38,15.09,AAQE,1434518407,0,africa
Singa,Sudan,Sennar,13.1483,33.9311,N,414,686,0,13.15,33.93,AAQE,1729951108,0,africa
Ndulo,Angola,Huambo,-11.4833,15.8333,N,315,628,0,-11.48,15.83,AAQE,1024783572,0,africa
Andulo,Angola,Bié,-11.4926,16.7035,N,315,630,0,-11.49,16.7,AAQE,1024697140,0,africa
Annaba,Algeria,Annaba,36.9,7.7667,N,509,602,0,36.9,7.77,AAQE,1012600001,0,africa
Chingola,Zambia,Copperbelt,-12.5333,27.85,N,311,666,0,-12.53,27.85,AAQE,1894202007,0,africa
Bloemfontein,South Africa,Free State,-29.1167,26.2167,N,245,661,0,-29.12,26.22,AAQE,1710495933,0,africa
Germiston,South Africa,Gauteng,-26.2178,28.1672,N,256,667,0,-26.22,28.17,AAQE,1710366382,0,africa
Mocamedes,Angola,Namibe,-15.1953,12.1508,N,300,616,0,-15.2,12.15,AAQE,1024785067,0,africa
Sodo,Ethiopia,YeDebub Bihēroch Bihēreseboch na Hizboch,6.855,37.7808,N,388,698,0,6.86,37.78,AAQE,1231130720,0,africa
Tanta,Egypt,Al Gharbīyah,30.7833,31,N,484,676,0,30.78,31,AAQE,1818501770,0,africa
Godome,Benin,Atlantique,6.3667,2.35,N,386,585,0,6.37,2.35,AAQE,1204027999,0,africa
Bata,Equatorial Guinea,Litoral,1.865,9.77,N,368,608,0,1.87,9.77,AAQE,1226528087,0,africa
Al_Bayda,Libya,Al Jabal al Akhḑar,32.7628,21.755,N,492,647,0,32.76,21.76,AAQE,1434263017,0,africa
Kurmuk,Sudan,Blue Nile,10.5563,34.2848,N,403,687,0,10.56,34.28,AAQE,1729180375,0,africa
Goma,Congo (Kinshasa),Nord-Kivu,-1.6794,29.2336,N,354,671,0,-1.68,29.23,AAQE,1180805022,0,africa
Banikoara,Benin,Alibori,11.3,2.4333,N,406,585,0,11.3,2.43,AAQE,1204495680,0,africa
Al_Ashir_min_Ramadan,Egypt,Ash Sharqīyah,30.2964,31.7463,N,482,679,0,30.3,31.75,AAQE,1818297014,0,africa
Mahajanga,Madagascar,Mahajanga,-15.67,46.345,N,298,725,0,-15.67,46.35,AAQE,1450421961,0,africa
Damanhur,Egypt,Al Buḩayrah,31.05,30.4667,N,485,674,0,31.05,30.47,AAQE,1818708838,0,africa
Bahir_Dar,Ethiopia,Āmara,11.6,37.3833,N,407,697,0,11.6,37.38,AAQE,1231784118,0,africa
Sapele,Nigeria,Delta,5.9,5.6667,N,385,595,0,5.9,5.67,AAQE,1566310893,0,africa
Man,Côte d’Ivoire,Montagnes,7.4004,-7.55,N,391,553,0,7.4,-7.55,AAQE,1384112524,0,africa
Gelemso,Ethiopia,Oromīya,8.8167,40.5167,N,396,707,0,8.82,40.52,AAQE,1231438273,0,africa
Chimoio,Mozambique,Manica,-19.1167,33.45,N,285,684,0,-19.12,33.45,AAQE,1508460246,0,africa
Kasulu,Tanzania,Kigoma,-4.58,30.1,N,343,673,0,-4.58,30.1,AAQE,1834918111,0,africa
Djougou,Benin,Donga,9.7,1.6667,N,400,582,0,9.7,1.67,AAQE,1204972666,0,africa
Centurion,South Africa,Gauteng,-25.8603,28.1894,N,258,667,0,-25.86,28.19,AAQE,1710138774,0,africa
Al_Minya,Egypt,Al Minyā,28.0833,30.75,N,473,675,0,28.08,30.75,AAQE,1818607968,0,africa
Iseyin,Nigeria,Oyo,7.9667,3.6,N,393,589,0,7.97,3.6,AAQE,1566714777,0,africa
Gaborone,Botswana,Gaborone,-24.6569,25.9086,N,262,660,0,-24.66,25.91,AAQE,1072756768,0,africa
Zinder,Niger,Zinder,13.8014,8.9849,N,416,606,0,13.8,8.98,AAQE,1562758258,0,africa
Ganda,Angola,Benguela,-13.0167,14.6333,N,309,624,0,-13.02,14.63,AAQE,1024320952,0,africa
Bo,Sierra Leone,Southern,7.9564,-11.74,N,393,539,0,7.96,-11.74,AAQE,1694651111,0,africa
Mambere,Central African Republic,Nana-Mambéré,5.5,15.5,N,383,627,0,5.5,15.5,AAQE,1140081585,0,africa
Damboa,Nigeria,Borno,11.15,12.75,N,406,618,0,11.15,12.75,AAQE,1566264329,0,africa
Mbour,Senegal,Thiès,14.4104,-16.9649,N,419,523,0,14.41,-16.96,AAQE,1686983171,0,africa
Singida,Tanzania,Singida,-4.8167,34.75,N,342,688,0,-4.82,34.75,AAQE,1834418526,0,africa
Kigoma,Tanzania,Kigoma,-4.8833,29.6333,N,341,672,0,-4.88,29.63,AAQE,1834583327,0,africa
Beni,Congo (Kinshasa),Nord-Kivu,0.5,29.4667,N,363,671,0,0.5,29.47,AAQE,1180325051,0,africa
Biyala,Egypt,Kafr ash Shaykh,31.1742,31.2218,N,486,677,0,31.17,31.22,AAQE,1818176148,0,africa
Zegoua,Mali,Sikasso,10.4519,-5.6511,N,403,559,0,10.45,-5.65,AAQE,1466856084,0,africa
Marka,Somalia,Shabeellaha Hoose,1.7156,44.7703,N,368,720,0,1.72,44.77,AAQE,1706165964,0,africa
Khenifra,Morocco,Béni Mellal-Khénifra,32.9394,-5.6675,N,493,559,0,32.94,-5.67,AAQE,1504143530,0,africa
Saqultah,Egypt,Sūhāj,26.6582,31.6714,N,468,678,0,26.66,31.67,AAQE,1818878774,0,africa
Uacu_Cungo,Angola,Cuanza-Sul,-11.3583,15.1194,N,316,625,0,-11.36,15.12,AAQE,1024677127,0,africa
Toamasina,Madagascar,Toamasina,-18.155,49.41,N,288,735,0,-18.16,49.41,AAQE,1450540529,0,africa
Mutare,Zimbabwe,Manicaland,-18.9667,32.6333,N,285,681,0,-18.97,32.63,AAQE,1716060405,0,africa
Barra_do_Dande,Angola,Bengo,-8.4728,13.3731,N,327,620,0,-8.47,13.37,AAQE,1024937810,0,africa
Sandton,South Africa,Gauteng,-26.107,28.0517,N,257,667,0,-26.11,28.05,AAQE,1710113163,0,africa
Owo,Nigeria,Ondo,7.1961,5.5864,N,390,595,0,7.2,5.59,AAQE,1566833788,0,africa
Gueckedou,Guinea,N’Zérékoré,8.5667,-10.1333,N,395,545,0,8.57,-10.13,AAQE,1324580681,0,africa
Tchaourou,Benin,Borgou,8.8833,2.6,N,397,585,0,8.88,2.6,AAQE,1204695000,0,africa
Duekoue,Côte d’Ivoire,Montagnes,6.7419,-7.3492,N,388,553,0,6.74,-7.35,AAQE,1384429839,0,africa
El_Jadid,Morocco,Casablanca-Settat,33.2333,-8.5,N,494,550,0,33.23,-8.5,AAQE,1504964063,0,africa
Osisioma,Nigeria,Abia,5.1497,7.3303,N,382,600,0,5.15,7.33,AAQE,1566203950,0,africa
Zanzibar,Tanzania,Zanzibar Urban/West,-6.165,39.199,N,336,702,0,-6.17,39.2,AAQE,1834823848,0,africa
Kafue,Zambia,Lusaka,-15.7667,28.1833,N,298,667,0,-15.77,28.18,AAQE,1894930695,0,africa
Laayoune,Morocco,Laâyoune-Sakia El Hamra,27.15,-13.1989,N,470,535,0,27.15,-13.2,AAQE,1504000319,0,africa
Apapa,Nigeria,Lagos,6.45,3.3667,N,387,588,0,6.45,3.37,AAQE,1566625487,0,africa
Ar_Ruseris,Sudan,Blue Nile,11.8633,34.3877,N,408,687,0,11.86,34.39,AAQE,1729614147,0,africa
Sidi_Aissa,Algeria,M’sila,36.5,4.2978,N,507,591,0,36.5,4.3,AAQE,1012091250,0,africa
Al_Ghardaqah,Egypt,Al Baḩr al Aḩmar,27.2578,33.8117,N,470,685,0,27.26,33.81,AAQE,1818666245,0,africa
Marcory,Côte d’Ivoire,Abidjan,5.312,-3.9936,N,382,564,0,5.31,-3.99,AAQE,1384405403,0,africa
Sikasso,Mali,Sikasso,11.3167,-5.6667,N,406,559,0,11.32,-5.67,AAQE,1466666150,0,africa
Bouafle,Côte d’Ivoire,Sassandra-Marahoué,6.9903,-5.7442,N,389,559,0,6.99,-5.74,AAQE,1384274339,0,africa
Sidi_Bel_Abbes,Algeria,Sidi Bel Abbès,35.1939,-0.6414,N,502,575,0,35.19,-0.64,AAQE,1012123414,0,africa
Mallawi,Egypt,Al Minyā,27.7306,30.8425,N,472,676,0,27.73,30.84,AAQE,1818284236,0,africa
Kuje,Nigeria,Federal Capital Territory,8.8822,7.2203,N,397,600,0,8.88,7.22,AAQE,1566591024,0,africa
Ait_Melloul,Morocco,Souss-Massa,30.3342,-9.4972,N,482,547,0,30.33,-9.5,AAQE,1504134516,0,africa
Kairouan,Tunisia,Kairouan,35.6772,10.1008,N,504,609,0,35.68,10.1,AAQE,1788844707,0,africa
Burutu,Nigeria,Delta,5.35,5.5167,N,382,595,0,5.35,5.52,AAQE,1566686777,0,africa
Beni_Mellal,Morocco,Béni Mellal-Khénifra,32.3394,-6.3608,N,490,557,0,32.34,-6.36,AAQE,1504131639,0,africa
Sunyani,Ghana,Bono,7.336,-2.336,N,390,570,0,7.34,-2.34,AAQE,1288679588,0,africa
Ashaiman,Ghana,Greater Accra,5.6995,-0.0348,N,384,577,0,5.7,-0.03,AAQE,1288638865,0,africa
Kasangati,Uganda,Wakiso,0.4378,32.6025,N,363,681,0,0.44,32.6,AAQE,1800208674,0,africa
Farshut,Egypt,Qinā,26.055,32.1627,N,465,680,0,26.06,32.16,AAQE,1818845921,0,africa
Parakou,Benin,Borgou,9.35,2.6167,N,398,585,0,9.35,2.62,AAQE,1204807468,0,africa
Bakaga,Benin,Borgou,9.35,2.6167,N,398,585,0,9.35,2.62,AAQE,1204320764,0,africa
Damietta,Egypt,Dumyāţ,31.4167,31.8214,N,487,679,0,31.42,31.82,AAQE,1818333966,0,africa
Cidade_de_Nacala,Mozambique,Nampula,-14.55,40.6833,N,303,707,0,-14.55,40.68,AAQE,1508752825,0,africa
Ifakara,Tanzania,Morogoro,-8.1,36.6833,N,329,694,0,-8.1,36.68,AAQE,1834456222,0,africa
Biskra,Algeria,Biskra,34.85,5.7333,N,500,595,0,34.85,5.73,AAQE,1012947247,0,africa
Bingerville,Côte d’Ivoire,Abidjan,5.35,-3.9,N,382,565,0,5.35,-3.9,AAQE,1384754377,0,africa
Mpanda,Tanzania,Katavi,-6.35,31.0667,N,336,676,0,-6.35,31.07,AAQE,1834127573,0,africa
Kukawa,Nigeria,Borno,12.9167,13.5667,N,413,620,0,12.92,13.57,AAQE,1566891739,0,africa
Iringa,Tanzania,Iringa,-7.77,35.69,N,330,691,0,-7.77,35.69,AAQE,1834453478,0,africa
Luxor,Egypt,Al Uqşur,25.6967,32.6444,N,464,681,0,25.7,32.64,AAQE,1818948225,0,africa
Timayy_al_Imdid,Egypt,Ad Daqahlīyah,30.9438,31.5293,N,485,678,0,30.94,31.53,AAQE,1818481287,0,africa
Al_Khums,Libya,Al Marqab,32.6497,14.2644,N,492,623,0,32.65,14.26,AAQE,1434172839,0,africa
Maroua,Cameroon,Extrême-Nord,10.5971,14.3157,N,403,623,0,10.6,14.32,AAQE,1120956931,0,africa
Qina,Egypt,Qinā,26.1667,32.7167,N,466,682,0,26.17,32.72,AAQE,1818868450,0,africa
Mai_Adua,Nigeria,Katsina,13.1906,8.2117,N,414,603,0,13.19,8.21,AAQE,1566695464,0,africa
Moshi,Tanzania,Kilimanjaro,-3.3349,37.3404,N,348,696,0,-3.33,37.34,AAQE,1834217168,0,africa
Sidfa,Egypt,Asyūţ,26.9664,31.3795,N,469,677,0,26.97,31.38,AAQE,1818711089,0,africa
Soio,Angola,Zaire,-6.1333,12.3667,N,336,617,0,-6.13,12.37,AAQE,1024903782,0,africa
Bouskoura,Morocco,Casablanca-Settat,33.4489,-7.6486,N,495,553,0,33.45,-7.65,AAQE,1504503306,0,africa
Kakuma,Kenya,Turkana,3.7167,34.8667,N,376,689,0,3.72,34.87,AAQE,1404320261,0,africa
Az_Zawiyah,Libya,Az Zāwiyah,32.7522,12.7278,N,492,618,0,32.75,12.73,AAQE,1434421178,0,africa
Isanlu,Nigeria,Kogi,8.1667,5.8,N,394,596,0,8.17,5.8,AAQE,1566562770,0,africa
Gbadolite,Congo (Kinshasa),Nord-Ubangi,4.2833,21.0167,N,378,644,0,4.28,21.02,AAQE,1180674224,0,africa
Lunga_Lunga,Kenya,Kwale,-4.55,39.12,N,343,702,0,-4.55,39.12,AAQE,1404110872,0,africa
Kankan,Guinea,Kankan,10.3833,-9.3,N,403,547,0,10.38,-9.3,AAQE,1324495325,0,africa
Baure,Nigeria,Katsina,12.7833,8.7667,N,412,605,0,12.78,8.77,AAQE,1566183701,0,africa
Kajo_Kaji,South Sudan,Central Equatoria,3.8863,31.667,N,377,678,0,3.89,31.67,AAQE,1728764691,0,africa
Kouribga,Morocco,Béni Mellal-Khénifra,32.8833,-6.9167,N,493,555,0,32.88,-6.92,AAQE,1504325928,0,africa
Mwene_Ditu,Congo (Kinshasa),Lomami,-7,23.45,N,333,652,0,-7,23.45,AAQE,1180134137,0,africa
Tchitato,Angola,Lunda-Norte,-7.3667,20.8333,N,332,644,0,-7.37,20.83,AAQE,1024883433,0,africa
Malema,Mozambique,Nampula,-14.9486,37.4144,N,301,697,0,-14.95,37.41,AAQE,1508782895,0,africa
Mbarara,Uganda,Mbarara,-0.6133,30.6583,N,359,675,0,-0.61,30.66,AAQE,1800554483,0,africa
Tebessa,Algeria,Tébessa,35.4,8.1167,N,503,603,0,35.4,8.12,AAQE,1012196375,0,africa
Mohammedia,Morocco,Casablanca-Settat,33.6833,-7.3833,N,496,553,0,33.68,-7.38,AAQE,1504542634,0,africa
Suhaj,Egypt,Sūhāj,26.5606,31.6917,N,467,678,0,26.56,31.69,AAQE,1818460403,0,africa
Bani_Suwayf,Egypt,Banī Suwayf,29.0667,31.0833,N,477,676,0,29.07,31.08,AAQE,1818902849,0,africa
Quelimane,Mozambique,Zambézia,-17.8764,36.8872,N,289,695,0,-17.88,36.89,AAQE,1508396687,0,africa
Fianarantsoa,Madagascar,Fianarantsoa,-21.4333,47.0833,N,275,728,0,-21.43,47.08,AAQE,1450070223,0,africa
Iwo,Nigeria,Osun,7.6333,4.1833,N,392,590,0,7.63,4.18,AAQE,1566462707,0,africa
Ouargla,Algeria,Ouargla,31.95,5.3167,N,489,594,0,31.95,5.32,AAQE,1012425687,0,africa
Chibia,Angola,Huíla,-15.1833,13.7,N,300,621,0,-15.18,13.7,AAQE,1024017930,0,africa
Ngaoundere,Cameroon,Adamaoua,7.3167,13.5833,N,390,620,0,7.32,13.58,AAQE,1120011020,0,africa
Sokode,Togo,Centrale,8.9833,1.1333,N,397,581,0,8.98,1.13,AAQE,1768875145,0,africa
Kenema,Sierra Leone,Eastern,7.8833,-11.1833,N,393,541,0,7.88,-11.18,AAQE,1694780903,0,africa
Dese,Ethiopia,Āmara,11.1333,39.6333,N,406,704,0,11.13,39.63,AAQE,1231359719,0,africa
Gharyan,Libya,Al Jabal al Gharbī,32.1697,13.0167,N,490,619,0,32.17,13.02,AAQE,1434507846,0,africa
Ucu_Seles,Angola,Cuanza-Sul,-11.4047,14.3006,N,315,623,0,-11.4,14.3,AAQE,1024868244,0,africa
Klerksdorp,South Africa,North West,-26.8667,26.6667,N,254,662,0,-26.87,26.67,AAQE,1710416691,0,africa
Ed_Damazin,Sudan,Blue Nile,11.7704,34.35,N,408,687,0,11.77,34.35,AAQE,1729684147,0,africa
Yei,South Sudan,Central Equatoria,4.0904,30.68,N,377,675,0,4.09,30.68,AAQE,1728607274,0,africa
Siguiri,Guinea,Kankan,11.4167,-9.1667,N,407,548,0,11.42,-9.17,AAQE,1324494896,0,africa
Cuango,Angola,Lunda-Norte,-9.1444,18.0464,N,324,635,0,-9.14,18.05,AAQE,1024514740,0,africa
Malumfashi,Nigeria,Katsina,11.8,7.6167,N,408,601,0,11.8,7.62,AAQE,1566616936,0,africa
Isiro,Congo (Kinshasa),Haut-Uélé,2.7833,27.6167,N,372,665,0,2.78,27.62,AAQE,1180183850,0,africa
Bethelsdorp,South Africa,Eastern Cape,-33.8833,25.5,N,225,659,0,-33.88,25.5,AAQE,1710792781,0,africa
Epe,Nigeria,Lagos,6.5833,3.9833,N,387,590,0,6.58,3.98,AAQE,1566461573,0,africa
Kindia,Guinea,Kindia,10.0497,-12.8542,N,401,536,0,10.05,-12.85,AAQE,1324348910,0,africa
Inisa,Nigeria,Osun,7.9833,4.65,N,393,592,0,7.98,4.65,AAQE,1566568743,0,africa
Funtua,Nigeria,Katsina,11.5204,7.32,N,407,600,0,11.52,7.32,AAQE,1566877863,0,africa
Obuase,Ghana,Ashanti,6.2,-1.6833,N,386,572,0,6.2,-1.68,AAQE,1288615192,0,africa
Mbanza_Kongo,Angola,Zaire,-6.2678,14.2481,N,336,623,0,-6.27,14.25,AAQE,1024532464,0,africa
Caluquembe,Angola,Huíla,-13.7833,14.6833,N,306,624,0,-13.78,14.68,AAQE,1024240126,0,africa
Mongu,Zambia,Western,-15.2775,23.1319,N,300,651,0,-15.28,23.13,AAQE,1894761291,0,africa
Calabar,Nigeria,Cross River,4.9767,8.3383,N,381,604,0,4.98,8.34,AAQE,1566495489,0,africa
El_Khroub,Algeria,Constantine,36.2667,6.7,N,506,598,0,36.27,6.7,AAQE,1012245786,0,africa
Tiaret,Algeria,Tiaret,35.3667,1.3167,N,502,581,0,35.37,1.32,AAQE,1012785868,0,africa
Njeru,Uganda,Buikwe,0.4311,33.1478,N,363,683,0,0.43,33.15,AAQE,1800578691,0,africa
Al_Arish,Egypt,Shamāl Sīnā’,31.1249,33.8006,N,485,685,0,31.12,33.8,AAQE,1818291145,0,africa
Kandi,Benin,Alibori,11.1286,2.9369,N,406,586,0,11.13,2.94,AAQE,1204875413,0,africa
Dundo,Angola,Lunda-Norte,-7.3801,20.8351,N,331,644,0,-7.38,20.84,AAQE,1024121799,0,africa
Ar_Rahmaniyah,Egypt,Al Buḩayrah,31.1048,30.6414,N,485,675,0,31.1,30.64,AAQE,1818669069,0,africa
Bejaia,Algeria,Bejaïa,36.7511,5.0642,N,508,593,0,36.75,5.06,AAQE,1012140298,0,africa
Biu,Nigeria,Borno,10.6111,12.195,N,403,616,0,10.61,12.2,AAQE,1566675681,0,africa
Arafat,Mauritania,Nouakchott Sud,18.0583,-15.9621,N,433,526,0,18.06,-15.96,AAQE,1478174698,0,africa
Catumbela,Angola,Benguela,-12.4339,13.5433,N,311,620,0,-12.43,13.54,AAQE,1024821574,0,africa
Ada,Nigeria,Osun,7.8956,4.7094,N,393,592,0,7.9,4.71,AAQE,1566487740,0,africa
Habaswein,Kenya,Wajir,1.0166,39.4912,N,365,703,0,1.02,39.49,AAQE,1404012344,0,africa
Bida,Nigeria,Niger,9.0804,6.01,N,397,596,0,9.08,6.01,AAQE,1566468363,0,africa
Ongata_Rongai,Kenya,Kajiado,-1.4,36.77,N,355,695,0,-1.4,36.77,AAQE,1404422353,0,africa
Kindu,Congo (Kinshasa),Maniema,-2.95,25.95,N,349,660,0,-2.95,25.95,AAQE,1180106925,0,africa
Kaolack,Senegal,Kaolack,14.1389,-16.0764,N,418,526,0,14.14,-16.08,AAQE,1686256343,0,africa
Bir_el_Djir,Algeria,Oran,35.7367,-0.5542,N,504,575,0,35.74,-0.55,AAQE,1012283284,0,africa
Cazanga,Angola,Cuanza-Norte,-9.3,14.95,N,324,625,0,-9.3,14.95,AAQE,1024657411,0,africa
Kempton_Park,South Africa,Gauteng,-26.1,28.2333,N,257,667,0,-26.1,28.23,AAQE,1710287070,0,africa
Settat,Morocco,Casablanca-Settat,33,-7.6167,N,493,553,0,33,-7.62,AAQE,1504720478,0,africa
Guiglo,Côte d’Ivoire,Montagnes,6.5436,-7.4933,N,387,553,0,6.54,-7.49,AAQE,1384483732,0,africa
Makurdi,Nigeria,Benue,7.7333,8.5,N,392,604,0,7.73,8.5,AAQE,1566873994,0,africa
Nqutu,South Africa,KwaZulu-Natal,-28.232,30.566,N,248,675,0,-28.23,30.57,AAQE,1710983407,0,africa
Aplahoue,Benin,Couffo,6.9333,1.6833,N,389,582,0,6.93,1.68,AAQE,1204958955,0,africa
Cape_Coast,Ghana,Central,5.1,-1.25,N,381,573,0,5.1,-1.25,AAQE,1288506097,0,africa
Magwe,South Sudan,Eastern Equatoria,4.1354,32.2869,N,378,680,0,4.14,32.29,AAQE,1728085840,0,africa
Al_Marj,Libya,Al Marj,32.5005,20.83,N,491,644,0,32.5,20.83,AAQE,1434742923,0,africa
Kalale,Benin,Borgou,10.2953,3.3786,N,402,588,0,10.3,3.38,AAQE,1204531108,0,africa
Kroonstad,South Africa,Free State,-27.65,27.2333,N,250,664,0,-27.65,27.23,AAQE,1710508288,0,africa
Toliara,Madagascar,Toliara,-23.35,43.6667,N,268,717,0,-23.35,43.67,AAQE,1450593748,0,africa
Barrechid,Morocco,Casablanca-Settat,33.2667,-7.5833,N,494,553,0,33.27,-7.58,AAQE,1504194885,0,africa
Malanville,Benin,Atacora,11.8667,3.3833,N,408,588,0,11.87,3.38,AAQE,1204159179,0,africa
Bordj_Bou_Arreridj,Algeria,Bordj Bou Arréridj,36.0667,4.7667,N,505,592,0,36.07,4.77,AAQE,1012016677,0,africa
Gabes,Tunisia,Gabès,33.8833,10.1167,N,497,609,0,33.88,10.12,AAQE,1788064276,0,africa
Catape,Angola,Huíla,-13.7667,15.0833,N,306,625,0,-13.77,15.08,AAQE,1024321158,0,africa
Caconda,Angola,Huíla,-13.7393,15.0607,N,306,625,0,-13.74,15.06,AAQE,1024042830,0,africa
Kismaayo,Somalia,Jubbada Hoose,-0.3603,42.5489,N,360,713,0,-0.36,42.55,AAQE,1706091701,0,africa
Offa,Nigeria,Kwara,8.147,4.72,N,394,592,0,8.15,4.72,AAQE,1566192714,0,africa
Bechar,Algeria,Béchar,31.6167,-2.2167,N,487,570,0,31.62,-2.22,AAQE,1012371820,0,africa
Ebo,Angola,Cuanza-Sul,-11,14.6667,N,317,624,0,-11,14.67,AAQE,1024334702,0,africa
Bocoio,Angola,Benguela,-12.45,14.15,N,311,622,0,-12.45,14.15,AAQE,1024922883,0,africa
Abengourou,Côte d’Ivoire,Comoé,6.7297,-3.4964,N,388,566,0,6.73,-3.5,AAQE,1384295898,0,africa
Musoma,Tanzania,Mara,-1.5,33.8,N,355,685,0,-1.5,33.8,AAQE,1834100025,0,africa
Quibala,Angola,Cuanza-Sul,-10.7333,14.9833,N,318,625,0,-10.73,14.98,AAQE,1024007950,0,africa
Wau,South Sudan,Western Bahr el Ghazal,7.7,27.99,N,392,667,0,7.7,27.99,AAQE,1728877501,0,africa
Skikda,Algeria,Skikda,36.8667,6.9,N,508,599,0,36.87,6.9,AAQE,1012619903,0,africa
Boma,Congo (Kinshasa),Kongo Central,-5.85,13.05,N,338,619,0,-5.85,13.05,AAQE,1180611452,0,africa
Bizerte,Tunisia,Bizerte,37.2778,9.8639,N,510,609,0,37.28,9.86,AAQE,1788330365,0,africa
Mukono,Uganda,Mukono,0.3533,32.7553,N,362,682,0,0.35,32.76,AAQE,1800864322,0,africa
Tema,Ghana,Greater Accra,5.6667,-0.0167,N,384,577,0,5.67,-0.02,AAQE,1288205885,0,africa
Ndalatando,Angola,Cuanza-Norte,-9.3,14.9167,N,324,625,0,-9.3,14.92,AAQE,1024645515,0,africa
Ferkessedougou,Côte d’Ivoire,Savanes,9.5928,-5.1944,N,399,560,0,9.59,-5.19,AAQE,1384974005,0,africa
Koudougou,Burkina Faso,Centre-Ouest,12.25,-2.3667,N,410,569,0,12.25,-2.37,AAQE,1854839075,0,africa
Ede,Nigeria,Osun,7.7389,4.4361,N,392,591,0,7.74,4.44,AAQE,1566336253,0,africa
Kisarawe,Tanzania,Coast,-7.2622,38.7367,N,332,701,0,-7.26,38.74,AAQE,1834617787,0,africa
Quipungo,Angola,Huíla,-14.8167,14.55,N,302,624,0,-14.82,14.55,AAQE,1024929138,0,africa
Benoni,South Africa,Gauteng,-26.1883,28.3206,N,256,668,0,-26.19,28.32,AAQE,1710880986,0,africa
Djelfa,Algeria,Djelfa,34.6667,3.25,N,500,587,0,34.67,3.25,AAQE,1012268984,0,africa
Gweru,Zimbabwe,Midlands,-19.4614,29.8022,N,283,672,0,-19.46,29.8,AAQE,1716621481,0,africa
Banha,Egypt,Al Qalyūbīyah,30.4628,31.1797,N,483,677,0,30.46,31.18,AAQE,1818596265,0,africa
George,South Africa,Western Cape,-33.9667,22.45,N,225,649,0,-33.97,22.45,AAQE,1710164136,0,africa
Kamina,Congo (Kinshasa),Haut-Lomami,-8.7386,24.9906,N,326,657,0,-8.74,24.99,AAQE,1180363197,0,africa
Molo,Kenya,Nakuru,-0.2485,35.7319,N,360,691,0,-0.25,35.73,AAQE,1404340216,0,africa
Ketou,Benin,Plateau,7.3581,2.6075,N,390,585,0,7.36,2.61,AAQE,1204020661,0,africa
Adzope,Côte d’Ivoire,Lagunes,6.1035,-3.8648,N,385,565,0,6.1,-3.86,AAQE,1384370507,0,africa
Qalyub,Egypt,Al Qalyūbīyah,30.1997,31.2053,N,482,677,0,30.2,31.21,AAQE,1818824672,0,africa
Kisi,Nigeria,Oyo,9.0833,3.85,N,397,589,0,9.08,3.85,AAQE,1566512059,0,africa
Souk_Ahras,Algeria,Souk Ahras,36.2864,7.9511,N,506,602,0,36.29,7.95,AAQE,1012419619,0,africa
Chlef,Algeria,Chlef,36.1647,1.3317,N,506,581,0,36.16,1.33,AAQE,1012772239,0,africa
El_Eulma,Algeria,Sétif,36.15,5.6833,N,506,595,0,36.15,5.68,AAQE,1012292620,0,africa
Luanshya,Zambia,Copperbelt,-13.1333,28.4,N,308,668,0,-13.13,28.4,AAQE,1894410334,0,africa
Zango,Nigeria,Katsina,12.9333,8.5333,N,413,604,0,12.93,8.53,AAQE,1566483135,0,africa
Butembo,Congo (Kinshasa),Nord-Kivu,0.15,29.2833,N,362,671,0,0.15,29.28,AAQE,1180446432,0,africa
Saint_Louis,Senegal,Saint-Louis,16.0333,-16.5,N,425,524,0,16.03,-16.5,AAQE,1686542859,0,africa
Kitenkela,Kenya,Kajiado,-1.4855,36.9047,N,355,695,0,-1.49,36.9,AAQE,1404000624,0,africa
Lucapa,Angola,Lunda-Norte,-8.4228,20.7392,N,327,643,0,-8.42,20.74,AAQE,1024056286,0,africa
Moanda,Congo (Kinshasa),Kongo Central,-5.9342,12.3494,N,337,617,0,-5.93,12.35,AAQE,1180108441,0,africa
Sukrah,Tunisia,L’Ariana,36.8833,10.25,N,509,610,0,36.88,10.25,AAQE,1788614141,0,africa
Dutse,Nigeria,Jigawa,11.7011,9.3419,N,408,607,0,11.7,9.34,AAQE,1566855083,0,africa
Tete,Mozambique,Tete,-16.1579,33.5898,N,296,684,0,-16.16,33.59,AAQE,1508476900,0,africa
Gulu,Uganda,Gulu,2.7817,32.2992,N,372,680,0,2.78,32.3,AAQE,1800406007,0,africa
Bordj_el_Kiffan,Algeria,Alger,36.7375,3.1931,N,508,587,0,36.74,3.19,AAQE,1012186125,0,africa
Al_Manaqil,Sudan,Gezira,14.2504,32.98,N,418,683,0,14.25,32.98,AAQE,1729742500,0,africa
Mufulira,Zambia,Copperbelt,-12.5356,28.2419,N,311,667,0,-12.54,28.24,AAQE,1894907880,0,africa
Ipokia,Nigeria,Ogun,6.5333,2.85,N,387,586,0,6.53,2.85,AAQE,1566918556,0,africa
Mzuzu,Malawi,Mzimba,-11.45,34.0333,N,315,686,0,-11.45,34.03,AAQE,1454525586,0,africa
Auchi,Nigeria,Edo,7.0667,6.2667,N,389,597,0,7.07,6.27,AAQE,1566873539,0,africa
Kashikishi,Zambia,Luapula,-9.3,28.7167,N,324,669,0,-9.3,28.72,AAQE,1894795016,0,africa
Bohicon,Benin,Zou,7.2,2.0667,N,390,584,0,7.2,2.07,AAQE,1204200335,0,africa
Port_Louis,Mauritius,Port Louis,-20.1644,57.5042,N,280,761,0,-20.16,57.5,AAQE,1480131261,0,africa
Taza,Morocco,Fès-Meknès,34.2167,-4.0167,N,498,564,0,34.22,-4.02,AAQE,1504405154,0,africa
Maridi,South Sudan,Western Equatoria,4.9151,29.4769,N,381,671,0,4.92,29.48,AAQE,1728685965,0,africa
Nchelenge,Zambia,Luapula,-9.3533,28.7403,N,324,669,0,-9.35,28.74,AAQE,1894890604,0,africa
Kiambu,Kenya,Kiambu,-1.1714,36.8356,N,356,695,0,-1.17,36.84,AAQE,1404390868,0,africa
Malakal,South Sudan,Upper Nile,9.5369,31.656,N,399,678,0,9.54,31.66,AAQE,1728299711,0,africa
Kafr_ash_Shaykh,Egypt,Kafr ash Shaykh,31.1,30.95,N,485,676,0,31.1,30.95,AAQE,1818743040,0,africa
Kalemie,Congo (Kinshasa),Tanganyika,-5.9128,29.1906,N,337,670,0,-5.91,29.19,AAQE,1180574233,0,africa
Maquela_do_Zombo,Angola,Uíge,-6.05,15.1167,N,337,625,0,-6.05,15.12,AAQE,1024582197,0,africa
Wamba,Congo (Kinshasa),Haut-Uélé,2.1442,27.9929,N,370,667,0,2.14,27.99,AAQE,1180866253,0,africa
Keren,Eritrea,‘Anseba,15.7778,38.4581,N,424,700,0,15.78,38.46,AAQE,1232693598,0,africa
Gandajika,Congo (Kinshasa),Lomami,-6.75,23.9667,N,334,654,0,-6.75,23.97,AAQE,1180466776,0,africa
Mostaganem,Algeria,Mostaganem,35.9333,0.0833,N,505,577,0,35.93,0.08,AAQE,1012061703,0,africa
Vila_Junqueiro,Mozambique,Zambézia,-15.4669,36.9778,N,299,695,0,-15.47,36.98,AAQE,1508271174,0,africa
Bukoba,Tanzania,Kagera,-1.3333,31.8167,N,356,679,0,-1.33,31.82,AAQE,1834433264,0,africa
Dar_Naim,Mauritania,Nouakchott Nord,18.0973,-15.9327,N,433,526,0,18.1,-15.93,AAQE,1478696248,0,africa
Pinetown,South Africa,KwaZulu-Natal,-29.8167,30.85,N,242,676,0,-29.82,30.85,AAQE,1710417771,0,africa
Ramu,Kenya,Mandera,3.9375,41.2203,N,377,709,0,3.94,41.22,AAQE,1404221019,0,africa
Bandundu,Congo (Kinshasa),Kwilu,-3.3167,17.3667,N,348,633,0,-3.32,17.37,AAQE,1180219776,0,africa
Disuq,Egypt,Kafr ash Shaykh,31.1325,30.6478,N,486,675,0,31.13,30.65,AAQE,1818106054,0,africa
Touggourt,Algeria,Touggourt,33.1,6.0667,N,493,596,0,33.1,6.07,AAQE,1012546670,0,africa
Ikot_Ekpene,Nigeria,Akwa Ibom,5.1833,7.7167,N,382,602,0,5.18,7.72,AAQE,1566150661,0,africa
Sannar,Sudan,Sennar,13.55,33.6,N,415,685,0,13.55,33.6,AAQE,1729986512,0,africa
Lichinga,Mozambique,Niassa,-13.3,35.2456,N,308,690,0,-13.3,35.25,AAQE,1508041628,0,africa
Namacunde,Angola,Cunene,-17.3,15.85,N,292,628,0,-17.3,15.85,AAQE,1024843393,0,africa
Bondoukou,Côte d’Ivoire,Zanzan,8.0304,-2.8,N,393,568,0,8.03,-2.8,AAQE,1384649653,0,africa
Pemba,Mozambique,Cabo Delgado,-12.9667,40.5167,N,309,707,0,-12.97,40.52,AAQE,1508872233,0,africa
Bilbays,Egypt,Ash Sharqīyah,30.4167,31.5667,N,483,678,0,30.42,31.57,AAQE,1818863783,0,africa
Numan,Nigeria,Adamawa,9.4669,12.0328,N,399,616,0,9.47,12.03,AAQE,1566815415,0,africa
Nsele,Congo (Kinshasa),Kinshasa,-4.3744,15.4947,N,344,627,0,-4.37,15.49,AAQE,1180786924,0,africa
Mtwara,Tanzania,Mtwara,-10.2736,40.1828,N,320,706,0,-10.27,40.18,AAQE,1834044142,0,africa
Krugersdorp,South Africa,Gauteng,-26.1,27.7667,N,257,666,0,-26.1,27.77,AAQE,1710772829,0,africa
Atbara,Sudan,River Nile,17.7167,33.9833,N,432,686,0,17.72,33.98,AAQE,1729042522,0,africa
Shinyanga,Tanzania,Shinyanga,-3.6619,33.4231,N,346,684,0,-3.66,33.42,AAQE,1834972707,0,africa
Gemena,Congo (Kinshasa),Sud-Ubangi,3.25,19.7667,N,374,640,0,3.25,19.77,AAQE,1180000163,0,africa
Medea,Algeria,Médéa,36.2675,2.75,N,506,586,0,36.27,2.75,AAQE,1012758282,0,africa
Dabou,Côte d’Ivoire,Lagunes,5.3256,-4.3767,N,382,563,0,5.33,-4.38,AAQE,1384274793,0,africa
Moundou,Chad,Logone Occidental,8.5667,16.0833,N,395,628,0,8.57,16.08,AAQE,1148369114,0,africa
Koutiala,Mali,Sikasso,12.3833,-5.4667,N,411,560,0,12.38,-5.47,AAQE,1466253368,0,africa
Negage,Angola,Uíge,-7.7667,15.2667,N,330,626,0,-7.77,15.27,AAQE,1024978551,0,africa
Inezgane,Morocco,Souss-Massa,30.3658,-9.5381,N,482,546,0,30.37,-9.54,AAQE,1504786674,0,africa
Sinfra,Côte d’Ivoire,Sassandra-Marahoué,6.621,-5.9114,N,387,558,0,6.62,-5.91,AAQE,1384501295,0,africa
Medina_Estates,Ghana,Greater Accra,5.6658,-0.1631,N,384,576,0,5.67,-0.16,AAQE,1288850745,0,africa
Porto_Amboim,Angola,Cuanza-Sul,-10.7183,13.75,N,318,621,0,-10.72,13.75,AAQE,1024818756,0,africa
Cacula,Angola,Huíla,14,29,N,417,670,0,14,29,AAQE,1024048087,0,africa
Quimbele,Angola,Uíge,-6.5167,16.2167,N,335,629,0,-6.52,16.22,AAQE,1024357792,0,africa
Port_Gentil,Gabon,Ogooué-Maritime,-0.7167,8.7833,N,358,605,0,-0.72,8.78,AAQE,1266383028,0,africa
Tobruk,Libya,Al Buţnān,32.0833,23.95,N,489,654,0,32.08,23.95,AAQE,1434068493,0,africa
Gitega,Burundi,Gitega,-3.4283,29.925,N,347,673,0,-3.43,29.93,AAQE,1108778000,0,africa
Nkongsamba,Cameroon,Littoral,4.95,9.9333,N,381,609,0,4.95,9.93,AAQE,1120972098,0,africa
Tizi_Ouzou,Algeria,Tizi Ouzou,36.7167,4.05,N,508,590,0,36.72,4.05,AAQE,1012126997,0,africa
Agboville,Côte d’Ivoire,Lagunes,5.9333,-4.2167,N,385,564,0,5.93,-4.22,AAQE,1384823872,0,africa
Ipetumodu,Nigeria,Osun,7.4999,4.4472,N,391,591,0,7.5,4.45,AAQE,1566155015,0,africa
Ruhengeri,Rwanda,Northern Province,-1.5,29.6333,N,355,672,0,-1.5,29.63,AAQE,1646793543,0,africa
Djakotome,Benin,Couffo,6.9,1.7167,N,389,582,0,6.9,1.72,AAQE,1204961382,0,africa
El_Oued,Algeria,El Oued,33.3611,6.8606,N,494,599,0,33.36,6.86,AAQE,1012148937,0,africa
Laghouat,Algeria,Laghouat,33.8028,2.875,N,496,586,0,33.8,2.88,AAQE,1012233848,0,africa
Livingstone,Zambia,Southern,-17.85,25.8667,N,290,660,0,-17.85,25.87,AAQE,1894634581,0,africa
Londuimbali,Angola,Huambo,-12.2419,15.3133,N,312,626,0,-12.24,15.31,AAQE,1024280825,0,africa
Luuq,Somalia,Gedo,3.8005,42.55,N,376,713,0,3.8,42.55,AAQE,1706505283,0,africa
Idfu,Egypt,Aswān,24.9781,32.8789,N,461,682,0,24.98,32.88,AAQE,1818755693,0,africa
Larache,Morocco,Tanger-Tétouan-Al Hoceïma,35.1833,-6.15,N,502,557,0,35.18,-6.15,AAQE,1504637172,0,africa
Segou,Mali,Ségou,13.45,-6.2667,N,415,557,0,13.45,-6.27,AAQE,1466684950,0,africa
Bibemi,Cameroon,Nord,9.3167,13.8833,N,398,621,0,9.32,13.88,AAQE,1120285705,0,africa
Porto_Novo,Benin,Ouémé,6.4972,2.605,N,387,585,0,6.5,2.61,AAQE,1204172060,0,africa
Tarime,Tanzania,Mara,-1.35,34.3833,N,356,687,0,-1.35,34.38,AAQE,1834684619,0,africa
M_Sila,Algeria,M’sila,35.7019,4.5472,N,504,592,0,35.7,4.55,AAQE,1012857730,0,africa
Kipushi,Congo (Kinshasa),Haut-Katanga,-11.7625,27.25,N,314,664,0,-11.76,27.25,AAQE,1180810333,0,africa
Zagnanado,Benin,Zou,7.2667,2.35,N,390,585,0,7.27,2.35,AAQE,1204320194,0,africa
Okigwe,Nigeria,Imo,5.483,7.55,N,383,601,0,5.48,7.55,AAQE,1566951349,0,africa
Aware,Ethiopia,Sumalē,8.2667,44.15,N,394,718,0,8.27,44.15,AAQE,1231934049,0,africa
Chicomba,Angola,Huíla,-14.1333,14.9167,N,304,625,0,-14.13,14.92,AAQE,1024892795,0,africa
Jijel,Algeria,Jijel,36.8167,5.75,N,508,595,0,36.82,5.75,AAQE,1012782547,0,africa
Buea,Cameroon,South-West,4.1667,9.2333,N,378,607,0,4.17,9.23,AAQE,1120497849,0,africa
Bassila,Benin,Donga,9.0167,1.6667,N,397,582,0,9.02,1.67,AAQE,1204259496,0,africa
Relizane,Algeria,Relizane,35.7333,0.55,N,504,579,0,35.73,0.55,AAQE,1012939885,0,africa
Polokwane,South Africa,Limpopo,-23.9,29.45,N,265,671,0,-23.9,29.45,AAQE,1710908010,0,africa
Idanre,Nigeria,Ondo,7.0922,5.1322,N,389,593,0,7.09,5.13,AAQE,1566785839,0,africa
Chinguar,Angola,Bié,-12.55,16.3333,N,311,629,0,-12.55,16.33,AAQE,1024191137,0,africa
Antsiranana,Madagascar,Antsiranana,-12.2765,49.3115,N,312,735,0,-12.28,49.31,AAQE,1450106928,0,africa
Mansa,Zambia,Luapula,-11.2,28.8833,N,316,669,0,-11.2,28.88,AAQE,1894038366,0,africa
Jamaame,Somalia,Jubbada Hoose,0.0722,42.7506,N,361,714,0,0.07,42.75,AAQE,1706288768,0,africa
Harar,Ethiopia,Hārerī Hizb,9.3111,42.1278,N,398,712,0,9.31,42.13,AAQE,1231785978,0,africa
Mubi,Nigeria,Adamawa,10.2667,13.2667,N,402,619,0,10.27,13.27,AAQE,1566265170,0,africa
Saida,Algeria,Saïda,34.8333,0.15,N,500,577,0,34.83,0.15,AAQE,1012285874,0,africa
Avrankou,Benin,Ouémé,6.55,2.6667,N,387,586,0,6.55,2.67,AAQE,1204861603,0,africa
Abaji,Nigeria,Federal Capital Territory,8.4756,6.9433,N,395,599,0,8.48,6.94,AAQE,1566650592,0,africa
Worcester,South Africa,Western Cape,-33.645,19.4436,N,226,639,0,-33.65,19.44,AAQE,1710498245,0,africa
Allada,Benin,Atlantique,6.65,2.15,N,388,584,0,6.65,2.15,AAQE,1204001429,0,africa
Kayes,Mali,Kayes,14.4497,-11.4367,N,419,540,0,14.45,-11.44,AAQE,1466546429,0,africa
Koforidua,Ghana,Eastern,6.1,-0.2667,N,385,576,0,6.1,-0.27,AAQE,1288961962,0,africa
Misserete,Benin,Ouémé,6.5625,2.5853,N,387,585,0,6.56,2.59,AAQE,1204481663,0,africa
Oume,Côte d’Ivoire,Gôh-Djiboua,6.3833,-5.4167,N,387,560,0,6.38,-5.42,AAQE,1384920146,0,africa
Guelmim,Morocco,Guelmim-Oued Noun,28.9833,-10.0667,N,477,545,0,28.98,-10.07,AAQE,1504110861,0,africa
Catabola,Angola,Bié,-12.1167,17.3,N,313,632,0,-12.12,17.3,AAQE,1024994288,0,africa
My_Drarga,Morocco,Souss-Massa,30.38,-9.48,N,483,547,0,30.38,-9.48,AAQE,1504399163,0,africa
Suhum,Ghana,Eastern,6.0409,-0.45,N,385,576,0,6.04,-0.45,AAQE,1288836102,0,africa
Jijiga,Ethiopia,Sumalē,9.35,42.8,N,398,714,0,9.35,42.8,AAQE,1231737909,0,africa
Rosetta,Egypt,Al Buḩayrah,31.4014,30.4194,N,487,674,0,31.4,30.42,AAQE,1818868679,0,africa
Sakiet_ed_Daier,Tunisia,Sfax,34.8,10.78,N,500,611,0,34.8,10.78,AAQE,1788449518,0,africa
Nzega,Tanzania,Tabora,-4.2169,33.1864,N,344,683,0,-4.22,33.19,AAQE,1834034762,0,africa
Gashua,Nigeria,Yobe,12.8681,11.0464,N,412,612,0,12.87,11.05,AAQE,1566925429,0,africa
Jilib,Somalia,Jubbada Dhexe,0.4883,42.7853,N,363,714,0,0.49,42.79,AAQE,1706018650,0,africa
Ksar_El_Kebir,Morocco,Tanger-Tétouan-Al Hoceïma,35.009,-5.9,N,501,558,0,35.01,-5.9,AAQE,1504230428,0,africa
Koidu,Sierra Leone,Eastern,8.6439,-10.9717,N,396,542,0,8.64,-10.97,AAQE,1694710002,0,africa
Yeebo_Town,Liberia,River Gee,5.25,-7.9167,N,382,552,0,5.25,-7.92,AAQE,1430592314,0,africa
Ouahigouya,Burkina Faso,Nord,13.5833,-2.4167,N,415,569,0,13.58,-2.42,AAQE,1854011699,0,africa
Grand_Bassam,Côte d’Ivoire,Comoé,5.2,-3.7333,N,382,565,0,5.2,-3.73,AAQE,1384167408,0,africa
Glazoue,Benin,Collines,7.9736,2.24,N,393,584,0,7.97,2.24,AAQE,1204842273,0,africa
Bimbo,Central African Republic,Ombella-Mpoko,4.2558,18.4042,N,378,636,0,4.26,18.4,AAQE,1140257478,0,africa
Pobe,Benin,Plateau,6.9667,2.6833,N,389,586,0,6.97,2.68,AAQE,1204955158,0,africa
Djidja,Benin,Zou,7.3333,1.9333,N,390,583,0,7.33,1.93,AAQE,1204250731,0,africa
Baraki,Algeria,Tipaza,36.6667,3.1,N,508,587,0,36.67,3.1,AAQE,1012987490,0,africa
Ariana,Tunisia,L’Ariana,36.8625,10.1956,N,508,610,0,36.86,10.2,AAQE,1788682546,0,africa
Kaya,Burkina Faso,Centre-Nord,13.0833,-1.0833,N,413,574,0,13.08,-1.08,AAQE,1854170035,0,africa
Ed_Damer,Sudan,River Nile,17.59,33.96,N,431,686,0,17.59,33.96,AAQE,1729791168,0,africa
Kilifi,Kenya,Kilifi,-3.6333,39.85,N,346,705,0,-3.63,39.85,AAQE,1404002930,0,africa
Skhirate,Morocco,Rabat-Salé-Kénitra,33.85,-7.03,N,496,555,0,33.85,-7.03,AAQE,1504664899,0,africa
Hoima,Uganda,Hoima,1.4319,31.3525,N,367,677,0,1.43,31.35,AAQE,1800806239,0,africa
Springs,South Africa,Gauteng,-26.2547,28.4428,N,256,668,0,-26.25,28.44,AAQE,1710058382,0,africa
Ondjiva,Angola,Cunene,-17.0667,15.7333,N,293,627,0,-17.07,15.73,AAQE,1024504085,0,africa
Alberton,South Africa,Gauteng,-26.2672,28.1219,N,256,667,0,-26.27,28.12,AAQE,1710738396,0,africa
Mit_Ghamr,Egypt,Ad Daqahlīyah,30.7192,31.2628,N,484,677,0,30.72,31.26,AAQE,1818400389,0,africa
Jima,Ethiopia,Oromīya,7.6667,36.8333,N,392,695,0,7.67,36.83,AAQE,1231214366,0,africa
Winterveld,South Africa,North West,-25.42,27.949,N,259,666,0,-25.42,27.95,AAQE,1710631370,0,africa
Gafsa,Tunisia,Gafsa,34.4225,8.7842,N,499,605,0,34.42,8.78,AAQE,1788454569,0,africa
Catchiungo,Angola,Huambo,-12.5667,16.2333,N,311,629,0,-12.57,16.23,AAQE,1024414170,0,africa
Guelma,Algeria,Guelma,36.45,7.4333,N,507,601,0,36.45,7.43,AAQE,1012266321,0,africa
Baraka,Congo (Kinshasa),Sud-Kivu,-4.1041,29.094,N,345,670,0,-4.1,29.09,AAQE,1180665112,0,africa
Ghardaia,Algeria,Ghardaïa,32.4833,3.6667,N,491,589,0,32.48,3.67,AAQE,1012074690,0,africa
Unwana,Nigeria,Abia,5.8625,7.9486,N,384,602,0,5.86,7.95,AAQE,1566334848,0,africa
Lalo,Benin,Couffo,6.9167,1.8833,N,389,583,0,6.92,1.88,AAQE,1204461381,0,africa
Kwekwe,Zimbabwe,Midlands,-18.9167,29.8167,N,285,672,0,-18.92,29.82,AAQE,1716327793,0,africa
Malindi,Kenya,Kilifi,-3.21,40.1,N,348,705,0,-3.21,40.1,AAQE,1404380224,0,africa
Parow,South Africa,Western Cape,-33.9,18.6,N,225,637,0,-33.9,18.6,AAQE,1710483674,0,africa
Aw_Dheegle,Somalia,Shabeellaha Hoose,1.9775,44.8325,N,369,720,0,1.98,44.83,AAQE,1706678463,0,africa
Vihiga,Kenya,Vihiga,0.0369,34.7101,N,361,688,0,0.04,34.71,AAQE,1404002123,0,africa
Berrouaghia,Algeria,Médéa,36.1333,2.9167,N,506,586,0,36.13,2.92,AAQE,1012339303,0,africa
Rundu,Namibia,Kavango East,-17.9167,19.7667,N,289,640,0,-17.92,19.77,AAQE,1516885937,0,africa
Bwana_Mkubwa,Zambia,Copperbelt,-12.9833,28.7,N,309,669,0,-12.98,28.7,AAQE,1894858787,0,africa
Bama,Nigeria,Borno,11.5189,13.6842,N,407,621,0,11.52,13.68,AAQE,1566590565,0,africa
Ilobu,Nigeria,Osun,7.84,4.486,N,392,591,0,7.84,4.49,AAQE,1566604971,0,africa
Nouadhibou,Mauritania,Dakhlet Nouadhibou,20.9333,-17.0333,N,445,522,0,20.93,-17.03,AAQE,1478176283,0,africa
Tahoua,Niger,Tahoua,14.9,5.2599,N,421,594,0,14.9,5.26,AAQE,1562214493,0,africa
Gogounou,Benin,Alibori,10.8386,2.8361,N,404,586,0,10.84,2.84,AAQE,1204602986,0,africa
Agadez,Niger,Agadez,16.9959,7.9828,N,429,603,0,17,7.98,AAQE,1562789067,0,africa
Beni_Yakhlef,Morocco,Casablanca-Settat,33.6555,-7.3221,N,496,554,0,33.66,-7.32,AAQE,1504512130,0,africa
Munuf,Egypt,Al Minūfīyah,30.4667,30.9333,N,483,676,0,30.47,30.93,AAQE,1818310821,0,africa
Banfora,Burkina Faso,Cascades,10.6308,-4.7589,N,404,562,0,10.63,-4.76,AAQE,1854763822,0,africa
Harshin,Ethiopia,Sumalē,9.2167,43.5878,N,398,716,0,9.22,43.59,AAQE,1231946994,0,africa
Cassongue,Angola,Cuanza-Sul,-11.8333,15,N,314,625,0,-11.83,15,AAQE,1024511668,0,africa
Faqus,Egypt,Ash Sharqīyah,30.7282,31.797,N,484,679,0,30.73,31.8,AAQE,1818728828,0,africa
Sidi_Yahya_Zaer,Morocco,Rabat-Salé-Kénitra,33.7105,-6.8831,N,496,555,0,33.71,-6.88,AAQE,1504365068,0,africa
Xai_Xai,Mozambique,Gaza,-25.05,33.65,N,261,685,0,-25.05,33.65,AAQE,1508689070,0,africa
Kadoma,Zimbabwe,Mashonaland West,-18.34,29.9,N,288,673,0,-18.34,29.9,AAQE,1716398005,0,africa
Boke,Guinea,Boké,10.94,-14.3,N,405,531,0,10.94,-14.3,AAQE,1324037897,0,africa
Ain_Beida,Algeria,Oum el Bouaghi,35.7833,7.3833,N,504,601,0,35.78,7.38,AAQE,1012021090,0,africa
Sabha,Libya,Sabhā,27.0389,14.4264,N,469,623,0,27.04,14.43,AAQE,1434044820,0,africa
Adjaouere,Benin,Plateau,7,2.6167,N,389,585,0,7,2.62,AAQE,1204225827,0,africa
Kasese,Uganda,Kasese,0.1867,30.0881,N,362,673,0,0.19,30.09,AAQE,1800924936,0,africa
Thies,Senegal,Thiès,14.7916,-16.9249,N,420,523,0,14.79,-16.92,AAQE,1686527948,0,africa
Bu_aale,Somalia,Jubbada Dhexe,1.0833,42.5833,N,365,713,0,1.08,42.58,AAQE,1706765820,0,africa
Ben_Guerir,Morocco,Marrakech-Safi,32,14,N,489,622,0,32,14,AAQE,1504909564,0,africa
Maghnia,Algeria,Tlemcen,34.8617,-1.7306,N,500,571,0,34.86,-1.73,AAQE,1012582356,0,africa
Ambovombe,Madagascar,Toliara,-25.1754,46.0882,N,260,724,0,-25.18,46.09,AAQE,1450135666,0,africa
Sakete,Benin,Plateau,6.7364,2.6581,N,388,586,0,6.74,2.66,AAQE,1204601704,0,africa
Lugazi,Uganda,Buikwe,0.3833,32.9242,N,363,682,0,0.38,32.92,AAQE,1800606876,0,africa
Machakos,Kenya,Machakos,-1.5167,37.2667,N,355,696,0,-1.52,37.27,AAQE,1404746781,0,africa
Materi,Benin,Atacora,10.6978,1.0633,N,404,580,0,10.7,1.06,AAQE,1204459888,0,africa
Quilengues,Angola,Huíla,-14.0814,14.0931,N,305,622,0,-14.08,14.09,AAQE,1024895987,0,africa
Ifanhim,Benin,Plateau,6.6667,2.7167,N,388,586,0,6.67,2.72,AAQE,1204693168,0,africa
Ndali,Benin,Borgou,9.8608,2.7181,N,400,586,0,9.86,2.72,AAQE,1204045508,0,africa
Mungo,Angola,Huambo,-11.6667,16.1667,N,314,629,0,-11.67,16.17,AAQE,1024065318,0,africa
Ait_Ali,Morocco,Souss-Massa,30.1765,-9.4886,N,482,547,0,30.18,-9.49,AAQE,1504009062,0,africa
Afdem,Ethiopia,Sumalē,9.4667,41,N,399,708,0,9.47,41,AAQE,1231882057,0,africa
Nkayi,Zimbabwe,Matabeleland North,-19,28.9,N,285,669,0,-19,28.9,AAQE,1716871686,0,africa
Nador,Morocco,Oriental,35.1667,-2.9333,N,502,568,0,35.17,-2.93,AAQE,1504811178,0,africa
Dassa_Zoume,Benin,Collines,7.75,2.1833,N,392,584,0,7.75,2.18,AAQE,1204114587,0,africa
Kouande,Benin,Atacora,10.3317,1.6914,N,402,582,0,10.33,1.69,AAQE,1204029400,0,africa
Bou_Saada,Algeria,Tizi Ouzou,36.7524,4.5833,N,508,592,0,36.75,4.58,AAQE,1012263841,0,africa
Sabara_Bangou,Niger,Tillabéri,15.1197,2.0006,N,421,583,0,15.12,2,AAQE,1562582841,0,africa
Jawhar,Somalia,Shabeellaha Dhexe,2.7833,45.5,N,372,723,0,2.78,45.5,AAQE,1706737655,0,africa
Kasempa,Zambia,North-Western,-13.455,25.835,N,307,660,0,-13.46,25.84,AAQE,1894152710,0,africa
Nsukka,Nigeria,Enugu,6.8567,7.3958,N,388,601,0,6.86,7.4,AAQE,1566882360,0,africa
Mersa,Ethiopia,Āmara,11.6667,39.6583,N,408,704,0,11.67,39.66,AAQE,1231844606,0,africa
Kintampo,Ghana,Bono East,8.0563,-1.7306,N,393,571,0,8.06,-1.73,AAQE,1288911745,0,africa
Kiffa,Mauritania,Assaba,16.6164,-11.4044,N,427,541,0,16.62,-11.4,AAQE,1478465771,0,africa
Franceville,Gabon,Haut-Ogooué,-1.6333,13.5833,N,354,620,0,-1.63,13.58,AAQE,1266537692,0,africa
Manzini,Eswatini,Manzini,-26.495,31.388,N,255,677,0,-26.5,31.39,AAQE,1748177431,0,africa
Masindi,Uganda,Masindi,1.6836,31.7222,N,368,679,0,1.68,31.72,AAQE,1800409287,0,africa
Empangeni,South Africa,KwaZulu-Natal,-28.75,31.9,N,246,679,0,-28.75,31.9,AAQE,1710623921,0,africa
Itele,Nigeria,Ogun,6.7667,4.0625,N,388,590,0,6.77,4.06,AAQE,1566450486,0,africa
Nkpor,Nigeria,Anambra,6.15,6.8333,N,386,599,0,6.15,6.83,AAQE,1566172737,0,africa
Handeni,Tanzania,Tanga,-5.4242,38.0194,N,339,699,0,-5.42,38.02,AAQE,1834479617,0,africa
Balombo,Angola,Benguela,-12.35,14.7667,N,312,624,0,-12.35,14.77,AAQE,1024251027,0,africa
Maxixe,Mozambique,Inhambane,-23.8597,35.3472,N,266,690,0,-23.86,35.35,AAQE,1508002342,0,africa
Kasserine,Tunisia,Kasserine,35.1667,8.8333,N,502,605,0,35.17,8.83,AAQE,1788047794,0,africa
Matruh,Egypt,Maţrūḩ,31.3333,27.2167,N,486,664,0,31.33,27.22,AAQE,1818661611,0,africa
Witbank,South Africa,Mpumalanga,-25.877,29.201,N,257,670,0,-25.88,29.2,AAQE,1710724527,0,africa
Mascara,Algeria,Mascara,35.4,0.1333,N,503,577,0,35.4,0.13,AAQE,1012738269,0,africa
Khenchela,Algeria,Khenchela,35.4167,7.1333,N,503,600,0,35.42,7.13,AAQE,1012495148,0,africa
Mopti,Mali,Mopti,14.49,-4.18,N,419,564,0,14.49,-4.18,AAQE,1466352252,0,africa
Birnin_Kebbi,Nigeria,Kebbi,12.4504,4.1999,N,411,590,0,12.45,4.2,AAQE,1566191812,0,africa
An_Nuhud,Sudan,West Kordofan,12.6904,28.42,N,412,668,0,12.69,28.42,AAQE,1729223651,0,africa
Baia_Farta,Angola,Benguela,-12.6072,13.1944,N,311,619,0,-12.61,13.19,AAQE,1024743438,0,africa
Labe,Guinea,Labé,11.3167,-12.2833,N,406,538,0,11.32,-12.28,AAQE,1324900784,0,africa
Wa,Ghana,Upper West,10.0667,-2.5,N,401,569,0,10.07,-2.5,AAQE,1288765586,0,africa
Monastir,Tunisia,Monastir,35.7694,10.8194,N,504,612,0,35.77,10.82,AAQE,1788553334,0,africa
Ilebo,Congo (Kinshasa),Kasaï,-4.3167,20.6,N,344,643,0,-4.32,20.6,AAQE,1180788280,0,africa
Bante,Benin,Collines,8.4167,1.8833,N,395,583,0,8.42,1.88,AAQE,1204394009,0,africa
El_Kelaa_des_Srarhna,Morocco,Marrakech-Safi,32.0481,-7.4083,N,489,553,0,32.05,-7.41,AAQE,1504846488,0,africa
Hammamet,Tunisia,Nabeul,36.4,10.6167,N,507,611,0,36.4,10.62,AAQE,1788426798,0,africa
Ad_Dakhla,Morocco,Dakhla-Oued Ed-Dahab,23.7081,-15.9456,N,456,526,0,23.71,-15.95,AAQE,1504999983,0,africa
Lokossa,Benin,Mono,6.6333,1.7167,N,388,582,0,6.63,1.72,AAQE,1204036358,0,africa
Atebubu,Ghana,Bono East,7.7554,-0.9808,N,392,574,0,7.76,-0.98,AAQE,1288881078,0,africa
Idku,Egypt,Al Buḩayrah,31.3058,30.2956,N,486,674,0,31.31,30.3,AAQE,1818383026,0,africa
Azare,Nigeria,Bauchi,11.6742,10.1911,N,408,610,0,11.67,10.19,AAQE,1566322480,0,africa
Kongolo,Congo (Kinshasa),Tanganyika,-5.4,27,N,339,663,0,-5.4,27,AAQE,1180814807,0,africa
Mityana,Uganda,Mityana,0.4006,32.0422,N,363,680,0,0.4,32.04,AAQE,1800284151,0,africa
Ndjamba,Angola,Huíla,-14.7,16.0667,N,302,628,0,-14.7,16.07,AAQE,1024911597,0,africa
Kafr_ad_Dawwar,Egypt,Al Buḩayrah,31.1339,30.1297,N,486,673,0,31.13,30.13,AAQE,1818347704,0,africa
Barika,Algeria,Batna,35.3972,5.3658,N,503,594,0,35.4,5.37,AAQE,1012917898,0,africa
Techiman,Ghana,Bono East,7.5905,-1.9395,N,391,571,0,7.59,-1.94,AAQE,1288222236,0,africa
Natitingou,Benin,Atacora,10.3,1.3667,N,402,581,0,10.3,1.37,AAQE,1204752595,0,africa
Moulay_Abdallah,Morocco,Casablanca-Settat,33.1978,-8.5883,N,494,550,0,33.2,-8.59,AAQE,1504563452,0,africa
Seguela,Côte d’Ivoire,Woroba,7.9611,-6.6731,N,393,556,0,7.96,-6.67,AAQE,1384639807,0,africa
Uitenhage,South Africa,Eastern Cape,-33.7667,25.4,N,226,658,0,-33.77,25.4,AAQE,1710276157,0,africa
Mubende,Uganda,Mubende,0.5575,31.395,N,363,677,0,0.56,31.4,AAQE,1800105368,0,africa
Francistown,Botswana,Francistown,-21.1736,27.5125,N,276,665,0,-21.17,27.51,AAQE,1072124168,0,africa
Bumba,Congo (Kinshasa),Mongala,2.1844,22.4703,N,370,649,0,2.18,22.47,AAQE,1180549980,0,africa
Sarh,Chad,Moyen-Chari,9.15,18.3833,N,398,636,0,9.15,18.38,AAQE,1148442794,0,africa
Walvisbaai,Namibia,Erongo,-22.9494,14.5069,N,269,623,0,-22.95,14.51,AAQE,1516267898,0,africa
Jirja,Egypt,Sūhāj,26.3383,31.8917,N,466,679,0,26.34,31.89,AAQE,1818327836,0,africa
Messaad,Algeria,Djelfa,34.1667,3.5,N,498,588,0,34.17,3.5,AAQE,1012278908,0,africa
Ngong,Kenya,Kajiado,-1.3667,36.6333,N,356,694,0,-1.37,36.63,AAQE,1404947852,0,africa
Sabratah,Libya,An Nuqāţ al Khams,32.7922,12.4842,N,492,617,0,32.79,12.48,AAQE,1434908655,0,africa
Aflou,Algeria,Laghouat,34.1089,2.1019,N,497,584,0,34.11,2.1,AAQE,1012904117,0,africa
Al_Jumayl,Libya,An Nuqāţ al Khams,32.8528,12.0611,N,492,616,0,32.85,12.06,AAQE,1434494324,0,africa
Tota,Benin,Couffo,6.8,1.7833,N,388,583,0,6.8,1.78,AAQE,1204352038,0,africa
Kasama,Zambia,Northern,-10.2117,31.1783,N,320,677,0,-10.21,31.18,AAQE,1894305215,0,africa
Calandala,Angola,Lunda-Norte,-9.0894,15.955,N,325,628,0,-9.09,15.96,AAQE,1024525047,0,africa
Kousseri,Cameroon,Extrême-Nord,12.0833,15.0333,N,409,625,0,12.08,15.03,AAQE,1120996697,0,africa
Ain_Oussera,Algeria,Djelfa,35.4489,2.9044,N,503,586,0,35.45,2.9,AAQE,1012469007,0,africa
KwaDukuza,South Africa,KwaZulu-Natal,-29.3333,31.2917,N,244,677,0,-29.33,31.29,AAQE,1710530492,0,africa
Daoukro,Côte d’Ivoire,Lacs,7.0586,-3.9646,N,389,564,0,7.06,-3.96,AAQE,1454072947,0,africa
Mporokoso,Zambia,Northern,-9.3833,30.1,N,323,673,0,-9.38,30.1,AAQE,1384963890,0,africa
Aboisso,Côte d’Ivoire,Comoé,5.4667,-3.2,N,383,567,0,5.47,-3.2,AAQE,1894882927,0,africa
Leer,South Sudan,Unity,8.3031,30.1406,N,394,673,0,8.3,30.14,AAQE,1384385857,0,africa
Diourbel,Senegal,Diourbel,14.655,-16.2314,N,420,525,0,14.66,-16.23,AAQE,1728110399,0,africa
Oulad_Teima,Morocco,Souss-Massa,30.4,-9.2167,N,483,548,0,30.4,-9.22,AAQE,1686087214,0,africa
Zomba,Malawi,Malawi,-15.386,35.3188,N,299,690,0,-15.386,35.3188,AAQE,1504278611,0,africa
