sitename,Country or Area Name,Full Address,Latitude,Longitude,Air Quality Monitor,IDXi,IDXj,SRadius,MERRALat,MERRALon,agencyname,utcoff,stationid,New Station
Cuiaba,NA,NA,-15.555244,-56.070214,N,299,398,0,-15.555244,-56.070214,NA,NA,1,TRUE
Alta_Floresta,NA,NA,-9.871339,-56.104453,N,322,397,0,-9.871339,-56.104453,NA,NA,2,TRUE
Jamari,NA,NA,-9.19907,-63.068552,N,324,375,0,-9.19907,-63.068552,NA,NA,3,TRUE
Tucson,NA,NA,32.233002,-110.953003,N,490,222,0,32.233002,-110.953003,NA,NA,4,TRUE
GSFC,NA,NA,38.9925,-76.839833,N,517,331,0,38.9925,-76.839833,NA,NA,5,TRUE
Kolfield,NA,NA,39.802223,-74.476387,N,520,339,0,39.802223,-74.476387,NA,NA,6,TRUE
Porto_Nacional,NA,NA,-10.7,-48.41,N,318,422,0,-10.7,-48.41,NA,NA,7,TRUE
Brasilia,NA,NA,-15.917,-47.900002,N,297,424,0,-15.917,-47.900002,NA,NA,8,TRUE
Harvard_Forest,NA,NA,42.532,-72.188,N,531,346,0,42.532,-72.188,NA,NA,9,TRUE
Wallops,NA,NA,37.93285,-75.47195,N,513,335,0,37.93285,-75.47195,NA,NA,10,TRUE
Hampton_Roads,NA,NA,36.783333,-76.449997,N,508,332,0,36.783333,-76.449997,NA,NA,11,TRUE
Hagerstown,NA,NA,39.708332,-77.724998,N,520,328,0,39.708332,-77.724998,NA,NA,12,TRUE
Hog_Island,NA,NA,37.453,-75.675,N,511,335,0,37.453,-75.675,NA,NA,13,TRUE
Tukurui,NA,NA,-3.716666,-49.683331,N,346,418,0,-3.716666,-49.683331,NA,NA,14,TRUE
Arizona,NA,NA,32.442001,-110.788002,N,491,222,0,32.442001,-110.788002,NA,NA,15,TRUE
Santarem,NA,NA,-2.428584,-54.706,N,351,402,0,-2.428584,-54.706,NA,NA,16,TRUE
Ussuriysk,NA,NA,43.7004,132.1635,N,536,1000,0,43.7004,132.1635,NA,NA,17,TRUE
Waskesiu,NA,NA,53.914386,-106.069578,N,577,238,0,53.914386,-106.069578,NA,NA,18,TRUE
Ariquiums,NA,NA,-9.916667,-63.033332,N,321,375,0,-9.916667,-63.033332,NA,NA,19,TRUE
JamTown,NA,NA,-9.190911,-63.1798,N,324,375,0,-9.190911,-63.1798,NA,NA,20,TRUE
Key_Biscayne,NA,NA,25.731966,-80.16333,N,464,320,0,25.731966,-80.16333,NA,NA,21,TRUE
Sevilleta,NA,NA,34.354721,-106.885002,N,498,235,0,34.354721,-106.885002,NA,NA,22,TRUE
Hawaii,NA,NA,20.710029,-156.253233,N,444,77,0,20.710029,-156.253233,NA,NA,23,TRUE
Cart_Site,NA,NA,36.60667,-97.48639,N,507,265,0,36.60667,-97.48639,NA,NA,24,TRUE
NSA_YJP_BOREAS,NA,NA,55.903,-98.290001,N,585,262,0,55.903,-98.290001,NA,NA,25,TRUE
FLIN_FLON,NA,NA,54.669998,-101.690002,N,580,252,0,54.669998,-101.690002,NA,NA,26,TRUE
SSA_YJP_BOREAS,NA,NA,53.674999,-104.650002,N,576,242,0,53.674999,-104.650002,NA,NA,27,TRUE
PRINCE_ALBERT,NA,NA,53.200001,-105.699997,N,574,239,0,53.200001,-105.699997,NA,NA,28,TRUE
Bonanza_Creek,NA,NA,64.742805,-148.316269,N,620,102,0,64.742805,-148.316269,NA,NA,29,TRUE
Mauna_Loa,NA,NA,19.536006,-155.576755,N,439,79,0,19.536006,-155.576755,NA,NA,30,TRUE
Thompson,NA,NA,55.799999,-97.849998,N,584,264,0,55.799999,-97.849998,NA,NA,31,TRUE
HJAndrews,NA,NA,44.238609,-122.223892,N,538,186,0,44.238609,-122.223892,NA,NA,32,TRUE
La_Crau,NA,NA,43.5765,4.819,N,535,592,0,43.5765,4.819,NA,NA,33,TRUE
Ukiah,NA,NA,45.13361,-118.918884,N,542,196,0,45.13361,-118.918884,NA,NA,34,TRUE
Wisconsin,NA,NA,46.051888,-89.653725,N,545,290,0,46.051888,-89.653725,NA,NA,35,TRUE
Ji_Parana,NA,NA,-10.86,-61.799999,N,318,379,0,-10.86,-61.799999,NA,NA,36,TRUE
Spokane,NA,NA,47.61972,-117.53389,N,551,201,0,47.61972,-117.53389,NA,NA,37,TRUE
Bondoukoui,NA,NA,11.85,-3.75,N,408,565,0,11.85,-3.75,NA,NA,38,TRUE
Bidi_Bahn,NA,NA,14.06,-2.45,N,417,569,0,14.06,-2.45,NA,NA,39,TRUE
Lille,NA,NA,50.611667,3.141667,N,563,587,0,50.611667,3.141667,NA,NA,40,TRUE
Park_Brasilia,NA,NA,-15.743333,-47.916668,N,298,424,0,-15.743333,-47.916668,NA,NA,41,TRUE
Albany_Oregon,NA,NA,44.583332,-123.066666,N,539,183,0,44.583332,-123.066666,NA,NA,42,TRUE
Biggs,NA,NA,39.450001,-121.73333,N,519,187,0,39.450001,-121.73333,NA,NA,43,TRUE
Chapada,NA,NA,-15.360644,-55.830143,N,300,398,0,-15.360644,-55.830143,NA,NA,44,TRUE
Jaru,NA,NA,-10.386164,-62.547749,N,319,377,0,-10.386164,-62.547749,NA,NA,45,TRUE
JARU_TOWN,NA,NA,-10.443056,-62.467778,N,319,377,0,-10.443056,-62.467778,NA,NA,46,TRUE
Agri_School,NA,NA,-10.080833,-56.180279,N,321,397,0,-10.080833,-56.180279,NA,NA,47,TRUE
Teles_Peres,NA,NA,-9.667945,-56.02,N,322,398,0,-9.667945,-56.02,NA,NA,48,TRUE
Red_Bluff,NA,NA,40.150002,-122.25,N,522,186,0,40.150002,-122.25,NA,NA,49,TRUE
Pullman,NA,NA,46.75,-117.191666,N,548,202,0,46.75,-117.191666,NA,NA,50,TRUE
Bordman,NA,NA,45.816666,-119.666664,N,544,194,0,45.816666,-119.666664,NA,NA,51,TRUE
White_Sands,NA,NA,32.918999,-106.350998,N,493,237,0,32.918999,-106.350998,NA,NA,52,TRUE
GORDO_rest,NA,NA,-15.401,-55.993,N,299,398,0,-15.401,-55.993,NA,NA,53,TRUE
Missoula,NA,NA,46.916668,-114.083336,N,549,212,0,46.916668,-114.083336,NA,NA,54,TRUE
Owens_Lake,NA,NA,36.487778,-117.870697,N,507,200,0,36.487778,-117.870697,NA,NA,55,TRUE
Capo_Verde,NA,NA,16.7325,-22.935499,N,428,504,0,16.7325,-22.935499,NA,NA,56,TRUE
Ouagadougou,NA,NA,12.42413,-1.48723,N,411,572,0,12.42413,-1.48723,NA,NA,57,TRUE
UCSB,NA,NA,34.415428,-119.84536,N,499,193,0,34.415428,-119.84536,NA,NA,58,TRUE
Jug_Bay,NA,NA,38.766666,-76.778099,N,516,331,0,38.766666,-76.778099,NA,NA,59,TRUE
SERC,NA,NA,38.888901,-76.555795,N,517,332,0,38.888901,-76.555795,NA,NA,60,TRUE
Burtonsville,NA,NA,39.093714,-76.949881,N,517,331,0,39.093714,-76.949881,NA,NA,61,TRUE
Gaithersburg,NA,NA,39.133335,-77.208336,N,518,330,0,39.133335,-77.208336,NA,NA,62,TRUE
La_Jolla,NA,NA,32.86846,-117.25113,N,492,202,0,32.86846,-117.25113,NA,NA,63,TRUE
SS_OJP_BOREAS,NA,NA,53.916,-104.69,N,577,242,0,53.916,-104.69,NA,NA,64,TRUE
Kasama,NA,NA,-10.21697,31.136159,N,320,677,0,-10.21697,31.136159,NA,NA,65,TRUE
Boulder,NA,NA,39.991466,-105.260832,N,521,240,0,39.991466,-105.260832,NA,NA,66,TRUE
McMurdo,NA,NA,-77.625,162.883331,N,50,1098,0,-77.625,162.883331,NA,NA,67,TRUE
Barcelona,NA,NA,41.38925,2.11206,N,527,584,0,41.38925,2.11206,NA,NA,68,TRUE
OBS-SSA,NA,NA,53.985,-105.12,N,577,241,0,53.985,-105.12,NA,NA,69,TRUE
CANDLE_LAKE,NA,NA,53.733,-105.267,N,576,240,0,53.733,-105.267,NA,NA,70,TRUE
Paddockwood,NA,NA,53.507889,-105.561817,N,575,239,0,53.507889,-105.561817,NA,NA,71,TRUE
Hong_Kong_Hok_Tsui,NA,NA,22.2097,114.258,N,450,943,0,22.2097,114.258,NA,NA,72,TRUE
SEDE_BOKER,NA,NA,30.855,34.782222,N,484,688,0,30.855,34.782222,NA,NA,73,TRUE
Madison,NA,NA,43.07,-89.41,N,533,291,0,43.07,-89.41,NA,NA,74,TRUE
Tuxtla_Gutierrez,NA,NA,16.754722,-93.152222,N,428,279,0,16.754722,-93.152222,NA,NA,75,TRUE
Tenosique,NA,NA,17.4875,-91.425556,N,431,284,0,17.4875,-91.425556,NA,NA,76,TRUE
Trinidad_Head,NA,NA,41.05392,-124.15102,N,525,180,0,41.05392,-124.15102,NA,NA,77,TRUE
Dead_Horse,NA,NA,69.428333,-148.698333,N,639,101,0,69.428333,-148.698333,NA,NA,78,TRUE
CARTEL,NA,NA,45.379754,-71.93133,N,543,347,0,45.379754,-71.93133,NA,NA,79,TRUE
Toronto,NA,NA,43.79,-79.47,N,536,323,0,43.79,-79.47,NA,NA,80,TRUE
North_Slope,NA,NA,69.627333,-148.6665,N,640,101,0,69.627333,-148.6665,NA,NA,81,TRUE
Mongu,NA,NA,-15.253611,23.150833,N,300,651,0,-15.253611,23.150833,NA,NA,82,TRUE
El_Refugio,NA,NA,-14.766388,-62.034722,N,302,378,0,-14.766388,-62.034722,NA,NA,83,TRUE
SANTA_CRUZ,NA,NA,-17.802133,-63.177717,N,290,375,0,-17.802133,-63.177717,NA,NA,84,TRUE
Campo_Grande,NA,NA,-20.45,-54.616667,N,279,402,0,-20.45,-54.616667,NA,NA,85,TRUE
Uberlandia,NA,NA,-18.9,-48.28333,N,285,422,0,-18.9,-48.28333,NA,NA,86,TRUE
Alianca,NA,NA,-14.733333,-47.533333,N,302,425,0,-14.733333,-47.533333,NA,NA,87,TRUE
CAMPO_VERDE,NA,NA,-15.561667,-55.175,N,299,400,0,-15.561667,-55.175,NA,NA,88,TRUE
Pantanal,NA,NA,-16.3955,-56.621833,N,295,396,0,-16.3955,-56.621833,NA,NA,89,TRUE
Potosi_Mine,NA,NA,-9.23092,-62.863328,N,324,376,0,-9.23092,-62.863328,NA,NA,90,TRUE
Repressa_Samuel,NA,NA,-8.755167,-63.459333,N,326,374,0,-8.755167,-63.459333,NA,NA,91,TRUE
Flor_De_Oro,NA,NA,-13.553056,-61.013889,N,307,382,0,-13.553056,-61.013889,NA,NA,92,TRUE
Banizoumbou,NA,NA,13.54693,2.66519,N,415,586,0,13.54693,2.66519,NA,NA,93,TRUE
Lanai,NA,NA,20.735,-156.921667,N,444,75,0,20.735,-156.921667,NA,NA,94,TRUE
Coconut_Island,NA,NA,21.4329,-157.789717,N,447,72,0,21.4329,-157.789717,NA,NA,95,TRUE
OceolaNF,NA,NA,30.205278,-82.442778,N,482,313,0,30.205278,-82.442778,NA,NA,96,TRUE
JonesERC,NA,NA,31.23083,-84.471111,N,486,307,0,31.23083,-84.471111,NA,NA,97,TRUE
TallTimbers,NA,NA,30.664167,-84.23889,N,484,307,0,30.664167,-84.23889,NA,NA,98,TRUE
OkefenokeeNWR,NA,NA,30.741111,-82.128611,N,484,314,0,30.741111,-82.128611,NA,NA,99,TRUE
Bermuda,NA,NA,32.37,-64.696111,N,490,370,0,32.37,-64.696111,NA,NA,100,TRUE
Dry_Tortugas,NA,NA,24.628056,-82.871944,N,460,312,0,24.628056,-82.871944,NA,NA,101,TRUE
JUNGFRAU,NA,NA,46.54748,7.984993,N,547,603,0,46.54748,7.984993,NA,NA,102,TRUE
Ascension_Island,NA,NA,-7.976389,-14.414722,N,329,531,0,-7.976389,-14.414722,NA,NA,103,TRUE
Windsor_B,NA,NA,42.283,-83.083,N,530,311,0,42.283,-83.083,NA,NA,104,TRUE
Barbados,NA,NA,13.148575,-59.624122,N,414,386,0,13.148575,-59.624122,NA,NA,105,TRUE
Tahiti,NA,NA,-17.5769,-149.6063,N,291,98,0,-17.5769,-149.6063,NA,NA,106,TRUE
MALE,NA,NA,4.191667,73.529167,N,378,812,0,4.191667,73.529167,NA,NA,107,TRUE
Tamihua,NA,NA,21.260717,-97.44245,N,446,265,0,21.260717,-97.44245,NA,NA,108,TRUE
Barrow,NA,NA,71.3122,-156.665,N,646,76,0,71.3122,-156.665,NA,NA,109,TRUE
T0_MAX_MEX,NA,NA,19.489944,-99.1485,N,439,260,0,19.489944,-99.1485,NA,NA,110,TRUE
Quarzazate,NA,NA,30.939,-6.909,N,485,555,0,30.939,-6.909,NA,NA,111,TRUE
REUNION_ST_DENIS,NA,NA,-20.90139,55.48474,N,277,755,0,-20.90139,55.48474,NA,NA,112,TRUE
Tromelin,NA,NA,-15.889167,54.517333,N,297,751,0,-15.889167,54.517333,NA,NA,113,TRUE
Rame_Head,NA,NA,50.317132,-4.219809,N,562,563,0,50.317132,-4.219809,NA,NA,114,TRUE
Dakar,NA,NA,14.394167,-16.958611,N,419,523,0,14.394167,-16.958611,NA,NA,115,TRUE
CRETE,NA,NA,35.337667,25.667833,N,502,659,0,35.337667,25.667833,NA,NA,116,TRUE
Guadeloup,NA,NA,16.22492,-61.528378,N,426,380,0,16.22492,-61.528378,NA,NA,117,TRUE
Aire_Adour,NA,NA,43.7,0.25,N,536,578,0,43.7,0.25,NA,NA,118,TRUE
Miami,NA,NA,25.72292,-80.27972,N,464,320,0,25.72292,-80.27972,NA,NA,119,TRUE
Sterling,NA,NA,38.98333,-77.46667,N,517,329,0,38.98333,-77.46667,NA,NA,120,TRUE
Sandy_Hook,NA,NA,40.448056,-73.99333,N,523,340,0,40.448056,-73.99333,NA,NA,121,TRUE
BONDVILLE,NA,NA,40.053333,-88.371944,N,521,294,0,40.053333,-88.371944,NA,NA,122,TRUE
Kaloma,NA,NA,-14.86,24.8275,N,302,656,0,-14.86,24.8275,NA,NA,123,TRUE
Mfuwe,NA,NA,-13.256667,31.930833,N,308,679,0,-13.256667,31.930833,NA,NA,124,TRUE
MISR-JPL,NA,NA,34.199,-118.17439,N,498,199,0,34.199,-118.17439,NA,NA,125,TRUE
Senanga,NA,NA,-16.108889,23.293333,N,297,652,0,-16.108889,23.293333,NA,NA,126,TRUE
Los_Fieros,NA,NA,-14.55,-60.616667,N,303,383,0,-14.55,-60.616667,NA,NA,127,TRUE
LOS_FIEROS_98,NA,NA,-14.556,-60.929,N,303,382,0,-14.556,-60.929,NA,NA,128,TRUE
NEW_YORK,NA,NA,40.77,-74,N,524,340,0,40.77,-74,NA,NA,129,TRUE
Zambezi,NA,NA,-13.533167,23.107194,N,307,651,0,-13.533167,23.107194,NA,NA,130,TRUE
Cheritan,NA,NA,37.289478,-75.971778,N,510,334,0,37.289478,-75.971778,NA,NA,131,TRUE
Las_Cardes,NA,NA,-30.250833,-71.257778,N,240,349,0,-30.250833,-71.257778,NA,NA,132,TRUE
Bratts_Lake,NA,NA,50.204238,-104.713013,N,562,242,0,50.204238,-104.713013,NA,NA,133,TRUE
Tombstone,NA,NA,31.742,-110.05,N,488,225,0,31.742,-110.05,NA,NA,134,TRUE
Dalanzadgad,NA,NA,43.577222,104.419167,N,535,911,0,43.577222,104.419167,NA,NA,135,TRUE
Ulaangom,NA,NA,49.973035,92.078183,N,561,872,0,49.973035,92.078183,NA,NA,136,TRUE
Venise,NA,NA,45.3139,12.5083,N,542,617,0,45.3139,12.5083,NA,NA,137,TRUE
T1_MAX_MEX,NA,NA,19.703067,-98.98195,N,440,260,0,19.703067,-98.98195,NA,NA,138,TRUE
Joberg,NA,NA,-26.186133,28.029167,N,256,667,0,-26.186133,28.029167,NA,NA,139,TRUE
Manaus,NA,NA,-2.59908,-60.03864,N,351,385,0,-2.59908,-60.03864,NA,NA,140,TRUE
Windsor_M,NA,NA,42.17,-82.87,N,530,312,0,42.17,-82.87,NA,NA,141,TRUE
Xanthi,NA,NA,41.146767,24.91895,N,526,657,0,41.146767,24.91895,NA,NA,142,TRUE
Krasnoyarsk,NA,NA,55.983333,92.766667,N,585,874,0,55.983333,92.766667,NA,NA,143,TRUE
San_Nicolas,NA,NA,33.256889,-119.486972,N,494,195,0,33.256889,-119.486972,NA,NA,144,TRUE
Sesheke,NA,NA,-17.48083,24.303889,N,291,655,0,-17.48083,24.303889,NA,NA,145,TRUE
Izana,NA,NA,28.30932,-16.49906,N,474,524,0,28.30932,-16.49906,NA,NA,146,TRUE
Tenerife,NA,NA,28.033333,-16.633333,N,473,524,0,28.033333,-16.633333,NA,NA,147,TRUE
Lunar_Lake,NA,NA,38.390083,-115.988383,N,515,206,0,38.390083,-115.988383,NA,NA,148,TRUE
Teide,NA,NA,28.27,-16.639,N,474,524,0,28.27,-16.639,NA,NA,149,TRUE
Sioux_Falls,NA,NA,43.736481,-96.625991,N,536,268,0,43.736481,-96.625991,NA,NA,150,TRUE
Walker_Branch,NA,NA,35.958333,-84.2875,N,505,307,0,35.958333,-84.2875,NA,NA,151,TRUE
Niabrara,NA,NA,42.764833,-100.02,N,532,257,0,42.764833,-100.02,NA,NA,152,TRUE
Egbert,NA,NA,44.231543,-79.781414,N,538,322,0,44.231543,-79.781414,NA,NA,153,TRUE
Ispra,NA,NA,45.80305,8.6267,N,544,605,0,45.80305,8.6267,NA,NA,154,TRUE
Mainz,NA,NA,49.999,8.3,N,561,604,0,49.999,8.3,NA,NA,155,TRUE
Ben_McDhui,NA,NA,-30.710833,27.6175,N,238,665,0,-30.710833,27.6175,NA,NA,156,TRUE
Brookhaven,NA,NA,40.866,-72.8847,N,524,344,0,40.866,-72.8847,NA,NA,157,TRUE
Saturn_Island,NA,NA,48.775252,-123.128177,N,556,183,0,48.775252,-123.128177,NA,NA,158,TRUE
Latoya,NA,NA,-15.678133,23.299883,N,298,652,0,-15.678133,23.299883,NA,NA,159,TRUE
Kaashidhoo,NA,NA,4.965,73.466,N,381,812,0,4.965,73.466,NA,NA,160,TRUE
Surinam,NA,NA,5.8,-55.2,N,384,400,0,5.8,-55.2,NA,NA,161,TRUE
Oyster,NA,NA,37.295044,-75.933192,N,510,334,0,37.295044,-75.933192,NA,NA,162,TRUE
NCU_Taiwan,NA,NA,24.967662,121.187508,N,461,965,0,24.967662,121.187508,NA,NA,163,TRUE
Ilorin,NA,NA,8.4841,4.6745,N,395,592,0,8.4841,4.6745,NA,NA,164,TRUE
Concepcion,NA,NA,-16.138167,-62.028,N,296,379,0,-16.138167,-62.028,NA,NA,165,TRUE
Dongsha_Island,NA,NA,20.698556,116.728833,N,444,951,0,20.698556,116.728833,NA,NA,166,TRUE
Chao_Jou,NA,NA,22.513056,120.529167,N,451,963,0,22.513056,120.529167,NA,NA,167,TRUE
Arica,NA,NA,-18.471667,-70.313333,N,287,352,0,-18.471667,-70.313333,NA,NA,168,TRUE
Tinga_Tingana,NA,NA,-28.975833,139.990933,N,245,1025,0,-28.975833,139.990933,NA,NA,169,TRUE
Monclova,NA,NA,25.95,-101.47,N,465,252,0,25.95,-101.47,NA,NA,170,TRUE
Aguascalientes,NA,NA,21.7,-102.32,N,448,250,0,21.7,-102.32,NA,NA,171,TRUE
MCO-Hanimaadhoo,NA,NA,6.77635,73.183183,N,388,811,0,6.77635,73.183183,NA,NA,172,TRUE
NASA_LaRC,NA,NA,37.10496,-76.37864,N,509,333,0,37.10496,-76.37864,NA,NA,173,TRUE
Pickle_Lake,NA,NA,51.449444,-90.2175,N,567,288,0,51.449444,-90.2175,NA,NA,174,TRUE
IMAA_Potenza,NA,NA,40.601254,15.7237,N,523,627,0,40.601254,15.7237,NA,NA,175,TRUE
Andros_Island,NA,NA,24.7,-77.8,N,460,328,0,24.7,-77.8,NA,NA,176,TRUE
Kejimkujik,NA,NA,44.383333,-65.2833,N,539,368,0,44.383333,-65.2833,NA,NA,177,TRUE
Skukuza,NA,NA,-24.9917,31.5875,N,261,678,0,-24.9917,31.5875,NA,NA,178,TRUE
Bahrain,NA,NA,26.20805,50.609267,N,466,739,0,26.20805,50.609267,NA,NA,179,TRUE
Table_Mountain,NA,NA,40.125,-105.237,N,521,240,0,40.125,-105.237,NA,NA,180,TRUE
TABLE_MOUNTAIN_CA,NA,NA,34.38,-117.68,N,499,200,0,34.38,-117.68,NA,NA,181,TRUE
Howland,NA,NA,45.2041,-68.7402,N,542,357,0,45.2041,-68.7402,NA,NA,182,TRUE
Chequamegon,NA,NA,45.933333,-90.25,N,545,288,0,45.933333,-90.25,NA,NA,183,TRUE
USDA,NA,NA,39.029999,-76.879997,N,517,331,0,39.029999,-76.879997,NA,NA,184,TRUE
Honolulu,NA,NA,21.3172,-157.8861,N,446,72,0,21.3172,-157.8861,NA,NA,185,TRUE
St_John_Island,NA,NA,18.32,-64.73,N,434,370,0,18.32,-64.73,NA,NA,186,TRUE
Barnaul,NA,NA,53.341667,83.772222,N,574,845,0,53.341667,83.772222,NA,NA,187,TRUE
Bethlehem,NA,NA,-28.248333,28.333333,N,248,668,0,-28.248333,28.333333,NA,NA,188,TRUE
Solar_Village,NA,NA,24.906933,46.397286,N,461,725,0,24.906933,46.397286,NA,NA,189,TRUE
Abracos_Hill,NA,NA,-10.76,-62.358333,N,318,377,0,-10.76,-62.358333,NA,NA,190,TRUE
EOPACE1,NA,NA,36.182167,-75.75075,N,506,335,0,36.182167,-75.75075,NA,NA,191,TRUE
EOPACE2,NA,NA,36.183583,-75.744717,N,506,335,0,36.183583,-75.744717,NA,NA,192,TRUE
Mexico_City,NA,NA,19.333611,-99.181667,N,438,260,0,19.333611,-99.181667,NA,NA,193,TRUE
Carlsbad,NA,NA,32.368833,-104.233167,N,490,243,0,32.368833,-104.233167,NA,NA,194,TRUE
Buena_Vista,NA,NA,35.22,-119.26,N,502,195,0,35.22,-119.26,NA,NA,195,TRUE
Rimrock,NA,NA,46.4875,-116.991667,N,547,203,0,46.4875,-116.991667,NA,NA,196,TRUE
Chinhae,NA,NA,35.1558,128.652433,N,502,989,0,35.1558,128.652433,NA,NA,197,TRUE
Albuquerque,NA,NA,35.051672,-106.535836,N,501,236,0,35.051672,-106.535836,NA,NA,198,TRUE
Kolimbari,NA,NA,35.533333,23.783333,N,503,653,0,35.533333,23.783333,NA,NA,199,TRUE
Helgoland,NA,NA,54.177861,7.887361,N,578,602,0,54.177861,7.887361,NA,NA,200,TRUE
Tahoe_City,NA,NA,39.1733,-120.135,N,518,193,0,39.1733,-120.135,NA,NA,201,TRUE
Nauru,NA,NA,-0.5206,166.9159,N,359,1111,0,-0.5206,166.9159,NA,NA,202,TRUE
Shelton,NA,NA,40.750064,-98.760286,N,524,261,0,40.750064,-98.760286,NA,NA,203,TRUE
Creteil,NA,NA,48.7885,2.442783,N,556,585,0,48.7885,2.442783,NA,NA,204,TRUE
Mont_Joli,NA,NA,48.64,-68.156,N,556,359,0,48.64,-68.156,NA,NA,205,TRUE
Marina,NA,NA,36.806284,-121.787993,N,508,187,0,36.806284,-121.787993,NA,NA,206,TRUE
Gotland,NA,NA,57.916667,18.95,N,593,638,0,57.916667,18.95,NA,NA,207,TRUE
Konza,NA,NA,39.0825,-96.559667,N,517,268,0,39.0825,-96.559667,NA,NA,208,TRUE
Sopot,NA,NA,54.450833,18.564722,N,579,636,0,54.450833,18.564722,NA,NA,209,TRUE
Clermont_Ferrand,NA,NA,45.772435,2.964332,N,544,586,0,45.772435,2.964332,NA,NA,210,TRUE
Palaiseau,NA,NA,48.7116,2.215,N,556,584,0,48.7116,2.215,NA,NA,211,TRUE
Saclay,NA,NA,48.73333,2.16666,N,556,584,0,48.73333,2.16666,NA,NA,212,TRUE
Paris,NA,NA,48.846797,2.355508,N,556,585,0,48.846797,2.355508,NA,NA,213,TRUE
Toulouse,NA,NA,43.574722,1.373889,N,535,581,0,43.574722,1.373889,NA,NA,214,TRUE
Moldova,NA,NA,47.0008,28.8156,N,549,669,0,47.0008,28.8156,NA,NA,215,TRUE
MD_Science_Center,NA,NA,39.28123,-76.612052,N,518,332,0,39.28123,-76.612052,NA,NA,216,TRUE
GOA_INDIA,NA,NA,15.4525,73.806111,N,423,813,0,15.4525,73.806111,NA,NA,217,TRUE
Dharwar,NA,NA,15.428611,74.988611,N,423,817,0,15.428611,74.988611,NA,NA,218,TRUE
Aguas_Emendadas,NA,NA,-15.58175,-47.6563,N,299,424,0,-15.58175,-47.6563,NA,NA,219,TRUE
Belterra,NA,NA,-2.648483,-54.95165,N,350,401,0,-2.648483,-54.95165,NA,NA,220,TRUE
Balbina,NA,NA,-1.916983,-59.4868,N,353,387,0,-1.916983,-59.4868,NA,NA,221,TRUE
CEILAP-BA,NA,NA,-34.555425,-58.506411,N,223,390,0,-34.555425,-58.506411,NA,NA,222,TRUE
Anmyon,NA,NA,36.538537,126.330194,N,507,981,0,36.538537,126.330194,NA,NA,223,TRUE
Katibougou,NA,NA,12.916667,-7.532,N,413,553,0,12.916667,-7.532,NA,NA,224,TRUE
Cordoba-CETT,NA,NA,-31.524075,-64.463682,N,235,371,0,-31.524075,-64.463682,NA,NA,225,TRUE
Dead_Sea,NA,NA,31.1,35.45,N,485,690,0,31.1,35.45,NA,NA,226,TRUE
COVE,NA,NA,36.9,-75.71,N,509,335,0,36.9,-75.71,NA,NA,227,TRUE
China_Lake,NA,NA,35.6741,-117.744533,N,504,200,0,35.6741,-117.744533,NA,NA,228,TRUE
Tremiti,NA,NA,42.117965,15.490115,N,529,627,0,42.117965,15.490115,NA,NA,229,TRUE
IMS-METU-ERDEMLI,NA,NA,36.565,34.255,N,507,687,0,36.565,34.255,NA,NA,230,TRUE
Avignon,NA,NA,43.93275,4.878067,N,537,593,0,43.93275,4.878067,NA,NA,231,TRUE
Mammoth_Lake,NA,NA,37.616667,-119.033333,N,511,196,0,37.616667,-119.033333,NA,NA,232,TRUE
Rogers_Dry_Lake,NA,NA,34.92555,-117.885,N,501,200,0,34.92555,-117.885,NA,NA,233,TRUE
Stennis,NA,NA,30.368014,-89.616667,N,482,290,0,30.368014,-89.616667,NA,NA,234,TRUE
El_Arenosillo,NA,NA,37.105,-6.733472,N,509,555,0,37.105,-6.733472,NA,NA,235,TRUE
UCLA,NA,NA,34.069605,-118.442752,N,497,198,0,34.069605,-118.442752,NA,NA,236,TRUE
Nes_Ziona,NA,NA,31.9225,34.789167,N,489,688,0,31.9225,34.789167,NA,NA,237,TRUE
Maricopa,NA,NA,33.069023,-111.972298,N,493,219,0,33.069023,-111.972298,NA,NA,238,TRUE
Inhaca,NA,NA,-26.040583,32.905,N,257,682,0,-26.040583,32.905,NA,NA,239,TRUE
Kyiv,NA,NA,50.363611,30.496667,N,562,675,0,50.363611,30.496667,NA,NA,240,TRUE
Churchill,NA,NA,58.736,-93.818167,N,596,277,0,58.736,-93.818167,NA,NA,241,TRUE
IMC_Oristano,NA,NA,39.91,8.5,N,521,604,0,39.91,8.5,NA,NA,242,TRUE
Azores,NA,NA,38.53,-28.63,N,515,485,0,38.53,-28.63,NA,NA,243,TRUE
Hamburg,NA,NA,53.568333,9.973333,N,575,609,0,53.568333,9.973333,NA,NA,244,TRUE
KONZA_EDC,NA,NA,39.102328,-96.6096,N,517,268,0,39.102328,-96.6096,NA,NA,245,TRUE
Roosevelt_Roads,NA,NA,18.212336,-65.599456,N,434,367,0,18.212336,-65.599456,NA,NA,246,TRUE
Puerto_Madryn,NA,NA,-42.79,-65.01,N,190,369,0,-42.79,-65.01,NA,NA,247,TRUE
Modena,NA,NA,44.631667,10.945278,N,540,612,0,44.631667,10.945278,NA,NA,248,TRUE
La_Parguera,NA,NA,17.97045,-67.045383,N,433,362,0,17.97045,-67.045383,NA,NA,249,TRUE
Rio_Branco,NA,NA,-9.957467,-67.86935,N,321,360,0,-9.957467,-67.86935,NA,NA,250,TRUE
Lampedusa,NA,NA,35.516667,12.631667,N,503,617,0,35.516667,12.631667,NA,NA,251,TRUE
Maun_Tower,NA,NA,-19.9,23.55,N,281,652,0,-19.9,23.55,NA,NA,252,TRUE
Ndola,NA,NA,-12.995,28.658333,N,309,669,0,-12.995,28.658333,NA,NA,253,TRUE
Solwezi,NA,NA,-12.170667,26.363333,N,312,661,0,-12.170667,26.363333,NA,NA,254,TRUE
Cairo_University,NA,NA,30.026167,31.207317,N,481,677,0,30.026167,31.207317,NA,NA,255,TRUE
Sua_Pan,NA,NA,-20.533333,26.066667,N,279,660,0,-20.533333,26.066667,NA,NA,256,TRUE
Swakopmund,NA,NA,-22.65785,14.564033,N,270,624,0,-22.65785,14.564033,NA,NA,257,TRUE
GISS,NA,NA,40.7977,-73.9599,N,524,340,0,40.7977,-73.9599,NA,NA,258,TRUE
Etosha_Pan,NA,NA,-19.175017,15.914383,N,284,628,0,-19.175017,15.914383,NA,NA,259,TRUE
Mwinilunga,NA,NA,-11.74,24.430667,N,314,655,0,-11.74,24.430667,NA,NA,260,TRUE
Pietersburg,NA,NA,-23.883333,29.45,N,265,671,0,-23.883333,29.45,NA,NA,261,TRUE
Kaoma,NA,NA,-14.792667,24.794833,N,302,656,0,-14.792667,24.794833,NA,NA,262,TRUE
SKUKUZA_AEROPORT,NA,NA,-24.969,31.593,N,261,678,0,-24.969,31.593,NA,NA,263,TRUE
Osaka,NA,NA,34.650933,135.590633,N,500,1011,0,34.650933,135.590633,NA,NA,264,TRUE
Bucarest,NA,NA,44.45,26.525,N,539,662,0,44.45,26.525,NA,NA,265,TRUE
Shirahama,NA,NA,33.69345,135.356917,N,496,1010,0,33.69345,135.356917,NA,NA,266,TRUE
BSRN_BAO_Boulder,NA,NA,40.045183,-105.006033,N,521,241,0,40.045183,-105.006033,NA,NA,267,TRUE
Kanpur,NA,NA,26.512778,80.231639,N,467,834,0,26.512778,80.231639,NA,NA,268,TRUE
Midway_Island,NA,NA,28.209833,-177.378333,N,474,9,0,28.209833,-177.378333,NA,NA,269,TRUE
Billerica,NA,NA,42.528347,-71.268619,N,531,349,0,42.528347,-71.268619,NA,NA,270,TRUE
Moscow_MSU_MO,NA,NA,55.706947,37.522019,N,584,697,0,55.706947,37.522019,NA,NA,271,TRUE
Minsk,NA,NA,53.92,27.601,N,577,665,0,53.92,27.601,NA,NA,272,TRUE
Beijing,NA,NA,39.97689,116.38137,N,521,949,0,39.97689,116.38137,NA,NA,273,TRUE
NUIST,NA,NA,32.206483,118.71715,N,490,957,0,32.206483,118.71715,NA,NA,274,TRUE
Ningbo,NA,NA,29.859945,121.546872,N,480,966,0,29.859945,121.546872,NA,NA,275,TRUE
Qiandaohu,NA,NA,29.555717,119.052633,N,479,958,0,29.555717,119.052633,NA,NA,276,TRUE
Shanghi_Met,NA,NA,31.221383,121.548517,N,486,966,0,31.221383,121.548517,NA,NA,277,TRUE
Shanghi_Minhang,NA,NA,31.13045,121.39734,N,486,965,0,31.13045,121.39734,NA,NA,278,TRUE
Perth,NA,NA,-32.008056,115.893611,N,233,948,0,-32.008056,115.893611,NA,NA,279,TRUE
Kelowna,NA,NA,49.955333,-119.373,N,561,195,0,49.955333,-119.373,NA,NA,280,TRUE
CEILAP-UTN,NA,NA,-34.659722,-58.468611,N,222,390,0,-34.659722,-58.468611,NA,NA,281,TRUE
New_Delhi,NA,NA,28.630467,77.1751,N,476,824,0,28.630467,77.1751,NA,NA,282,TRUE
Okinawa,NA,NA,26.356667,127.768333,N,466,986,0,26.356667,127.768333,NA,NA,283,TRUE
Kuopio,NA,NA,62.892414,27.633606,N,613,665,0,62.892414,27.633606,NA,NA,284,TRUE
Agoufou,NA,NA,15.3454,-1.479117,N,422,572,0,15.3454,-1.479117,NA,NA,285,TRUE
Sao_Paulo,NA,NA,-23.5615,-46.734983,N,267,427,0,-23.5615,-46.734983,NA,NA,286,TRUE
MPI_Mainz,NA,NA,49.992,8.2375,N,561,603,0,49.992,8.2375,NA,NA,287,TRUE
Seoul_SNU,NA,NA,37.458056,126.951111,N,511,983,0,37.458056,126.951111,NA,NA,288,TRUE
Angiola,NA,NA,35.947,-119.538,N,505,194,0,35.947,-119.538,NA,NA,289,TRUE
Al_Dhafra,NA,NA,24.254278,54.549667,N,458,752,0,24.254278,54.549667,NA,NA,290,TRUE
SteamboatSpring,NA,NA,40.404867,-106.807117,N,523,235,0,40.404867,-106.807117,NA,NA,291,TRUE
Rome_Tor_Vergata,NA,NA,41.83955,12.647333,N,528,617,0,41.83955,12.647333,NA,NA,292,TRUE
SMHI,NA,NA,58.58,16.15,N,595,629,0,58.58,16.15,NA,NA,293,TRUE
Rottnest_Island,NA,NA,-32.000103,115.501667,N,233,947,0,-32.000103,115.501667,NA,NA,294,TRUE
THALA,NA,NA,35.55,8.683333,N,503,605,0,35.55,8.683333,NA,NA,295,TRUE
Gosan_SNU,NA,NA,33.292222,126.161667,N,494,981,0,33.292222,126.161667,NA,NA,296,TRUE
CUIABA-MIRANDA,NA,NA,-15.73091,-56.07086,N,298,398,0,-15.73091,-56.07086,NA,NA,297,TRUE
XiangHe,NA,NA,39.7536,116.9615,N,520,951,0,39.7536,116.9615,NA,NA,298,TRUE
Orizaba,NA,NA,19.106111,-97.324167,N,437,266,0,19.106111,-97.324167,NA,NA,299,TRUE
Dunhuang,NA,NA,40.03838,94.794,N,521,880,0,40.03838,94.794,NA,NA,300,TRUE
Bragansa,NA,NA,-0.834,-46.641,N,358,428,0,-0.834,-46.641,NA,NA,301,TRUE
Noto,NA,NA,37.334444,137.136944,N,510,1016,0,37.334444,137.136944,NA,NA,302,TRUE
Leipzig,NA,NA,51.3525,12.435278,N,566,617,0,51.3525,12.435278,NA,NA,303,TRUE
Inner_Mongolia,NA,NA,42.68319,115.9537,N,532,948,0,42.68319,115.9537,NA,NA,304,TRUE
Lan_Yu_Island,NA,NA,22.037306,121.558111,N,449,966,0,22.037306,121.558111,NA,NA,305,TRUE
Yulin,NA,NA,38.283333,109.716667,N,514,928,0,38.283333,109.716667,NA,NA,306,TRUE
BORDEAUX,NA,NA,44.788028,-0.579167,N,540,575,0,44.788028,-0.579167,NA,NA,307,TRUE
Marseille,NA,NA,43.2824,5.383817,N,534,594,0,43.2824,5.383817,NA,NA,308,TRUE
Realtor,NA,NA,43.48555,5.383817,N,535,594,0,43.48555,5.383817,NA,NA,309,TRUE
Vinon,NA,NA,43.709233,5.75865,N,536,595,0,43.709233,5.75865,NA,NA,310,TRUE
Railroad_Valley,NA,NA,38.497,-115.691,N,515,207,0,38.497,-115.691,NA,NA,311,TRUE
Oostende,NA,NA,51.225,2.925,N,566,586,0,51.225,2.925,NA,NA,312,TRUE
Homburi,NA,NA,15.329167,-1.546667,N,422,572,0,15.329167,-1.546667,NA,NA,313,TRUE
Philadelphia,NA,NA,40.035667,-75.004667,N,521,337,0,40.035667,-75.004667,NA,NA,314,TRUE
Davos,NA,NA,46.81281,9.84369,N,548,608,0,46.81281,9.84369,NA,NA,315,TRUE
Penn_State_Univ,NA,NA,40.7421,-78.0809,N,524,327,0,40.7421,-78.0809,NA,NA,316,TRUE
Lochiel,NA,NA,49.028,-122.602,N,557,185,0,49.028,-122.602,NA,NA,317,TRUE
Santiago,NA,NA,-33.489633,-70.717033,N,227,351,0,-33.489633,-70.717033,NA,NA,318,TRUE
Rochester,NA,NA,43.2337,-77.5864,N,534,329,0,43.2337,-77.5864,NA,NA,319,TRUE
Big_Meadows,NA,NA,38.521944,-78.436111,N,515,326,0,38.521944,-78.436111,NA,NA,320,TRUE
Tarbes,NA,NA,43.25,0.083333,N,534,577,0,43.25,0.083333,NA,NA,321,TRUE
Biarritz,NA,NA,43.483333,-1.55,N,535,572,0,43.483333,-1.55,NA,NA,322,TRUE
Pic_du_midi,NA,NA,42.937217,0.1413,N,533,577,0,42.937217,0.1413,NA,NA,323,TRUE
CCNY,NA,NA,40.821313,-73.949036,N,524,340,0,40.821313,-73.949036,NA,NA,324,TRUE
The_Hague,NA,NA,52.11048,4.32682,N,569,591,0,52.11048,4.32682,NA,NA,325,TRUE
Columbia_SC,NA,NA,34.022803,-81.036333,N,497,318,0,34.022803,-81.036333,NA,NA,326,TRUE
Jabiru,NA,NA,-12.6607,132.8931,N,310,1002,0,-12.6607,132.8931,NA,NA,327,TRUE
Lake_Argyle,NA,NA,-16.1081,128.7485,N,297,989,0,-16.1081,128.7485,NA,NA,328,TRUE
Munich_University,NA,NA,48.148,11.573,N,554,614,0,48.148,11.573,NA,NA,329,TRUE
Lecce_University,NA,NA,40.335111,18.111389,N,522,635,0,40.335111,18.111389,NA,NA,330,TRUE
Coleambally,NA,NA,-34.8101,146.0644,N,222,1044,0,-34.8101,146.0644,NA,NA,331,TRUE
Tarbes_Etal,NA,NA,43.224033,0.049283,N,534,577,0,43.224033,0.049283,NA,NA,332,TRUE
Kuwait_University,NA,NA,29.325,47.971,N,478,731,0,29.325,47.971,NA,NA,333,TRUE
Hermosillo,NA,NA,29.074722,-110.96,N,477,222,0,29.074722,-110.96,NA,NA,334,TRUE
Yekaterinburg,NA,NA,57.038333,59.545,N,589,768,0,57.038333,59.545,NA,NA,335,TRUE
Mussafa,NA,NA,24.371667,54.466667,N,458,751,0,24.371667,54.466667,NA,NA,336,TRUE
Tomsk,NA,NA,56.475351,85.04806,N,587,849,0,56.475351,85.04806,NA,NA,337,TRUE
London-UCL-UAO,NA,NA,51.52427,-0.131101,N,567,577,0,51.52427,-0.131101,NA,NA,338,TRUE
Yakutsk,NA,NA,61.661667,129.366667,N,608,991,0,61.661667,129.366667,NA,NA,339,TRUE
ATHENS-NOA,NA,NA,37.9721,23.718,N,513,653,0,37.9721,23.718,NA,NA,340,TRUE
Dahkla,NA,NA,23.716667,-15.95,N,456,526,0,23.716667,-15.95,NA,NA,341,TRUE
ISDGM_CNR,NA,NA,45.436981,12.331982,N,543,616,0,45.436981,12.331982,NA,NA,342,TRUE
Taipei_CWB,NA,NA,25.014683,121.53837,N,461,966,0,25.014683,121.53837,NA,NA,343,TRUE
Chen-Kung_Univ,NA,NA,22.993419,120.204664,N,453,962,0,22.993419,120.204664,NA,NA,344,TRUE
Fontainebleau,NA,NA,48.406667,2.680278,N,555,586,0,48.406667,2.680278,NA,NA,345,TRUE
Munich_Maisach,NA,NA,48.209,11.258,N,554,613,0,48.209,11.258,NA,NA,346,TRUE
Norfolk_State_Univ,NA,NA,36.848,-76.259,N,508,333,0,36.848,-76.259,NA,NA,347,TRUE
Monterey,NA,NA,36.59255,-121.854867,N,507,187,0,36.59255,-121.854867,NA,NA,348,TRUE
Belsk,NA,NA,51.836667,20.791667,N,568,644,0,51.836667,20.791667,NA,NA,349,TRUE
Fresno,NA,NA,36.781733,-119.773167,N,508,194,0,36.781733,-119.773167,NA,NA,350,TRUE
IHOP-Homestead,NA,NA,36.558333,-100.606183,N,507,255,0,36.558333,-100.606183,NA,NA,351,TRUE
Toravere,NA,NA,58.264895,26.466823,N,594,662,0,58.264895,26.466823,NA,NA,352,TRUE
Corcoran,NA,NA,36.10343,-119.5661,N,505,194,0,36.10343,-119.5661,NA,NA,353,TRUE
Andenes,NA,NA,69.278333,16.008611,N,638,628,0,69.278333,16.008611,NA,NA,354,TRUE
SMEX,NA,NA,41.936,-93.664,N,529,277,0,41.936,-93.664,NA,NA,355,TRUE
Halifax,NA,NA,44.638,-63.594,N,540,373,0,44.638,-63.594,NA,NA,356,TRUE
Villefranche,NA,NA,43.683889,7.328889,N,536,600,0,43.683889,7.328889,NA,NA,357,TRUE
Jaru_Reserve,NA,NA,-10.083333,-61.933333,N,321,379,0,-10.083333,-61.933333,NA,NA,358,TRUE
CRYSTAL_FACE,NA,NA,25.650167,-80.422167,N,464,320,0,25.650167,-80.422167,NA,NA,359,TRUE
Ji_Parana_UNIR,NA,NA,-10.882212,-61.9686,N,317,379,0,-10.882212,-61.9686,NA,NA,360,TRUE
North_Pole,NA,NA,88.80333,24.25433,N,716,655,0,88.80333,24.25433,NA,NA,361,TRUE
Wits_University,NA,NA,-26.192444,28.028972,N,256,667,0,-26.192444,28.028972,NA,NA,362,TRUE
Ahi_De_Cara,NA,NA,37.12,-3.43,N,509,566,0,37.12,-3.43,NA,NA,363,TRUE
Armilla,NA,NA,37.134258,-3.631519,N,510,565,0,37.134258,-3.631519,NA,NA,364,TRUE
Pitres,NA,NA,36.935778,-3.326081,N,509,566,0,36.935778,-3.326081,NA,NA,365,TRUE
Kuujjuarapik,NA,NA,55.28,-77.76,N,582,328,0,55.28,-77.76,NA,NA,366,TRUE
Porto_Velho,NA,NA,-8.77,-63.95,N,326,372,0,-8.77,-63.95,NA,NA,367,TRUE
FORTH_CRETE,NA,NA,35.332694,25.282417,N,502,658,0,35.332694,25.282417,NA,NA,368,TRUE
AntarcticaDomeC,NA,NA,-75.099953,123.331299,N,61,972,0,-75.099953,123.331299,NA,NA,369,TRUE
Palencia,NA,NA,41.988572,-4.515694,N,529,563,0,41.988572,-4.515694,NA,NA,370,TRUE
Canberra,NA,NA,-35.2713,149.1111,N,220,1054,0,-35.2713,149.1111,NA,NA,371,TRUE
Lannion,NA,NA,48.730833,-3.461944,N,556,566,0,48.730833,-3.461944,NA,NA,372,TRUE
Amsterdam_Island,NA,NA,-37.799544,77.571946,N,210,825,0,-37.799544,77.571946,NA,NA,373,TRUE
Chulalongkorn,NA,NA,13.736111,100.530278,N,416,899,0,13.736111,100.530278,NA,NA,374,TRUE
Omkoi,NA,NA,17.798333,98.431667,N,432,892,0,17.798333,98.431667,NA,NA,375,TRUE
Pimai,NA,NA,15.181944,102.564167,N,422,905,0,15.181944,102.564167,NA,NA,376,TRUE
Hua_Hin,NA,NA,12.634444,99.951111,N,412,897,0,12.634444,99.951111,NA,NA,377,TRUE
Palgrunden,NA,NA,58.755333,13.1515,N,596,619,0,58.755333,13.1515,NA,NA,378,TRUE
Bac_Giang,NA,NA,21.291416,106.225472,N,446,917,0,21.291416,106.225472,NA,NA,379,TRUE
Bac_Lieu,NA,NA,9.28,105.73,N,398,915,0,9.28,105.73,NA,NA,380,TRUE
Cabo_Raso,NA,NA,38.70937,-9.48587,N,516,547,0,38.70937,-9.48587,NA,NA,381,TRUE
Carpentras,NA,NA,44.083333,5.058333,N,537,593,0,44.083333,5.058333,NA,NA,382,TRUE
Kellogg_LTER,NA,NA,42.407983,-85.371717,N,531,304,0,42.407983,-85.371717,NA,NA,383,TRUE
Rossfeld,NA,NA,48.335139,7.62475,N,554,601,0,48.335139,7.62475,NA,NA,384,TRUE
Cabauw,NA,NA,51.971,4.927,N,569,593,0,51.971,4.927,NA,NA,385,TRUE
Longyearbyen,NA,NA,78.222833,15.649,N,674,627,0,78.222833,15.649,NA,NA,386,TRUE
Riverside_Park,NA,NA,38.716667,-77.066667,N,516,330,0,38.716667,-77.066667,NA,NA,387,TRUE
Rockville,NA,NA,39.056085,-77.129582,N,517,330,0,39.056085,-77.129582,NA,NA,388,TRUE
The_Mall,NA,NA,38.889522,-77.030917,N,517,331,0,38.889522,-77.030917,NA,NA,389,TRUE
Greenbelt_Park,NA,NA,38.746,-76.89355,N,516,331,0,38.746,-76.89355,NA,NA,390,TRUE
Worthington_ES,NA,NA,39.244536,-76.792985,N,518,331,0,39.244536,-76.792985,NA,NA,391,TRUE
Mt_Royal_ES_MS,NA,NA,39.309093,-76.625087,N,518,332,0,39.309093,-76.625087,NA,NA,392,TRUE
Mt_Washington_ES,NA,NA,39.36631,-76.65459,N,518,332,0,39.36631,-76.65459,NA,NA,393,TRUE
Southeast_MS,NA,NA,39.284685,-76.530643,N,518,332,0,39.284685,-76.530643,NA,NA,394,TRUE
Talmudical_Academy,NA,NA,39.369406,-76.74619,N,518,331,0,39.369406,-76.74619,NA,NA,395,TRUE
Sugarcone,NA,NA,39.384722,-76.685833,N,519,332,0,39.384722,-76.685833,NA,NA,396,TRUE
Frederick_Douglas,NA,NA,39.315484,-76.654572,N,518,332,0,39.315484,-76.654572,NA,NA,397,TRUE
Hamilton_El_MS,NA,NA,39.358986,-76.558236,N,518,332,0,39.358986,-76.558236,NA,NA,398,TRUE
Lakeland_El_MS,NA,NA,39.254146,-76.645314,N,518,332,0,39.254146,-76.645314,NA,NA,399,TRUE
Lansdowne_HS,NA,NA,39.245066,-76.648472,N,518,332,0,39.245066,-76.648472,NA,NA,400,TRUE
Robert_Poole_MS,NA,NA,39.33041,-76.63752,N,518,332,0,39.33041,-76.63752,NA,NA,401,TRUE
Waters_Art_Gallery,NA,NA,39.3,-76.616667,N,518,332,0,39.3,-76.616667,NA,NA,402,TRUE
Patapsco_MS,NA,NA,39.303046,-76.847241,N,518,331,0,39.303046,-76.847241,NA,NA,403,TRUE
Windsor_Corp_Park,NA,NA,39.3265,-76.7545,N,518,331,0,39.3265,-76.7545,NA,NA,404,TRUE
St_Timothys_Lane,NA,NA,39.272724,-76.728612,N,518,331,0,39.272724,-76.728612,NA,NA,405,TRUE
Glendale_Park,NA,NA,39.3837,-76.578817,N,519,332,0,39.3837,-76.578817,NA,NA,406,TRUE
LW-SCAN,NA,NA,34.96047,-97.97884,N,501,263,0,34.96047,-97.97884,NA,NA,407,TRUE
Toulon,NA,NA,43.135556,6.009444,N,534,596,0,43.135556,6.009444,NA,NA,408,TRUE
Dunkerque,NA,NA,51.03535,2.368117,N,565,585,0,51.03535,2.368117,NA,NA,409,TRUE
Irkutsk,NA,NA,51.799797,103.086644,N,568,907,0,51.799797,103.086644,NA,NA,410,TRUE
Evora,NA,NA,38.567833,-7.9115,N,515,552,0,38.567833,-7.9115,NA,NA,411,TRUE
ETNA,NA,NA,37.6135,15.019433,N,511,625,0,37.6135,15.019433,NA,NA,412,TRUE
Sao_Martinho_SONDA,NA,NA,-29.443333,-53.823444,N,243,405,0,-29.443333,-53.823444,NA,NA,413,TRUE
Brasilia_SONDA,NA,NA,-15.60129,-47.71348,N,299,424,0,-15.60129,-47.71348,NA,NA,414,TRUE
Petrolina_SONDA,NA,NA,-9.0691,-40.320108,N,325,448,0,-9.0691,-40.320108,NA,NA,415,TRUE
Campo_Grande_SONDA,NA,NA,-20.438617,-54.538742,N,279,402,0,-20.438617,-54.538742,NA,NA,416,TRUE
Ellington_Field,NA,NA,29.6,-95.18,N,479,272,0,29.6,-95.18,NA,NA,417,TRUE
Hyytiala,NA,NA,61.846447,24.295892,N,608,655,0,61.846447,24.295892,NA,NA,418,TRUE
MVCO,NA,NA,41.325,-70.5667,N,526,351,0,41.325,-70.5667,NA,NA,419,TRUE
Laegeren,NA,NA,47.478349,8.364352,N,551,604,0,47.478349,8.364352,NA,NA,420,TRUE
Egbert_X,NA,NA,44.231543,-79.781414,N,538,322,0,44.231543,-79.781414,NA,NA,421,TRUE
Mace_Head,NA,NA,53.32583,-9.89944,N,574,545,0,53.32583,-9.89944,NA,NA,422,TRUE
Blida,NA,NA,36.508333,2.880556,N,507,586,0,36.508333,2.880556,NA,NA,423,TRUE
Dhabi,NA,NA,24.480556,54.382778,N,459,751,0,24.480556,54.382778,NA,NA,424,TRUE
New_Hampshire_Univ,NA,NA,43.1325,-70.92,N,534,350,0,43.1325,-70.92,NA,NA,425,TRUE
Crozet_Island,NA,NA,-46.434806,51.850361,N,175,743,0,-46.434806,51.850361,NA,NA,426,TRUE
Mukdahan,NA,NA,16.606667,104.676111,N,427,912,0,16.606667,104.676111,NA,NA,427,TRUE
Los_Alamos,NA,NA,35.873583,-106.326067,N,504,237,0,35.873583,-106.326067,NA,NA,428,TRUE
BEIJING_2002,NA,NA,39.933333,116.283333,N,521,949,0,39.933333,116.283333,NA,NA,429,TRUE
Cabo_da_Roca,NA,NA,38.781722,-9.497667,N,516,547,0,38.781722,-9.497667,NA,NA,430,TRUE
Messina,NA,NA,38.1975,15.566833,N,514,627,0,38.1975,15.566833,NA,NA,431,TRUE
Panama_BCI,NA,NA,9.166667,-79.85,N,398,321,0,9.166667,-79.85,NA,NA,432,TRUE
Djougou,NA,NA,9.76007,1.59901,N,400,582,0,9.76007,1.59901,NA,NA,433,TRUE
Gwangju_GIST,NA,NA,35.228278,126.843139,N,502,983,0,35.228278,126.843139,NA,NA,434,TRUE
Thessaloniki,NA,NA,40.63,22.96,N,524,650,0,40.63,22.96,NA,NA,435,TRUE
Rio_Piedras,NA,NA,18.40185,-66.051483,N,435,366,0,18.40185,-66.051483,NA,NA,436,TRUE
Umm_Al_Quwain,NA,NA,25.533333,55.658333,N,463,755,0,25.533333,55.658333,NA,NA,437,TRUE
Abu_Dhabi,NA,NA,24.476111,54.328889,N,459,751,0,24.476111,54.328889,NA,NA,438,TRUE
Ames,NA,NA,42.021361,-93.774778,N,529,277,0,42.021361,-93.774778,NA,NA,439,TRUE
Darwin,NA,NA,-12.424,130.8915,N,311,996,0,-12.424,130.8915,NA,NA,440,TRUE
IER_Cinzana,NA,NA,13.278433,-5.933867,N,414,558,0,13.278433,-5.933867,NA,NA,441,TRUE
Granada,NA,NA,37.164,-3.605,N,510,565,0,37.164,-3.605,NA,NA,442,TRUE
Mezaira,NA,NA,23.10452,53.75466,N,453,749,0,23.10452,53.75466,NA,NA,443,TRUE
Al_Khaznah,NA,NA,24.158611,55.100556,N,458,753,0,24.158611,55.100556,NA,NA,444,TRUE
Hamim,NA,NA,22.966667,54.3,N,453,751,0,22.966667,54.3,NA,NA,445,TRUE
Jabal_Hafeet,NA,NA,24.058217,55.776383,N,457,755,0,24.058217,55.776383,NA,NA,446,TRUE
Al_Qlaa,NA,NA,24.133333,53.033333,N,458,747,0,24.133333,53.033333,NA,NA,447,TRUE
Saada,NA,NA,31.62583,-8.15583,N,488,551,0,31.62583,-8.15583,NA,NA,448,TRUE
Saih_Salam,NA,NA,24.829467,55.312783,N,460,754,0,24.829467,55.312783,NA,NA,449,TRUE
Dhadnah,NA,NA,25.512817,56.324717,N,463,757,0,25.512817,56.324717,NA,NA,450,TRUE
Chebogue_Point,NA,NA,43.747,-66.123,N,536,365,0,43.747,-66.123,NA,NA,451,TRUE
Resolute_Bay,NA,NA,74.705123,-94.969409,N,660,273,0,74.705123,-94.969409,NA,NA,452,TRUE
MAARCO,NA,NA,24.700333,54.658833,N,460,752,0,24.700333,54.658833,NA,NA,453,TRUE
SMART,NA,NA,24.249321,55.612064,N,458,755,0,24.249321,55.612064,NA,NA,454,TRUE
Abu_Al_Bukhoosh,NA,NA,25.495,53.145833,N,463,747,0,25.495,53.145833,NA,NA,455,TRUE
Dalma,NA,NA,24.502222,52.331667,N,459,744,0,24.502222,52.331667,NA,NA,456,TRUE
Sir_Bu_Nuair,NA,NA,25.217825,54.231269,N,462,751,0,25.217825,54.231269,NA,NA,457,TRUE
Pune,NA,NA,18.537255,73.805491,N,435,813,0,18.537255,73.805491,NA,NA,458,TRUE
Nicelli_Airport,NA,NA,45.426444,12.382417,N,543,617,0,45.426444,12.382417,NA,NA,459,TRUE
Santa_Cruz_Tenerife,NA,NA,28.472528,-16.247361,N,475,525,0,28.472528,-16.247361,NA,NA,460,TRUE
Moss_Landing,NA,NA,36.793133,-121.788167,N,508,187,0,36.793133,-121.788167,NA,NA,461,TRUE
Zakum_Field,NA,NA,24.835267,53.613167,N,460,749,0,24.835267,53.613167,NA,NA,462,TRUE
Cape_San_Juan,NA,NA,18.3845,-65.6199,N,435,367,0,18.3845,-65.6199,NA,NA,463,TRUE
Fresno_X,NA,NA,36.781733,-119.773167,N,508,194,0,36.781733,-119.773167,NA,NA,464,TRUE
Sioux_Falls_X,NA,NA,43.736283,-96.625983,N,536,268,0,43.736283,-96.625983,NA,NA,465,TRUE
Kapoho,NA,NA,19.516222,-154.810806,N,439,82,0,19.516222,-154.810806,NA,NA,466,TRUE
Prospect_Hill,NA,NA,32.299314,-64.765092,N,490,370,0,32.299314,-64.765092,NA,NA,467,TRUE
Karlsruhe,NA,NA,49.0933,8.4279,N,557,604,0,49.0933,8.4279,NA,NA,468,TRUE
Bodele,NA,NA,16.883,18.55,N,429,636,0,16.883,18.55,NA,NA,469,TRUE
Gustav_Dalen_Tower,NA,NA,58.59417,17.46683,N,595,633,0,58.59417,17.46683,NA,NA,470,TRUE
Liangning,NA,NA,41.5118,122.7013,N,527,970,0,41.5118,122.7013,NA,NA,471,TRUE
Hornsund,NA,NA,77.00148,15.54028,N,669,627,0,77.00148,15.54028,NA,NA,472,TRUE
Cairo_EMA,NA,NA,30.080767,31.290067,N,481,677,0,30.080767,31.290067,NA,NA,473,TRUE
COVE_SEAPRISM,NA,NA,36.9,-75.71,N,509,335,0,36.9,-75.71,NA,NA,474,TRUE
Fort_McMurray,NA,NA,56.752306,-111.476139,N,588,220,0,56.752306,-111.476139,NA,NA,475,TRUE
Elandsfontein,NA,NA,-26.245342,29.417572,N,256,671,0,-26.245342,29.417572,NA,NA,476,TRUE
OHP_OBSERVATOIRE,NA,NA,43.935,5.71,N,537,595,0,43.935,5.71,NA,NA,477,TRUE
Tonopah_Airport,NA,NA,38.05044,-117.09052,N,513,202,0,38.05044,-117.09052,NA,NA,478,TRUE
Caceres,NA,NA,39.478583,-6.343467,N,519,557,0,39.478583,-6.343467,NA,NA,479,TRUE
Praia,NA,NA,14.947,-23.484,N,421,502,0,14.947,-23.484,NA,NA,480,TRUE
SMART_POL,NA,NA,24.249321,55.612064,N,458,755,0,24.249321,55.612064,NA,NA,481,TRUE
Birdsville,NA,NA,-25.89893,139.34596,N,257,1023,0,-25.89893,139.34596,NA,NA,482,TRUE
Asia1,NA,NA,43.783333,87.65,N,536,857,0,43.783333,87.65,NA,NA,483,TRUE
Taihu,NA,NA,31.421,120.215333,N,487,962,0,31.421,120.215333,NA,NA,484,TRUE
Red_Mountain_Pass,NA,NA,37.907449,-107.710917,N,513,232,0,37.907449,-107.710917,NA,NA,485,TRUE
Asmara,NA,NA,15.342864,38.922392,N,422,702,0,15.342864,38.922392,NA,NA,486,TRUE
Dunedin,NA,NA,-45.863937,170.513644,N,178,1123,0,-45.863937,170.513644,NA,NA,487,TRUE
Chilbolton,NA,NA,51.14446,-1.43698,N,566,572,0,51.14446,-1.43698,NA,NA,488,TRUE
Hefei,NA,NA,31.904722,117.162222,N,489,952,0,31.904722,117.162222,NA,NA,489,TRUE
Trelew,NA,NA,-43.249806,-65.308611,N,188,368,0,-43.249806,-65.308611,NA,NA,490,TRUE
CEILAP-RG,NA,NA,-51.600503,-69.31925,N,155,355,0,-51.600503,-69.31925,NA,NA,491,TRUE
Hong_Kong_PolyU,NA,NA,22.303333,114.179722,N,450,942,0,22.303333,114.179722,NA,NA,492,TRUE
DMN_Maine_Soroa,NA,NA,13.216717,12.023067,N,414,615,0,13.216717,12.023067,NA,NA,493,TRUE
Taichung,NA,NA,24.106167,120.49133,N,457,963,0,24.106167,120.49133,NA,NA,494,TRUE
ICIPE-Mbita,NA,NA,-0.431525,34.206062,N,359,686,0,-0.431525,34.206062,NA,NA,495,TRUE
Nairobi,NA,NA,-1.338882,36.8653,N,356,695,0,-1.338882,36.8653,NA,NA,496,TRUE
Kibale,NA,NA,0.56045,30.3575,N,363,674,0,0.56045,30.3575,NA,NA,497,TRUE
Merredin,NA,NA,-31.493056,118.226389,N,235,955,0,-31.493056,118.226389,NA,NA,498,TRUE
Ji_Parana_SE,NA,NA,-10.93425,-61.851517,N,317,379,0,-10.93425,-61.851517,NA,NA,499,TRUE
La_Paz,NA,NA,-16.539,-68.066467,N,295,359,0,-16.539,-68.066467,NA,NA,500,TRUE
Tamanrasset_INM,NA,NA,22.79,5.53,N,452,595,0,22.79,5.53,NA,NA,501,TRUE
Tamanrasset_TMP,NA,NA,22.79,5.53,N,452,595,0,22.79,5.53,NA,NA,502,TRUE
USDA-BARC,NA,NA,39.03127,-76.93218,N,517,331,0,39.03127,-76.93218,NA,NA,503,TRUE
Xinglong,NA,NA,40.396389,117.578333,N,523,953,0,40.396389,117.578333,NA,NA,504,TRUE
T2_MAX_MEX,NA,NA,20.010183,-98.9088,N,441,260,0,20.010183,-98.9088,NA,NA,505,TRUE
Tampico_MAX_MEX,NA,NA,22.278283,-97.864167,N,450,264,0,22.278283,-97.864167,NA,NA,506,TRUE
Tudor_Hill,NA,NA,32.264,-64.879,N,490,369,0,32.264,-64.879,NA,NA,507,TRUE
Veracruz_MAX_MEX,NA,NA,19.144444,-96.186667,N,438,269,0,19.144444,-96.186667,NA,NA,508,TRUE
Ras_El_Ain,NA,NA,31.670278,-7.599444,N,488,553,0,31.670278,-7.599444,NA,NA,509,TRUE
Lulin,NA,NA,23.468611,120.873611,N,455,964,0,23.468611,120.873611,NA,NA,510,TRUE
EVK2-CNR,NA,NA,27.95775,86.814936,N,473,855,0,27.95775,86.814936,NA,NA,511,TRUE
Ny_Alesund,NA,NA,78.929433,11.86085,N,677,615,0,78.929433,11.86085,NA,NA,512,TRUE
Guam,NA,NA,13.430617,144.800783,N,415,1040,0,13.430617,144.800783,NA,NA,513,TRUE
Adelaide_Site_7,NA,NA,-34.725067,138.656483,N,222,1021,0,-34.725067,138.656483,NA,NA,514,TRUE
Gandhi_College,NA,NA,25.871,84.127944,N,464,846,0,25.871,84.127944,NA,NA,515,TRUE
Helsinki_Lighthouse,NA,NA,59.94897,24.92636,N,601,657,0,59.94897,24.92636,NA,NA,516,TRUE
Milyering,NA,NA,-22.02919,113.92308,N,273,942,0,-22.02919,113.92308,NA,NA,517,TRUE
Richland,NA,NA,46.34,-119.28,N,546,195,0,46.34,-119.28,NA,NA,518,TRUE
Chapais,NA,NA,49.822433,-74.9754,N,560,337,0,49.822433,-74.9754,NA,NA,519,TRUE
EPA-NCU,NA,NA,24.967533,121.185483,N,461,965,0,24.967533,121.185483,NA,NA,520,TRUE
Sevastopol,NA,NA,44.615833,33.517333,N,539,684,0,44.615833,33.517333,NA,NA,521,TRUE
Smith_Island_CBF,NA,NA,37.969183,-76.02385,N,513,334,0,37.969183,-76.02385,NA,NA,522,TRUE
Niamey,NA,NA,13.481389,2.172222,N,415,584,0,13.481389,2.172222,NA,NA,523,TRUE
Brussels,NA,NA,50.783332,4.35,N,564,591,0,50.783332,4.35,NA,NA,524,TRUE
Muscat,NA,NA,23.606383,58.435667,N,455,764,0,23.606383,58.435667,NA,NA,525,TRUE
Lhasa,NA,NA,29.6455,91.032917,N,480,868,0,29.6455,91.032917,NA,NA,526,TRUE
Zvenigorod,NA,NA,55.695,36.775,N,584,695,0,55.695,36.775,NA,NA,527,TRUE
Epanomi,NA,NA,40.375,22.978,N,522,651,0,40.375,22.978,NA,NA,528,TRUE
SACOL,NA,NA,35.946,104.137083,N,505,910,0,35.946,104.137083,NA,NA,529,TRUE
NAM_CO,NA,NA,30.772517,90.96245,N,484,868,0,30.772517,90.96245,NA,NA,530,TRUE
Univ_of_Houston,NA,NA,29.7177,-95.3416,N,480,272,0,29.7177,-95.3416,NA,NA,531,TRUE
Al_Ain,NA,NA,24.242167,55.705167,N,458,755,0,24.242167,55.705167,NA,NA,532,TRUE
Mount_Chacaltaya,NA,NA,-16.350139,-68.1315,N,296,359,0,-16.350139,-68.1315,NA,NA,533,TRUE
Karachi,NA,NA,24.94574,67.13594,N,461,792,0,24.94574,67.13594,NA,NA,534,TRUE
Appledore_Island,NA,NA,42.987064,-70.615361,N,533,351,0,42.987064,-70.615361,NA,NA,535,TRUE
Thompson_Farm,NA,NA,43.108772,-70.948344,N,533,350,0,43.108772,-70.948344,NA,NA,536,TRUE
PKU_PEK,NA,NA,39.593,116.184,N,519,949,0,39.593,116.184,NA,NA,537,TRUE
Yufa_PEK,NA,NA,39.309,116.184,N,518,949,0,39.309,116.184,NA,NA,538,TRUE
City_GZ,NA,NA,23.081,113.158,N,453,939,0,23.081,113.158,NA,NA,539,TRUE
BackGarden_GZ,NA,NA,23.296,113.021,N,454,939,0,23.296,113.021,NA,NA,540,TRUE
Singapore,NA,NA,1.297667,103.780383,N,366,909,0,1.297667,103.780383,NA,NA,541,TRUE
White_Sands_HELSTF,NA,NA,32.634942,-106.338072,N,492,237,0,32.634942,-106.338072,NA,NA,542,TRUE
Huang_Shan,NA,NA,30.13,118.15,N,482,955,0,30.13,118.15,NA,NA,543,TRUE
Frenchman_Flat,NA,NA,36.80928,-115.93479,N,508,206,0,36.80928,-115.93479,NA,NA,544,TRUE
Lahore,NA,NA,31.47987,74.26406,N,487,815,0,31.47987,74.26406,NA,NA,545,TRUE
Sodankyla,NA,NA,67.36662,26.62957,N,630,662,0,67.36662,26.62957,NA,NA,546,TRUE
SANTA_CRUZ_UTEPSA,NA,NA,-17.767325,-63.200961,N,290,375,0,-17.767325,-63.200961,NA,NA,547,TRUE
Eilat,NA,NA,29.5025,34.9175,N,479,689,0,29.5025,34.9175,NA,NA,548,TRUE
USDA-Howard,NA,NA,39.0542,-76.8775,N,517,331,0,39.0542,-76.8775,NA,NA,549,TRUE
Thule,NA,NA,76.516102,-68.769001,N,667,357,0,76.516102,-68.769001,NA,NA,550,TRUE
Chiang_Mai,NA,NA,18.813333,98.986944,N,436,894,0,18.813333,98.986944,NA,NA,551,TRUE
PEARL,NA,NA,80.053611,-86.416944,N,681,300,0,80.053611,-86.416944,NA,NA,552,TRUE
OPAL,NA,NA,79.990278,-85.939167,N,681,302,0,79.990278,-85.939167,NA,NA,553,TRUE
NASA_Ames,NA,NA,37.419986,-122.056969,N,511,186,0,37.419986,-122.056969,NA,NA,554,TRUE
OK_St_Univ,NA,NA,35.04564,-97.91734,N,501,264,0,35.04564,-97.91734,NA,NA,555,TRUE
Porquerolles,NA,NA,43.001389,6.161389,N,533,597,0,43.001389,6.161389,NA,NA,556,TRUE
Puspiptek,NA,NA,-6.3556,106.664383,N,336,918,0,-6.3556,106.664383,NA,NA,557,TRUE
Burjassot,NA,NA,39.507,-0.4202,N,519,576,0,39.507,-0.4202,NA,NA,558,TRUE
Dilar,NA,NA,37.062981,-3.385925,N,509,566,0,37.062981,-3.385925,NA,NA,559,TRUE
La_Laguna,NA,NA,28.481944,-16.321111,N,475,525,0,28.481944,-16.321111,NA,NA,560,TRUE
Mount_Gibbes,NA,NA,35.735207,-82.285712,N,504,314,0,35.735207,-82.285712,NA,NA,561,TRUE
LA-TM,NA,NA,30.324,119.44,N,482,959,0,30.324,119.44,NA,NA,562,TRUE
Bucharest_Inoe,NA,NA,44.348311,26.02805,N,538,660,0,44.348311,26.02805,NA,NA,563,TRUE
Calipso_Strasburg,NA,NA,39.934467,-76.2193,N,521,333,0,39.934467,-76.2193,NA,NA,564,TRUE
Calipso_Prt_Deposit,NA,NA,39.604,-76.116367,N,519,333,0,39.604,-76.116367,NA,NA,565,TRUE
Calipso_Price,NA,NA,39.097367,-75.959017,N,517,334,0,39.097367,-75.959017,NA,NA,566,TRUE
Calipso_West_Denton,NA,NA,38.914961,-75.894331,N,517,334,0,38.914961,-75.894331,NA,NA,567,TRUE
Calipso_Brookview,NA,NA,38.576022,-75.794308,N,515,334,0,38.576022,-75.794308,NA,NA,568,TRUE
Calipso_Mardela_Spr,NA,NA,38.469083,-75.74795,N,515,335,0,38.469083,-75.74795,NA,NA,569,TRUE
Calipso_Princess_An,NA,NA,38.21322,-75.68489,N,514,335,0,38.21322,-75.68489,NA,NA,570,TRUE
Calipso_Ninetown_Rd,NA,NA,38.964983,-75.91,N,517,334,0,38.964983,-75.91,NA,NA,571,TRUE
Calipso_Poplar_Tree,NA,NA,38.8634,-77.414233,N,516,329,0,38.8634,-77.414233,NA,NA,572,TRUE
Calipso_Sterling_PO,NA,NA,39.0012,-77.457567,N,517,329,0,39.0012,-77.457567,NA,NA,573,TRUE
Calipso_Ashburn,NA,NA,39.0659,-77.476167,N,517,329,0,39.0659,-77.476167,NA,NA,574,TRUE
Calipso_Peckman_Frm,NA,NA,39.938633,-77.750033,N,521,328,0,39.938633,-77.750033,NA,NA,575,TRUE
OBERNAI,NA,NA,48.442778,7.5425,N,555,601,0,48.442778,7.5425,NA,NA,576,TRUE
Calipso_Zion,NA,NA,39.932389,-76.199,N,521,333,0,39.932389,-76.199,NA,NA,577,TRUE
Calipso_Perryville,NA,NA,39.560672,-76.072656,N,519,334,0,39.560672,-76.072656,NA,NA,578,TRUE
Calipso_Kennedyvill,NA,NA,39.3055,-75.991983,N,518,334,0,39.3055,-75.991983,NA,NA,579,TRUE
Calipso_Pine_Cove,NA,NA,39.238669,-75.969347,N,518,334,0,39.238669,-75.969347,NA,NA,580,TRUE
Calipso_Bowers_Rd,NA,NA,39.193347,-75.955397,N,518,334,0,39.193347,-75.955397,NA,NA,581,TRUE
Calipso_Ridgely,NA,NA,38.94863,-75.8815,N,517,334,0,38.94863,-75.8815,NA,NA,582,TRUE
Calipso_WofDenton,NA,NA,38.89885,-75.862416,N,517,334,0,38.89885,-75.862416,NA,NA,583,TRUE
Calipso_WillistonLk,NA,NA,38.82893,-75.8463,N,516,334,0,38.82893,-75.8463,NA,NA,584,TRUE
Calipso_Harrison_Rd,NA,NA,38.63195,-75.771,N,516,335,0,38.63195,-75.771,NA,NA,585,TRUE
Calipso_NUFerry_Rd,NA,NA,38.34557,-75.69076,N,514,335,0,38.34557,-75.69076,NA,NA,586,TRUE
Silpakorn_Univ,NA,NA,13.819308,100.041183,N,416,897,0,13.819308,100.041183,NA,NA,587,TRUE
Chiang_Mai_Met_Sta,NA,NA,18.771125,98.972467,N,436,894,0,18.771125,98.972467,NA,NA,588,TRUE
Songkhla_Met_Sta,NA,NA,7.184387,100.604583,N,390,899,0,7.184387,100.604583,NA,NA,589,TRUE
Calipso_Fincastle,NA,NA,39.050183,-77.47535,N,517,329,0,39.050183,-77.47535,NA,NA,590,TRUE
Calipso_Braddock_Rd,NA,NA,38.82703,-77.408287,N,516,329,0,38.82703,-77.408287,NA,NA,591,TRUE
Calipso_Kinchaloe,NA,NA,38.755423,-77.390121,N,516,329,0,38.755423,-77.390121,NA,NA,592,TRUE
Calipso_W_Strasburg,NA,NA,39.94655,-76.231117,N,521,333,0,39.94655,-76.231117,NA,NA,593,TRUE
Calipso_Church_Hill,NA,NA,39.147466,-75.981717,N,518,334,0,39.147466,-75.981717,NA,NA,594,TRUE
Calipso_Tuckahoe,NA,NA,38.979173,-75.932939,N,517,334,0,38.979173,-75.932939,NA,NA,595,TRUE
Calipso_Washtn_High,NA,NA,38.18005,-75.686733,N,514,335,0,38.18005,-75.686733,NA,NA,596,TRUE
Calipso_W_Mardela,NA,NA,38.460833,-75.774633,N,515,335,0,38.460833,-75.774633,NA,NA,597,TRUE
Calipso_Cooper_Rd,NA,NA,38.325469,-75.731586,N,514,335,0,38.325469,-75.731586,NA,NA,598,TRUE
Calipso_Loudon_Rd,NA,NA,39.938933,-77.788517,N,521,328,0,39.938933,-77.788517,NA,NA,599,TRUE
Calipso_Sanders_ES,NA,NA,39.038485,-77.510017,N,517,329,0,39.038485,-77.510017,NA,NA,600,TRUE
Calipso_Westfield_H,NA,NA,38.887517,-77.464783,N,517,329,0,38.887517,-77.464783,NA,NA,601,TRUE
Calipso_Ormand_MS,NA,NA,38.855649,-77.45463,N,516,329,0,38.855649,-77.45463,NA,NA,602,TRUE
Hangzhou-ZFU,NA,NA,30.257233,119.727417,N,482,960,0,30.257233,119.727417,NA,NA,603,TRUE
Calipso_Flat_Iron,NA,NA,39.110825,-75.998673,N,517,334,0,39.110825,-75.998673,NA,NA,604,TRUE
Calipso_White_Marsh,NA,NA,39.075915,-75.988634,N,517,334,0,39.075915,-75.988634,NA,NA,605,TRUE
Calipso_Crouse_Mill,NA,NA,38.958531,-75.95163,N,517,334,0,38.958531,-75.95163,NA,NA,606,TRUE
Calipso_Hillsboro,NA,NA,38.915783,-75.939151,N,517,334,0,38.915783,-75.939151,NA,NA,607,TRUE
Calipso_Hurlock,NA,NA,38.61916,-75.84624,N,515,334,0,38.61916,-75.84624,NA,NA,608,TRUE
Calipso_Vienna,NA,NA,38.493536,-75.816541,N,515,334,0,38.493536,-75.816541,NA,NA,609,TRUE
Gual_Pahari,NA,NA,28.426086,77.15047,N,475,824,0,28.426086,77.15047,NA,NA,610,TRUE
Yaqui,NA,NA,27.280833,-109.912,N,470,225,0,27.280833,-109.912,NA,NA,611,TRUE
Abisko,NA,NA,68.35,18.817,N,634,637,0,68.35,18.817,NA,NA,612,TRUE
Ragged_Point,NA,NA,13.165018,-59.432035,N,414,387,0,13.165018,-59.432035,NA,NA,613,TRUE
Issyk-Kul,NA,NA,42.622778,76.983056,N,531,823,0,42.622778,76.983056,NA,NA,614,TRUE
Calipso_Morgnec_Rd,NA,NA,39.23567,-76.03074,N,518,334,0,39.23567,-76.03074,NA,NA,615,TRUE
Calipso_Church_H_Rd,NA,NA,39.132667,-75.999167,N,518,334,0,39.132667,-75.999167,NA,NA,616,TRUE
Calipso_Dean_Rd,NA,NA,39.00275,-75.9575,N,517,334,0,39.00275,-75.9575,NA,NA,617,TRUE
Calipso_Hillsboro_E,NA,NA,38.9169,-75.932533,N,517,334,0,38.9169,-75.932533,NA,NA,618,TRUE
Black_Forest_AMF,NA,NA,48.54005,8.396867,N,555,604,0,48.54005,8.396867,NA,NA,619,TRUE
Autilla,NA,NA,41.997222,-4.603056,N,529,562,0,41.997222,-4.603056,NA,NA,620,TRUE
Suffield,NA,NA,50.28155,-111.130771,N,562,221,0,50.28155,-111.130771,NA,NA,621,TRUE
Kirtland_AFB,NA,NA,34.95081,-106.507403,N,501,236,0,34.95081,-106.507403,NA,NA,622,TRUE
CRPSM_Malindi,NA,NA,-2.996,40.1945,N,349,706,0,-2.996,40.1945,NA,NA,623,TRUE
Leicester,NA,NA,52.61931,-1.12231,N,571,573,0,52.61931,-1.12231,NA,NA,624,TRUE
Hangzhou_City,NA,NA,30.289633,120.156917,N,482,962,0,30.289633,120.156917,NA,NA,625,TRUE
South_Pole_Obs_NOAA,NA,NA,-90,70.3,N,1,802,0,-90,70.3,NA,NA,626,TRUE
EIM-Sindos,NA,NA,40.689717,22.799667,N,524,650,0,40.689717,22.799667,NA,NA,627,TRUE
Marambio,NA,NA,-64.239996,-56.625244,N,104,396,0,-64.239996,-56.625244,NA,NA,628,TRUE
Le_Fauga,NA,NA,43.38423,1.2846,N,535,581,0,43.38423,1.2846,NA,NA,629,TRUE
Sinhgad,NA,NA,18.366667,73.75,N,434,813,0,18.366667,73.75,NA,NA,630,TRUE
Trivandrum,NA,NA,8.533333,76.866667,N,395,823,0,8.533333,76.866667,NA,NA,631,TRUE
Ahmedabad,NA,NA,23.016667,72.516667,N,453,809,0,23.016667,72.516667,NA,NA,632,TRUE
Zinder_DMN,NA,NA,13.775417,8.9841,N,416,606,0,13.775417,8.9841,NA,NA,633,TRUE
Iqaluit,NA,NA,63.747575,-68.542997,N,616,358,0,63.747575,-68.542997,NA,NA,634,TRUE
Kandahar,NA,NA,31.508611,65.847778,N,487,788,0,31.508611,65.847778,NA,NA,635,TRUE
Kangerlussuaq,NA,NA,66.9958,-50.6214,N,629,415,0,66.9958,-50.6214,NA,NA,636,TRUE
Jingtai,NA,NA,37.333333,104.1,N,510,910,0,37.333333,104.1,NA,NA,637,TRUE
Zhangye,NA,NA,39.078889,100.275556,N,517,898,0,39.078889,100.275556,NA,NA,638,TRUE
Vishkhapatnam,NA,NA,17.72395,83.326933,N,432,844,0,17.72395,83.326933,NA,NA,639,TRUE
UAHuntsville,NA,NA,34.72533,-86.64473,N,500,300,0,34.72533,-86.64473,NA,NA,640,TRUE
Nainital,NA,NA,29.35883,79.45827,N,478,831,0,29.35883,79.45827,NA,NA,641,TRUE
Pantnagar,NA,NA,29.046339,79.520889,N,477,831,0,29.046339,79.520889,NA,NA,642,TRUE
Bareilly,NA,NA,28.38996,79.43696,N,475,831,0,28.38996,79.43696,NA,NA,643,TRUE
Mobile_N_050608,NA,NA,26.50624,80.43907,N,467,834,0,26.50624,80.43907,NA,NA,644,TRUE
Mobile_C_050608,NA,NA,26.30289,80.48859,N,466,835,0,26.30289,80.48859,NA,NA,645,TRUE
Mobile_S_050608,NA,NA,26.12513,80.53282,N,466,835,0,26.12513,80.53282,NA,NA,646,TRUE
Bushland,NA,NA,35.18678,-102.09384,N,502,250,0,35.18678,-102.09384,NA,NA,647,TRUE
Mobile_Kanpur_West,NA,NA,26.419177,80.123238,N,467,833,0,26.419177,80.123238,NA,NA,648,TRUE
Mobile_Kanpur_East,NA,NA,26.458519,80.439397,N,467,834,0,26.458519,80.439397,NA,NA,649,TRUE
Chitrakoot,NA,NA,25.14788,80.85518,N,462,836,0,25.14788,80.85518,NA,NA,650,TRUE
Mobile_DDun_051308W,NA,NA,30.234656,77.948764,N,482,826,0,30.234656,77.948764,NA,NA,651,TRUE
Mobile_N_051308W,NA,NA,26.99431,78.77762,N,469,829,0,26.99431,78.77762,NA,NA,652,TRUE
Mobile_S_051308W,NA,NA,26.636032,78.869934,N,468,829,0,26.636032,78.869934,NA,NA,653,TRUE
Mobile_N_051508E,NA,NA,26.773544,81.928933,N,468,839,0,26.773544,81.928933,NA,NA,654,TRUE
Mobile_S_051508E,NA,NA,26.242848,82.061369,N,466,840,0,26.242848,82.061369,NA,NA,655,TRUE
Mobile_N_052208,NA,NA,26.50987,80.4643,N,467,834,0,26.50987,80.4643,NA,NA,656,TRUE
Mobile_C_052208,NA,NA,26.31069,80.51499,N,466,835,0,26.31069,80.51499,NA,NA,657,TRUE
Saint_Mandrier,NA,NA,43.066944,5.944167,N,533,596,0,43.066944,5.944167,NA,NA,658,TRUE
Bozeman,NA,NA,45.662204,-111.045013,N,544,222,0,45.662204,-111.045013,NA,NA,659,TRUE
Mobile_S_052908W,NA,NA,26.6637,78.8989,N,468,829,0,26.6637,78.8989,NA,NA,660,TRUE
Mobile_N_052908W,NA,NA,26.9524,78.8266,N,469,829,0,26.9524,78.8266,NA,NA,661,TRUE
Mobile_Kanpur_South,NA,NA,26.352916,80.300721,N,466,834,0,26.352916,80.300721,NA,NA,662,TRUE
Mobile_Kanpur_SE,NA,NA,26.378525,80.41811,N,467,834,0,26.378525,80.41811,NA,NA,663,TRUE
Mobile_N_053108E,NA,NA,26.76874,81.97021,N,468,839,0,26.76874,81.97021,NA,NA,664,TRUE
Mobile_S_053108E,NA,NA,26.216392,82.106651,N,466,840,0,26.216392,82.106651,NA,NA,665,TRUE
Mobile_Kanpur_W2,NA,NA,26.4185,80.12172,N,467,833,0,26.4185,80.12172,NA,NA,666,TRUE
Mobile_N_060708,NA,NA,26.530687,80.505745,N,467,835,0,26.530687,80.505745,NA,NA,667,TRUE
Mobile_C_060708,NA,NA,26.449369,80.526795,N,467,835,0,26.449369,80.526795,NA,NA,668,TRUE
Mobile_S_060708,NA,NA,26.105807,80.610912,N,465,835,0,26.105807,80.610912,NA,NA,669,TRUE
Kanzelhohe_Obs,NA,NA,46.677232,13.901269,N,548,621,0,46.677232,13.901269,NA,NA,670,TRUE
Valladolid_Sci,NA,NA,41.6562,-4.7148,N,528,562,0,41.6562,-4.7148,NA,NA,671,TRUE
Ersa,NA,NA,43.003669,9.359289,N,533,607,0,43.003669,9.359289,NA,NA,672,TRUE
Mobile_N_061408W,NA,NA,26.92797,78.8578,N,469,829,0,26.92797,78.8578,NA,NA,673,TRUE
Mobile_S_061408W,NA,NA,26.68315,78.9188,N,468,830,0,26.68315,78.9188,NA,NA,674,TRUE
Mobile_N_061608E,NA,NA,26.76985,81.98118,N,468,839,0,26.76985,81.98118,NA,NA,675,TRUE
Mobile_N_062308,NA,NA,26.513011,80.478321,N,467,835,0,26.513011,80.478321,NA,NA,676,TRUE
Mobile_C_062308,NA,NA,26.30709,80.52958,N,466,835,0,26.30709,80.52958,NA,NA,677,TRUE
Mobile_S_062308,NA,NA,26.147783,80.570527,N,466,835,0,26.147783,80.570527,NA,NA,678,TRUE
Kanpur_Central_RR,NA,NA,26.455467,80.35062,N,467,834,0,26.455467,80.35062,NA,NA,679,TRUE
Panki_Powerplant,NA,NA,26.478837,80.256383,N,467,834,0,26.478837,80.256383,NA,NA,680,TRUE
Baneasa,NA,NA,44.511333,26.077806,N,539,660,0,44.511333,26.077806,NA,NA,681,TRUE
Helsinki,NA,NA,60.203733,24.96065,N,602,657,0,60.203733,24.96065,NA,NA,682,TRUE
Paposo,NA,NA,-25.007167,-70.450111,N,261,352,0,-25.007167,-70.450111,NA,NA,683,TRUE
Kaiping,NA,NA,22.3152,112.5386,N,450,937,0,22.3152,112.5386,NA,NA,684,TRUE
Camaguey,NA,NA,21.4223,-77.8499,N,447,328,0,21.4223,-77.8499,NA,NA,685,TRUE
El_Segundo,NA,NA,33.9125,-118.3823,N,497,198,0,33.9125,-118.3823,NA,NA,686,TRUE
Dayton,NA,NA,39.775977,-84.109618,N,520,308,0,39.775977,-84.109618,NA,NA,687,TRUE
Arcachon,NA,NA,44.663528,-1.163222,N,540,573,0,44.663528,-1.163222,NA,NA,688,TRUE
Wytham_Woods,NA,NA,51.770278,-1.3325,N,568,573,0,51.770278,-1.3325,NA,NA,689,TRUE
Zhongshan_Univ,NA,NA,23.06,113.39,N,453,940,0,23.06,113.39,NA,NA,690,TRUE
Vechernaya_Hill,NA,NA,-67.66,46.158,N,90,725,0,-67.66,46.158,NA,NA,691,TRUE
Manila_Observatory,NA,NA,14.63525,121.07784,N,420,964,0,14.63525,121.07784,NA,NA,692,TRUE
Mobile_N_011509_ND,NA,NA,28.42123,76.91933,N,475,823,0,28.42123,76.91933,NA,NA,693,TRUE
Mobile_S_011509_ND,NA,NA,28.34824,76.93955,N,474,823,0,28.34824,76.93955,NA,NA,694,TRUE
Ubon_Ratchathani,NA,NA,15.245518,104.871011,N,422,913,0,15.245518,104.871011,NA,NA,695,TRUE
Malaga,NA,NA,36.715242,-4.478153,N,508,563,0,36.715242,-4.478153,NA,NA,696,TRUE
Shouxian,NA,NA,32.558383,116.78195,N,491,951,0,32.558383,116.78195,NA,NA,697,TRUE
Seysses,NA,NA,43.503333,1.259722,N,535,581,0,43.503333,1.259722,NA,NA,698,TRUE
Oukaimeden,NA,NA,31.208793,-7.864486,N,486,552,0,31.208793,-7.864486,NA,NA,699,TRUE
IIT_KGP_EXT_Kolkata,NA,NA,22.574,88.418,N,451,860,0,22.574,88.418,NA,NA,700,TRUE
Utsteinen,NA,NA,-71.95,23.333333,N,73,652,0,-71.95,23.333333,NA,NA,701,TRUE
Jaipur,NA,NA,26.905817,75.806217,N,469,820,0,26.905817,75.806217,NA,NA,702,TRUE
Hetauda,NA,NA,27.42835,85.030933,N,471,849,0,27.42835,85.030933,NA,NA,703,TRUE
Yellowknife_Aurora,NA,NA,62.4513,-114.37625,N,611,211,0,62.4513,-114.37625,NA,NA,704,TRUE
Langtang,NA,NA,28.012233,85.492517,N,473,851,0,28.012233,85.492517,NA,NA,705,TRUE
Kuwait_Airport,NA,NA,29.242,47.972,N,478,731,0,29.242,47.972,NA,NA,706,TRUE
Lanzhou_City,NA,NA,36.04805,103.8534,N,505,909,0,36.04805,103.8534,NA,NA,707,TRUE
Graciosa,NA,NA,39.091111,-28.029722,N,517,487,0,39.091111,-28.029722,NA,NA,708,TRUE
Birkenes,NA,NA,58.38845,8.25231,N,595,603,0,58.38845,8.25231,NA,NA,709,TRUE
Bandung,NA,NA,-6.888417,107.61,N,333,921,0,-6.888417,107.61,NA,NA,710,TRUE
Zinder_Airport,NA,NA,13.776683,8.990233,N,416,606,0,13.776683,8.990233,NA,NA,711,TRUE
Kathmandu_Univ,NA,NA,27.601067,85.538333,N,471,851,0,27.601067,85.538333,NA,NA,712,TRUE
LISCO,NA,NA,40.954517,-73.341767,N,525,342,0,40.954517,-73.341767,NA,NA,713,TRUE
UMBC,NA,NA,39.254628,-76.709353,N,518,332,0,39.254628,-76.709353,NA,NA,714,TRUE
SAGRES,NA,NA,37.047706,-8.873517,N,509,549,0,37.047706,-8.873517,NA,NA,715,TRUE
Univ_of_Lethbridge,NA,NA,49.681672,-112.868967,N,560,216,0,49.681672,-112.868967,NA,NA,716,TRUE
Easton_Airport,NA,NA,38.80745,-76.07257,N,516,334,0,38.80745,-76.07257,NA,NA,717,TRUE
Tuz_Golu,NA,NA,38.749444,33.336111,N,516,684,0,38.749444,33.336111,NA,NA,718,TRUE
Kelowna_UAS,NA,NA,49.941294,-119.400111,N,561,195,0,49.941294,-119.400111,NA,NA,719,TRUE
NCAR,NA,NA,40.03753,-105.24277,N,521,240,0,40.03753,-105.24277,NA,NA,720,TRUE
Eforie,NA,NA,44.075,28.632222,N,537,669,0,44.075,28.632222,NA,NA,721,TRUE
IASBS,NA,NA,36.705167,48.507111,N,508,732,0,36.705167,48.507111,NA,NA,722,TRUE
QOMS_CAS,NA,NA,28.365,86.948056,N,474,855,0,28.365,86.948056,NA,NA,723,TRUE
Buesum,NA,NA,54.13225,8.878797,N,578,605,0,54.13225,8.878797,NA,NA,724,TRUE
TUBITAK_UZAY_Ankara,NA,NA,39.891,32.778,N,521,682,0,39.891,32.778,NA,NA,725,TRUE
Ittoqqortoormiit,NA,NA,70.4848,-21.9512,N,643,507,0,70.4848,-21.9512,NA,NA,726,TRUE
Lucinda,NA,NA,-18.5198,146.3861,N,287,1045,0,-18.5198,146.3861,NA,NA,727,TRUE
Salon_de_Provence,NA,NA,43.605556,5.120278,N,535,593,0,43.605556,5.120278,NA,NA,728,TRUE
Zhongshan,NA,NA,22.515833,113.383333,N,451,940,0,22.515833,113.383333,NA,NA,729,TRUE
ND_Marbel_Univ,NA,NA,6.496011,124.842531,N,387,976,0,6.496011,124.842531,NA,NA,730,TRUE
WaveCIS_Site_CSI_6,NA,NA,28.866667,-90.483333,N,476,287,0,28.866667,-90.483333,NA,NA,731,TRUE
Goldstone,NA,NA,35.233333,-116.791667,N,502,203,0,35.233333,-116.791667,NA,NA,732,TRUE
Tinian,NA,NA,15.073969,145.627597,N,421,1043,0,15.073969,145.627597,NA,NA,733,TRUE
Pokhara,NA,NA,28.186643,83.97518,N,474,846,0,28.186643,83.97518,NA,NA,734,TRUE
Apra_Harbor,NA,NA,13.420442,144.663103,N,415,1040,0,13.420442,144.663103,NA,NA,735,TRUE
Baengnyeong,NA,NA,37.966111,124.630278,N,513,976,0,37.966111,124.630278,NA,NA,736,TRUE
Red_River_Delta,NA,NA,20.72853,106.1277,N,444,917,0,20.72853,106.1277,NA,NA,737,TRUE
Huelva,NA,NA,37.0163,-6.5687,N,509,556,0,37.0163,-6.5687,NA,NA,738,TRUE
Brisbane-Uni_of_QLD,NA,NA,-27.497083,153.013611,N,251,1067,0,-27.497083,153.013611,NA,NA,739,TRUE
Sable_Island,NA,NA,43.933,-60.01,N,537,385,0,43.933,-60.01,NA,NA,740,TRUE
LSU,NA,NA,30.406778,-91.183883,N,483,285,0,30.406778,-91.183883,NA,NA,741,TRUE
CalTech,NA,NA,34.13673,-118.126167,N,498,199,0,34.13673,-118.126167,NA,NA,742,TRUE
Bach_Long_Vy,NA,NA,20.133321,107.733339,N,442,922,0,20.133321,107.733339,NA,NA,743,TRUE
Yuma,NA,NA,32.644138,-114.58278,N,492,210,0,32.644138,-114.58278,NA,NA,744,TRUE
CUT-TEPAK,NA,NA,34.674806,33.04275,N,500,683,0,34.674806,33.04275,NA,NA,745,TRUE
McClellan_AFB,NA,NA,38.667777,-121.399444,N,516,189,0,38.667777,-121.399444,NA,NA,746,TRUE
Tiksi,NA,NA,71.586917,128.921417,N,647,990,0,71.586917,128.921417,NA,NA,747,TRUE
Dushanbe,NA,NA,38.553264,68.857911,N,515,797,0,38.553264,68.857911,NA,NA,748,TRUE
Appalachian_State,NA,NA,36.2146,-81.6938,N,506,316,0,36.2146,-81.6938,NA,NA,749,TRUE
Aubiere_LAMP,NA,NA,45.76096,3.111072,N,544,587,0,45.76096,3.111072,NA,NA,750,TRUE
Frioul,NA,NA,43.266111,5.293333,N,534,594,0,43.266111,5.293333,NA,NA,751,TRUE
Manus,NA,NA,-2.06,147.425,N,353,1049,0,-2.06,147.425,NA,NA,752,TRUE
ARM_Darwin,NA,NA,-12.425,130.891,N,311,996,0,-12.425,130.891,NA,NA,753,TRUE
CLUJ_UBB,NA,NA,46.768333,23.551389,N,548,652,0,46.768333,23.551389,NA,NA,754,TRUE
Lugansk,NA,NA,48.5704,39.36472,N,555,703,0,48.5704,39.36472,NA,NA,755,TRUE
DRAGON_CHASE,NA,NA,38.978612,-77.080002,N,517,330,0,38.978612,-77.080002,NA,NA,756,TRUE
DRAGON_RCKMD,NA,NA,39.06556,-77.09622,N,517,330,0,39.06556,-77.09622,NA,NA,757,TRUE
DRAGON_OLNES,NA,NA,39.149148,-77.068267,N,518,330,0,39.149148,-77.068267,NA,NA,758,TRUE
DRAGON_SPBRK,NA,NA,39.0581,-77.0058,N,517,331,0,39.0581,-77.0058,NA,NA,759,TRUE
DRAGON_TKMPR,NA,NA,38.995278,-76.997222,N,517,331,0,38.995278,-76.997222,NA,NA,760,TRUE
DRAGON_CLLGP,NA,NA,38.9911,-76.9086,N,517,331,0,38.9911,-76.9086,NA,NA,761,TRUE
DRAGON_LAREL,NA,NA,39.0808,-76.855,N,517,331,0,39.0808,-76.855,NA,NA,762,TRUE
DRAGON_LAUMD,NA,NA,39.1428,-76.8592,N,518,331,0,39.1428,-76.8592,NA,NA,763,TRUE
DRAGON_BOWEM,NA,NA,38.9747,-76.7506,N,517,331,0,38.9747,-76.7506,NA,NA,764,TRUE
DRAGON_ARNCC,NA,NA,39.1589,-76.7208,N,518,331,0,39.1589,-76.7208,NA,NA,765,TRUE
DRAGON_ANNEA,NA,NA,39.1647,-76.6247,N,518,332,0,39.1647,-76.6247,NA,NA,766,TRUE
DRAGON_CTNVL,NA,NA,39.275833,-76.771944,N,518,331,0,39.275833,-76.771944,NA,NA,767,TRUE
DRAGON_BLTIM,NA,NA,39.263145,-76.651066,N,518,332,0,39.263145,-76.651066,NA,NA,768,TRUE
DRAGON_ELLCT,NA,NA,39.2661,-76.861603,N,518,331,0,39.2661,-76.861603,NA,NA,769,TRUE
Minqin,NA,NA,38.607,102.959,N,515,906,0,38.607,102.959,NA,NA,770,TRUE
DRAGON_CLRST,NA,NA,39.20541,-76.94445,N,518,331,0,39.20541,-76.94445,NA,NA,771,TRUE
Zouerate-Fennec,NA,NA,22.75,-12.483333,N,452,537,0,22.75,-12.483333,NA,NA,772,TRUE
Gloria,NA,NA,44.59997,29.35967,N,539,671,0,44.59997,29.35967,NA,NA,773,TRUE
Steamboat_Springs,NA,NA,40.46376,-106.81699,N,523,235,0,40.46376,-106.81699,NA,NA,774,TRUE
Bari_University,NA,NA,41.108327,16.883983,N,525,631,0,41.108327,16.883983,NA,NA,775,TRUE
NEON-Boulder,NA,NA,40.00787,-105.26821,N,521,240,0,40.00787,-105.26821,NA,NA,776,TRUE
Oujda,NA,NA,34.65331,-1.89846,N,500,571,0,34.65331,-1.89846,NA,NA,777,TRUE
Timisoara,NA,NA,45.74626,21.22736,N,544,645,0,45.74626,21.22736,NA,NA,778,TRUE
Gainesville_Airport,NA,NA,29.695833,-82.261,N,480,314,0,29.695833,-82.261,NA,NA,779,TRUE
Ordway-Swisher,NA,NA,29.69797,-81.988106,N,480,315,0,29.69797,-81.988106,NA,NA,780,TRUE
Rio_de_Janeiro_UFRJ,NA,NA,-22.857306,-43.233806,N,270,439,0,-22.857306,-43.233806,NA,NA,781,TRUE
Yeomsan-Myeon,NA,NA,35.23666,126.303012,N,502,981,0,35.23666,126.303012,NA,NA,782,TRUE
NGHIA_DO,NA,NA,21.04778,105.79964,N,445,916,0,21.04778,105.79964,NA,NA,783,TRUE
Bambey-ISRA,NA,NA,14.708567,-16.476733,N,420,524,0,14.708567,-16.476733,NA,NA,784,TRUE
Bordj_Badji_Mokhtar,NA,NA,21.38,0.92,N,447,580,0,21.38,0.92,NA,NA,785,TRUE
Vientiane,NA,NA,17.99228,102.569642,N,433,905,0,17.99228,102.569642,NA,NA,786,TRUE
San_Nicolas_Vandal,NA,NA,33.262214,-119.536711,N,494,194,0,33.262214,-119.536711,NA,NA,787,TRUE
CASLEO,NA,NA,-31.798815,-69.295685,N,234,355,0,-31.798815,-69.295685,NA,NA,788,TRUE
Manaus_EMBRAPA,NA,NA,-2.890528,-59.969778,N,349,385,0,-2.890528,-59.969778,NA,NA,789,TRUE
USC_SEAPRISM,NA,NA,33.56371,-118.11782,N,495,199,0,33.56371,-118.11782,NA,NA,790,TRUE
Tabernas_PSA-DLR,NA,NA,37.09076,-2.35818,N,509,569,0,37.09076,-2.35818,NA,NA,791,TRUE
Yonsei_University,NA,NA,37.56443,126.93479,N,511,983,0,37.56443,126.93479,NA,NA,792,TRUE
Georgia_Tech,NA,NA,33.780202,-84.399537,N,496,307,0,33.780202,-84.399537,NA,NA,793,TRUE
Gageocho_Station,NA,NA,33.941991,124.592912,N,497,976,0,33.941991,124.592912,NA,NA,794,TRUE
Calern_OCA,NA,NA,43.752207,6.923153,N,536,599,0,43.752207,6.923153,NA,NA,795,TRUE
Pretoria_CSIR-DPSS,NA,NA,-25.756611,28.279722,N,258,667,0,-25.756611,28.279722,NA,NA,796,TRUE
DRAGON_Padonia,NA,NA,39.462036,-76.631669,N,519,332,0,39.462036,-76.631669,NA,NA,797,TRUE
DRAGON_Essex,NA,NA,39.310943,-76.474486,N,518,332,0,39.310943,-76.474486,NA,NA,798,TRUE
DRAGON_Edgewood,NA,NA,39.409834,-76.296352,N,519,333,0,39.409834,-76.296352,NA,NA,799,TRUE
DRAGON_Aldino,NA,NA,39.563433,-76.203932,N,519,333,0,39.563433,-76.203932,NA,NA,800,TRUE
DRAGON_FairHill,NA,NA,39.701435,-75.860059,N,520,334,0,39.701435,-75.860059,NA,NA,801,TRUE
DRAGON_Beltsville,NA,NA,39.054091,-76.877491,N,517,331,0,39.054091,-76.877491,NA,NA,802,TRUE
DRAGON_PATUX,NA,NA,38.827168,-76.70938,N,516,332,0,38.827168,-76.70938,NA,NA,803,TRUE
DRAGON_UMRLB,NA,NA,38.891262,-76.814106,N,517,331,0,38.891262,-76.814106,NA,NA,804,TRUE
DRAGON_BLTNR,NA,NA,39.2156,-76.6186,N,518,332,0,39.2156,-76.6186,NA,NA,805,TRUE
DRAGON_SHADY,NA,NA,38.840658,-76.506108,N,516,332,0,38.840658,-76.506108,NA,NA,806,TRUE
DRAGON_ARNLS,NA,NA,39.058488,-76.512926,N,517,332,0,39.058488,-76.512926,NA,NA,807,TRUE
DRAGON_WSTFD,NA,NA,39.301577,-76.946248,N,518,331,0,39.301577,-76.946248,NA,NA,808,TRUE
DRAGON_ABERD,NA,NA,39.515103,-76.16523,N,519,333,0,39.515103,-76.16523,NA,NA,809,TRUE
DRAGON_BLLRT,NA,NA,39.389385,-76.578242,N,519,332,0,39.389385,-76.578242,NA,NA,810,TRUE
DRAGON_BTMDL,NA,NA,39.238826,-76.441601,N,518,332,0,39.238826,-76.441601,NA,NA,811,TRUE
DRAGON_CPSDN,NA,NA,39.110656,-76.462915,N,517,332,0,39.110656,-76.462915,NA,NA,812,TRUE
DRAGON_BLDND,NA,NA,39.258315,-76.519504,N,518,332,0,39.258315,-76.519504,NA,NA,813,TRUE
DRAGON_ONNGS,NA,NA,39.387756,-76.81912,N,519,331,0,39.387756,-76.81912,NA,NA,814,TRUE
DRAGON_BLTCC,NA,NA,39.362201,-76.688429,N,518,332,0,39.362201,-76.688429,NA,NA,815,TRUE
DRAGON_MNKTN,NA,NA,39.572926,-76.652318,N,519,332,0,39.572926,-76.652318,NA,NA,816,TRUE
DRAGON_FLLST,NA,NA,39.522366,-76.413318,N,519,332,0,39.522366,-76.413318,NA,NA,817,TRUE
DRAGON_BATMR,NA,NA,39.398913,-76.47555,N,519,332,0,39.398913,-76.47555,NA,NA,818,TRUE
DRAGON_EDCMS,NA,NA,38.922218,-76.560012,N,517,332,0,38.922218,-76.560012,NA,NA,819,TRUE
Tomsk_22,NA,NA,56.417,84.074,N,587,846,0,56.417,84.074,NA,NA,820,TRUE
Muztagh_Ata,NA,NA,38.408222,75.038764,N,515,817,0,38.408222,75.038764,NA,NA,821,TRUE
Montsec,NA,NA,42.051417,0.729689,N,529,579,0,42.051417,0.729689,NA,NA,822,TRUE
Jomsom,NA,NA,28.778214,83.7142,N,476,845,0,28.778214,83.7142,NA,NA,823,TRUE
Farmington_RSVP,NA,NA,36.797383,-108.479991,N,508,230,0,36.797383,-108.479991,NA,NA,824,TRUE
Kuching,NA,NA,1.490556,110.348611,N,367,930,0,1.490556,110.348611,NA,NA,825,TRUE
DRAGON_WileyFord,NA,NA,39.610446,-78.773648,N,519,325,0,39.610446,-78.773648,NA,NA,826,TRUE
DRAGON_Bainbridge,NA,NA,39.606044,-76.074122,N,519,334,0,39.606044,-76.074122,NA,NA,827,TRUE
DRAGON_PineyOrchard,NA,NA,39.060781,-76.719202,N,517,331,0,39.060781,-76.719202,NA,NA,828,TRUE
DRAGON_KentIsland,NA,NA,38.9793,-76.307864,N,517,333,0,38.9793,-76.307864,NA,NA,829,TRUE
ARM_Nainital,NA,NA,29.35883,79.45827,N,478,831,0,29.35883,79.45827,NA,NA,830,TRUE
DRAGON_BelAir,NA,NA,39.500014,-76.263098,N,519,333,0,39.500014,-76.263098,NA,NA,831,TRUE
DRAGON_Pasadena,NA,NA,39.111638,-76.45544,N,517,332,0,39.111638,-76.45544,NA,NA,832,TRUE
DRAGON_Pylesville,NA,NA,39.67515,-76.405349,N,520,333,0,39.67515,-76.405349,NA,NA,833,TRUE
DRAGON_EaglePoint,NA,NA,39.397778,-76.27,N,519,333,0,39.397778,-76.27,NA,NA,834,TRUE
DRAGON_Worton,NA,NA,39.285436,-76.091633,N,518,334,0,39.285436,-76.091633,NA,NA,835,TRUE
Bolzano,NA,NA,46.4569,11.33,N,547,613,0,46.4569,11.33,NA,NA,836,TRUE
Marbella_San_Pedro,NA,NA,36.486309,-4.993439,N,507,561,0,36.486309,-4.993439,NA,NA,837,TRUE
Edinburgh,NA,NA,55.923967,-3.17915,N,585,567,0,55.923967,-3.17915,NA,NA,838,TRUE
Bari_Waterfront,NA,NA,41.1168,16.8934,N,525,631,0,41.1168,16.8934,NA,NA,839,TRUE
Loskop_Dam,NA,NA,-25.407575,29.351624,N,259,671,0,-25.407575,29.351624,NA,NA,840,TRUE
Tuz_Golu_2,NA,NA,38.837,33.449,N,516,684,0,38.837,33.449,NA,NA,841,TRUE
Key_Biscayne2,NA,NA,25.731966,-80.16333,N,464,320,0,25.731966,-80.16333,NA,NA,842,TRUE
Palma_de_Mallorca,NA,NA,39.5533,2.6251,N,519,585,0,39.5533,2.6251,NA,NA,843,TRUE
Masdar_Institute,NA,NA,24.4416,54.6166,N,459,752,0,24.4416,54.6166,NA,NA,844,TRUE
ARM_Gan_Island,NA,NA,-0.690597,73.149896,N,358,811,0,-0.690597,73.149896,NA,NA,845,TRUE
Litang,NA,NA,29.9763,100.26185,N,481,898,0,29.9763,100.26185,NA,NA,846,TRUE
Magurele_Inoe,NA,NA,44.348292,26.030703,N,538,660,0,44.348292,26.030703,NA,NA,847,TRUE
Grand_Forks,NA,NA,47.91175,-97.32545,N,553,266,0,47.91175,-97.32545,NA,NA,848,TRUE
UNC-Bogota,NA,NA,4.636933,-74.0808,N,380,340,0,4.636933,-74.0808,NA,NA,849,TRUE
USM_Penang,NA,NA,5.35838,100.30231,N,382,898,0,5.35838,100.30231,NA,NA,850,TRUE
NEON17-SJER,NA,NA,37.090419,-119.722136,N,509,194,0,37.090419,-119.722136,NA,NA,851,TRUE
NhaTrang,NA,NA,12.204722,109.205556,N,410,926,0,12.204722,109.205556,NA,NA,852,TRUE
Henties_Bay,NA,NA,-22.09506,14.25974,N,273,623,0,-22.09506,14.25974,NA,NA,853,TRUE
Chiba_University,NA,NA,35.6247,140.1038,N,503,1025,0,35.6247,140.1038,NA,NA,854,TRUE
Calhau,NA,NA,16.863889,-24.867222,N,428,497,0,16.863889,-24.867222,NA,NA,855,TRUE
DRAGON_Fukue,NA,NA,32.752,128.682,N,492,989,0,32.752,128.682,NA,NA,856,TRUE
DRAGON_Fukuoka,NA,NA,33.524,130.475,N,495,995,0,33.524,130.475,NA,NA,857,TRUE
DRAGON_Matsue,NA,NA,35.48,133.01,N,503,1003,0,35.48,133.01,NA,NA,858,TRUE
DRAGON_Nishiharima,NA,NA,35.026,134.336,N,501,1007,0,35.026,134.336,NA,NA,859,TRUE
DRAGON_Mt_Rokko,NA,NA,34.757,135.23,N,500,1010,0,34.757,135.23,NA,NA,860,TRUE
DRAGON_Mt_Ikoma,NA,NA,34.6798,135.678667,N,500,1011,0,34.6798,135.678667,NA,NA,861,TRUE
DRAGON_Kobe,NA,NA,34.72,135.291,N,500,1010,0,34.72,135.291,NA,NA,862,TRUE
DRAGON_Osaka-North,NA,NA,34.774,135.51,N,500,1011,0,34.774,135.51,NA,NA,863,TRUE
DRAGON_Osaka-South,NA,NA,34.5435,135.503867,N,499,1011,0,34.5435,135.503867,NA,NA,864,TRUE
DRAGON_Nara,NA,NA,34.688,135.828,N,500,1012,0,34.688,135.828,NA,NA,865,TRUE
DRAGON_Kyoto,NA,NA,35.026,135.781,N,501,1011,0,35.026,135.781,NA,NA,866,TRUE
DRAGON_Tsukuba,NA,NA,36.050556,140.120278,N,505,1025,0,36.050556,140.120278,NA,NA,867,TRUE
Sandia_NM_PSEL,NA,NA,35.054583,-106.540069,N,501,236,0,35.054583,-106.540069,NA,NA,868,TRUE
Fresno_2,NA,NA,36.78537,-119.77302,N,508,194,0,36.78537,-119.77302,NA,NA,869,TRUE
Bure_OPE,NA,NA,48.5625,5.505,N,555,595,0,48.5625,5.505,NA,NA,870,TRUE
DRAGON_Fukue_2,NA,NA,32.672,128.817,N,492,989,0,32.672,128.817,NA,NA,871,TRUE
DRAGON_Fukue_3,NA,NA,32.6,128.745,N,491,989,0,32.6,128.745,NA,NA,872,TRUE
DRAGON_Kunsan_NU,NA,NA,35.941072,126.683008,N,505,982,0,35.941072,126.683008,NA,NA,873,TRUE
DRAGON_Hankuk_UFS,NA,NA,37.33883,127.26582,N,510,984,0,37.33883,127.26582,NA,NA,874,TRUE
DRAGON_Pusan_NU,NA,NA,35.235354,129.082493,N,502,990,0,35.235354,129.082493,NA,NA,875,TRUE
DRAGON_Kongju_NU,NA,NA,36.470623,127.140023,N,507,984,0,36.470623,127.140023,NA,NA,876,TRUE
DRAGON_Kyungil_Univ,NA,NA,36.038648,128.788442,N,505,989,0,36.038648,128.788442,NA,NA,877,TRUE
DRAGON_GangneungWNU,NA,NA,37.771,128.867,N,512,989,0,37.771,128.867,NA,NA,878,TRUE
DRAGON_Mokpo_NU,NA,NA,34.91342,126.43736,N,501,982,0,34.91342,126.43736,NA,NA,879,TRUE
DRAGON_Korea_Univ,NA,NA,37.58514,127.02507,N,511,983,0,37.58514,127.02507,NA,NA,880,TRUE
DRAGON_Kohriyama,NA,NA,37.361042,140.3829,N,510,1026,0,37.361042,140.3829,NA,NA,881,TRUE
Univ_of_Nevada-Reno,NA,NA,39.540867,-119.814033,N,519,194,0,39.540867,-119.814033,NA,NA,882,TRUE
Coruna,NA,NA,43.363,-8.4208,N,534,550,0,43.363,-8.4208,NA,NA,883,TRUE
CEILAP-Bariloche,NA,NA,-41.146944,-71.163333,N,196,349,0,-41.146944,-71.163333,NA,NA,884,TRUE
Hada_El-Sham,NA,NA,21.802,39.7289,N,448,704,0,21.802,39.7289,NA,NA,885,TRUE
Hong_Kong_Sheung,NA,NA,22.4833,114.1166,N,451,942,0,22.4833,114.1166,NA,NA,886,TRUE
UPRM_Lidar_Lab,NA,NA,18.210131,-67.140125,N,434,362,0,18.210131,-67.140125,NA,NA,887,TRUE
Cairo_EMA_2,NA,NA,30.080767,31.290067,N,481,677,0,30.080767,31.290067,NA,NA,888,TRUE
Ouarzazate,NA,NA,30.928367,-6.912867,N,485,555,0,30.928367,-6.912867,NA,NA,889,TRUE
NEON_CVALLA,NA,NA,40.16063,-105.16725,N,522,240,0,40.16063,-105.16725,NA,NA,890,TRUE
DRAGON_Sinjeong,NA,NA,37.52341,126.85863,N,511,983,0,37.52341,126.85863,NA,NA,891,TRUE
DRAGON_Soha,NA,NA,37.45213,126.8847,N,511,983,0,37.45213,126.8847,NA,NA,892,TRUE
DRAGON_Bokjeong,NA,NA,37.45699,127.13123,N,511,984,0,37.45699,127.13123,NA,NA,893,TRUE
DRAGON_Sanggye,NA,NA,37.65885,127.06845,N,512,984,0,37.65885,127.06845,NA,NA,894,TRUE
DRAGON_Guwol,NA,NA,37.44967,126.72403,N,511,983,0,37.44967,126.72403,NA,NA,895,TRUE
Luang_Namtha,NA,NA,20.9311,101.4162,N,445,902,0,20.9311,101.4162,NA,NA,896,TRUE
KAUST_Campus,NA,NA,22.304833,39.102833,N,450,702,0,22.304833,39.102833,NA,NA,897,TRUE
Son_La,NA,NA,21.3322,103.905151,N,446,909,0,21.3322,103.905151,NA,NA,898,TRUE
GOT_Seaprism,NA,NA,9.2862,101.4123,N,398,902,0,9.2862,101.4123,NA,NA,899,TRUE
DRAGON_Anmyeon,NA,NA,36.53863,126.33002,N,507,981,0,36.53863,126.33002,NA,NA,900,TRUE
DRAGON_NIER,NA,NA,37.56893,126.63971,N,511,982,0,37.56893,126.63971,NA,NA,901,TRUE
DRAGON_Konkuk_Univ,NA,NA,37.54205,127.079774,N,511,984,0,37.54205,127.079774,NA,NA,902,TRUE
DRAGON_Osaka_Center,NA,NA,34.668477,135.530894,N,500,1011,0,34.668477,135.530894,NA,NA,903,TRUE
Tai_Ping,NA,NA,10.3755,114.362,N,403,943,0,10.3755,114.362,NA,NA,904,TRUE
Madrid,NA,NA,40.4519,-3.72395,N,523,565,0,40.4519,-3.72395,NA,NA,905,TRUE
Bayfordbury,NA,NA,51.77632,-0.09624,N,568,577,0,51.77632,-0.09624,NA,NA,906,TRUE
Tizi_Ouzou,NA,NA,36.698611,4.055833,N,508,590,0,36.698611,4.055833,NA,NA,907,TRUE
Iasi_LOASL,NA,NA,47.193056,27.555556,N,550,665,0,47.193056,27.555556,NA,NA,908,TRUE
U_of_Wisconsin_SSEC,NA,NA,43.072492,-89.411354,N,533,291,0,43.072492,-89.411354,NA,NA,909,TRUE
Kyiv-AO,NA,NA,50.4523,30.498,N,563,675,0,50.4523,30.498,NA,NA,910,TRUE
Bhola,NA,NA,22.226675,90.756415,N,450,867,0,22.226675,90.756415,NA,NA,911,TRUE
ARM_Barnstable_MA,NA,NA,41.669589,-70.290061,N,528,352,0,41.669589,-70.290061,NA,NA,912,TRUE
Tahir,NA,NA,5.411,100.1967,N,383,898,0,5.411,100.1967,NA,NA,913,TRUE
Jambi,NA,NA,-1.632445,103.641563,N,354,909,0,-1.632445,103.641563,NA,NA,914,TRUE
DRAGON_Garland,NA,NA,36.78537,-119.77302,N,508,194,0,36.78537,-119.77302,NA,NA,915,TRUE
Pontianak,NA,NA,0.07538,109.19086,N,361,926,0,0.07538,109.19086,NA,NA,916,TRUE
El_Nido_Airport,NA,NA,11.2051,119.4135,N,406,959,0,11.2051,119.4135,NA,NA,917,TRUE
NEON_GrandJunction,NA,NA,39.1271,-108.5355,N,518,230,0,39.1271,-108.5355,NA,NA,918,TRUE
NEON_Ivanpah,NA,NA,35.550655,-115.38178,N,503,208,0,35.550655,-115.38178,NA,NA,919,TRUE
Zaragoza,NA,NA,41.6334,-0.88235,N,528,574,0,41.6334,-0.88235,NA,NA,920,TRUE
Gorongosa,NA,NA,-18.978417,34.35075,N,285,687,0,-18.978417,34.35075,NA,NA,921,TRUE
Las_Galletas,NA,NA,28.0152,-16.6545,N,473,524,0,28.0152,-16.6545,NA,NA,922,TRUE
Dhaka_University,NA,NA,23.72839,90.39819,N,456,866,0,23.72839,90.39819,NA,NA,923,TRUE
Lake_Lefroy,NA,NA,-31.255,121.705,N,236,966,0,-31.255,121.705,NA,NA,924,TRUE
FZJ-JOYCE,NA,NA,50.908333,6.413056,N,565,598,0,50.908333,6.413056,NA,NA,925,TRUE
DRAGON_Permatang_DL,NA,NA,5.277875,100.271253,N,382,898,0,5.277875,100.271253,NA,NA,926,TRUE
DRAGON_PayaTerubong,NA,NA,5.375964,100.275847,N,383,898,0,5.375964,100.275847,NA,NA,927,TRUE
DRAGON_KampungBharu,NA,NA,5.341589,100.463158,N,382,898,0,5.341589,100.463158,NA,NA,928,TRUE
Badajoz,NA,NA,38.882808,-7.01082,N,517,555,0,38.882808,-7.01082,NA,NA,929,TRUE
Gangneung_WNU,NA,NA,37.771,128.867,N,512,989,0,37.771,128.867,NA,NA,930,TRUE
Kyungil_University,NA,NA,36.071667,128.82361,N,505,989,0,36.071667,128.82361,NA,NA,931,TRUE
Hankuk_UFS,NA,NA,37.33883,127.26582,N,510,984,0,37.33883,127.26582,NA,NA,932,TRUE
Osaka-North,NA,NA,34.774,135.51,N,500,1011,0,34.774,135.51,NA,NA,933,TRUE
Korea_University,NA,NA,37.58514,127.02507,N,511,983,0,37.58514,127.02507,NA,NA,934,TRUE
Kobe,NA,NA,34.72,135.291,N,500,1010,0,34.72,135.291,NA,NA,935,TRUE
Fukue,NA,NA,32.752,128.682,N,492,989,0,32.752,128.682,NA,NA,936,TRUE
Fukuoka,NA,NA,33.524,130.475,N,495,995,0,33.524,130.475,NA,NA,937,TRUE
Nara,NA,NA,34.688,135.828,N,500,1012,0,34.688,135.828,NA,NA,938,TRUE
Pusan_NU,NA,NA,35.235354,129.082493,N,502,990,0,35.235354,129.082493,NA,NA,939,TRUE
Jakarta,NA,NA,-6.155695,106.841687,N,336,919,0,-6.155695,106.841687,NA,NA,940,TRUE
DRAGON_Yishun_ITE,NA,NA,1.434638,103.844876,N,367,909,0,1.434638,103.844876,NA,NA,941,TRUE
DRAGON_Pandan_Resrv,NA,NA,1.318808,103.742362,N,366,909,0,1.318808,103.742362,NA,NA,942,TRUE
DRAGON_Temasek_Poly,NA,NA,1.344821,103.930621,N,366,910,0,1.344821,103.930621,NA,NA,943,TRUE
DRAGON_MEWR_Central,NA,NA,1.310906,103.836486,N,366,909,0,1.310906,103.836486,NA,NA,944,TRUE
DRAGON_St_Johns_Is,NA,NA,1.21795,103.849615,N,366,909,0,1.21795,103.849615,NA,NA,945,TRUE
San_Giuliano,NA,NA,42.285556,9.519167,N,530,607,0,42.285556,9.519167,NA,NA,946,TRUE
ARM_Highlands_MA,NA,NA,42.030478,-70.049317,N,529,353,0,42.030478,-70.049317,NA,NA,947,TRUE
Cerro_Poyos,NA,NA,37.108869,-3.487261,N,509,566,0,37.108869,-3.487261,NA,NA,948,TRUE
DRAGON_Jalan_ChainF,NA,NA,5.400542,100.381339,N,383,898,0,5.400542,100.381339,NA,NA,949,TRUE
DRAGON_Pondok_Upeh,NA,NA,5.33325,100.22661,N,382,898,0,5.33325,100.22661,NA,NA,950,TRUE
Montesoro_Bastia,NA,NA,42.671983,9.43505,N,532,607,0,42.671983,9.43505,NA,NA,951,TRUE
Valladolid,NA,NA,41.6636,-4.70583,N,528,562,0,41.6636,-4.70583,NA,NA,952,TRUE
Palangkaraya,NA,NA,-2.22799,113.94624,N,352,942,0,-2.22799,113.94624,NA,NA,953,TRUE
Dunhuang_LZU,NA,NA,40.49237,94.95503,N,523,881,0,40.49237,94.95503,NA,NA,954,TRUE
DRAGON_UiTM,NA,NA,5.38313,100.41631,N,383,898,0,5.38313,100.41631,NA,NA,955,TRUE
Yevpatoria,NA,NA,45.2147,33.1422,N,542,683,0,45.2147,33.1422,NA,NA,956,TRUE
Medellin,NA,NA,6.260672,-75.577914,N,386,335,0,6.260672,-75.577914,NA,NA,957,TRUE
NEON_HighParkFire,NA,NA,40.624173,-105.335581,N,523,240,0,40.624173,-105.335581,NA,NA,958,TRUE
NEON_HarvardForest,NA,NA,42.533074,-72.189899,N,531,346,0,42.533074,-72.189899,NA,NA,959,TRUE
Porto_Velho_UNIR,NA,NA,-8.837083,-63.939983,N,326,372,0,-8.837083,-63.939983,NA,NA,960,TRUE
Alboran,NA,NA,35.939625,-3.35297,N,505,566,0,35.939625,-3.35297,NA,NA,961,TRUE
Murcia,NA,NA,38.001,-1.1707,N,513,573,0,38.001,-1.1707,NA,NA,962,TRUE
Ciutadella_Menorca,NA,NA,39.985279,3.836864,N,521,589,0,39.985279,3.836864,NA,NA,963,TRUE
DRAGON_Gwangju_GIST,NA,NA,35.228278,126.843139,N,502,983,0,35.228278,126.843139,NA,NA,964,TRUE
DRAGON_Bakersfield,NA,NA,35.331506,-119.000008,N,502,196,0,35.331506,-119.000008,NA,NA,965,TRUE
DRAGON_Shafter,NA,NA,35.50361,-119.2725,N,503,195,0,35.50361,-119.2725,NA,NA,966,TRUE
DRAGON_Clovis,NA,NA,36.81931,-119.71639,N,508,194,0,36.81931,-119.71639,NA,NA,967,TRUE
DRAGON_Corcoran,NA,NA,36.10222,-119.56583,N,505,194,0,36.10222,-119.56583,NA,NA,968,TRUE
DRAGON_Drummond,NA,NA,36.70556,-119.74139,N,508,194,0,36.70556,-119.74139,NA,NA,969,TRUE
DRAGON_Hanford,NA,NA,36.31572,-119.64323,N,506,194,0,36.31572,-119.64323,NA,NA,970,TRUE
DRAGON_Madera_City,NA,NA,36.953162,-120.034418,N,509,193,0,36.953162,-120.034418,NA,NA,971,TRUE
DRAGON_Parlier,NA,NA,36.59744,-119.50369,N,507,195,0,36.59744,-119.50369,NA,NA,972,TRUE
DRAGON_Tranquility,NA,NA,36.63434,-120.38234,N,508,192,0,36.63434,-120.38234,NA,NA,973,TRUE
UH_Coastal_Center,NA,NA,29.3883,-95.0425,N,479,273,0,29.3883,-95.0425,NA,NA,974,TRUE
Donetsk,NA,NA,48.020833,37.809444,N,553,698,0,48.020833,37.809444,NA,NA,975,TRUE
Yen_Bai,NA,NA,21.70495,104.86894,N,448,913,0,21.70495,104.86894,NA,NA,976,TRUE
Kathmandu-Bode,NA,NA,27.68,85.39,N,472,850,0,27.68,85.39,NA,NA,977,TRUE
DRAGON_Porterville,NA,NA,36.03179,-119.05505,N,505,196,0,36.03179,-119.05505,NA,NA,978,TRUE
DRAGON_Visalia,NA,NA,36.31411,-119.39301,N,506,195,0,36.31411,-119.39301,NA,NA,979,TRUE
DRAGON_Huron,NA,NA,36.20615,-120.10545,N,506,193,0,36.20615,-120.10545,NA,NA,980,TRUE
DRAGON_Arvin,NA,NA,35.237959,-118.78781,N,502,197,0,35.237959,-118.78781,NA,NA,981,TRUE
Doi_Ang_Khang,NA,NA,19.93245,99.0454,N,441,894,0,19.93245,99.0454,NA,NA,982,TRUE
Beijing-CAMS,NA,NA,39.93333,116.31667,N,521,949,0,39.93333,116.31667,NA,NA,983,TRUE
Mt_WLG,NA,NA,36.28333,100.89583,N,506,900,0,36.28333,100.89583,NA,NA,984,TRUE
Lumbini,NA,NA,27.49,83.28,N,471,843,0,27.49,83.28,NA,NA,985,TRUE
MetObs_Lindenberg,NA,NA,52.209275,14.12087,N,570,622,0,52.209275,14.12087,NA,NA,986,TRUE
Gozo,NA,NA,36.034139,14.264694,N,505,623,0,36.034139,14.264694,NA,NA,987,TRUE
Ben_Salem,NA,NA,35.55055,9.914003,N,503,609,0,35.55055,9.914003,NA,NA,988,TRUE
Heng-Chun,NA,NA,22.054742,120.6995,N,449,963,0,22.054742,120.6995,NA,NA,989,TRUE
HOPE-Krauthausen,NA,NA,50.8796,6.4145,N,565,598,0,50.8796,6.4145,NA,NA,990,TRUE
HOPE-Hambach,NA,NA,50.8972,6.4639,N,565,598,0,50.8972,6.4639,NA,NA,991,TRUE
HOPE-Inselhombroich,NA,NA,51.1514,6.6436,N,566,598,0,51.1514,6.6436,NA,NA,992,TRUE
HOPE-RWTH-Aachen,NA,NA,50.7777,6.0606,N,564,596,0,50.7777,6.0606,NA,NA,993,TRUE
CENER,NA,NA,42.816424,-1.602187,N,532,572,0,42.816424,-1.602187,NA,NA,994,TRUE
HohenpeissenbergDWD,NA,NA,47.8019,11.0119,N,552,612,0,47.8019,11.0119,NA,NA,995,TRUE
SEARCH-Centreville2,NA,NA,32.90289,-87.24968,N,493,298,0,32.90289,-87.24968,NA,NA,996,TRUE
Fowlers_Gap,NA,NA,-31.0863,141.70082,N,237,1030,0,-31.0863,141.70082,NA,NA,997,TRUE
Santa_Monica_Colg,NA,NA,34.01685,-118.47113,N,497,198,0,34.01685,-118.47113,NA,NA,998,TRUE
Beijing_RADI,NA,NA,40.0048,116.3786,N,521,949,0,40.0048,116.3786,NA,NA,999,TRUE
DRAGON_Conroe,NA,NA,30.350278,-95.425,N,482,272,0,30.350278,-95.425,NA,NA,1000,TRUE
DRAGON_NW_Harris_CO,NA,NA,30.039444,-95.673889,N,481,271,0,30.039444,-95.673889,NA,NA,1001,TRUE
DRAGON_Aldine,NA,NA,29.901037,-95.326125,N,481,272,0,29.901037,-95.326125,NA,NA,1002,TRUE
DRAGON_West_Houston,NA,NA,29.833056,-95.656944,N,480,271,0,29.833056,-95.656944,NA,NA,1003,TRUE
DRAGON_UH_W_Liberty,NA,NA,30.0583,-94.9781,N,481,273,0,30.0583,-94.9781,NA,NA,1004,TRUE
DRAGON_Clinton,NA,NA,29.733611,-95.2575,N,480,272,0,29.733611,-95.2575,NA,NA,1005,TRUE
DRAGON_UH_Sugarland,NA,NA,29.5741,-95.652,N,479,271,0,29.5741,-95.652,NA,NA,1006,TRUE
DRAGON_Channel_View,NA,NA,29.8025,-95.125556,N,480,273,0,29.8025,-95.125556,NA,NA,1007,TRUE
DRAGON_Deer_Park,NA,NA,29.670046,-95.128485,N,480,273,0,29.670046,-95.128485,NA,NA,1008,TRUE
DRAGON_SeabrookPark,NA,NA,29.583047,-95.015544,N,479,273,0,29.583047,-95.015544,NA,NA,1009,TRUE
DRAGON_ManvelCroix,NA,NA,29.520427,-95.392522,N,479,272,0,29.520427,-95.392522,NA,NA,1010,TRUE
DRAGON_Galveston,NA,NA,29.254474,-94.861289,N,478,273,0,29.254474,-94.861289,NA,NA,1011,TRUE
DRAGON_Smith_Point,NA,NA,29.546111,-94.786969,N,479,274,0,29.546111,-94.786969,NA,NA,1012,TRUE
SEARCH-Centreville,NA,NA,32.90289,-87.24968,N,493,298,0,32.90289,-87.24968,NA,NA,1013,TRUE
SEARCH-Yorkville,NA,NA,33.92833,-85.04555,N,497,305,0,33.92833,-85.04555,NA,NA,1014,TRUE
SEARCH-OLF,NA,NA,30.54997,-87.37531,N,483,297,0,30.54997,-87.37531,NA,NA,1015,TRUE
Galata_Platform,NA,NA,43.044624,28.19319,N,533,667,0,43.044624,28.19319,NA,NA,1016,TRUE
Dolly_Sods,NA,NA,39.11,-79.43,N,517,323,0,39.11,-79.43,NA,NA,1017,TRUE
Boyd_County_MS,NA,NA,38.427461,-82.700033,N,515,312,0,38.427461,-82.700033,NA,NA,1018,TRUE
IMPROVE-MammothCave,NA,NA,37.1318,-86.1479,N,510,301,0,37.1318,-86.1479,NA,NA,1019,TRUE
St_Louis_University,NA,NA,38.636342,-90.231552,N,516,288,0,38.636342,-90.231552,NA,NA,1020,TRUE
Mingo,NA,NA,36.9717,-90.1432,N,509,289,0,36.9717,-90.1432,NA,NA,1021,TRUE
Upper_Buffalo,NA,NA,35.8258,-93.203,N,504,279,0,35.8258,-93.203,NA,NA,1022,TRUE
Cape_Romain,NA,NA,32.941,-79.6572,N,493,322,0,32.941,-79.6572,NA,NA,1023,TRUE
EPA-Res_Triangle_Pk,NA,NA,35.88,-78.87,N,505,325,0,35.88,-78.87,NA,NA,1024,TRUE
Barbados_SALTRACE,NA,NA,13.148513,-59.624839,N,414,386,0,13.148513,-59.624839,NA,NA,1025,TRUE
Itajuba,NA,NA,-22.41325,-45.452389,N,271,432,0,-22.41325,-45.452389,NA,NA,1026,TRUE
Caldwell_Parish_HS,NA,NA,32.060303,-92.096277,N,489,282,0,32.060303,-92.096277,NA,NA,1027,TRUE
SP_Bayboro,NA,NA,27.76155,-82.633,N,472,313,0,27.76155,-82.633,NA,NA,1028,TRUE
Leland_HS,NA,NA,33.402128,-90.89285,N,495,286,0,33.402128,-90.89285,NA,NA,1029,TRUE
Cap_d_En_Font,NA,NA,39.825722,4.208167,N,520,590,0,39.825722,4.208167,NA,NA,1030,TRUE
Tunis_Carthage,NA,NA,36.838719,10.199781,N,508,610,0,36.838719,10.199781,NA,NA,1031,TRUE
ASPET,NA,NA,43.025,0.795,N,533,580,0,43.025,0.795,NA,NA,1032,TRUE
Narsarsuaq,NA,NA,61.155952,-45.419379,N,606,432,0,61.155952,-45.419379,NA,NA,1033,TRUE
Cagliari,NA,NA,39.281,9.052333,N,518,606,0,39.281,9.052333,NA,NA,1034,TRUE
Yushan,NA,NA,23.487419,120.959199,N,455,964,0,23.487419,120.959199,NA,NA,1035,TRUE
Carloforte,NA,NA,39.139908,8.309875,N,518,604,0,39.139908,8.309875,NA,NA,1036,TRUE
Exeter_MO,NA,NA,50.728519,-3.475167,N,564,566,0,50.728519,-3.475167,NA,NA,1037,TRUE
Tallahassee,NA,NA,30.445833,-84.29935,N,483,307,0,30.445833,-84.29935,NA,NA,1038,TRUE
ORS_Hermosillo,NA,NA,29.0275,-111.145556,N,477,221,0,29.0275,-111.145556,NA,NA,1039,TRUE
CEILAP-Comodoro,NA,NA,-45.792153,-67.462875,N,178,361,0,-45.792153,-67.462875,NA,NA,1040,TRUE
Fort_McKay,NA,NA,57.1835,-111.64,N,590,220,0,57.1835,-111.64,NA,NA,1041,TRUE
White_Salmon,NA,NA,45.76666,-121.5125,N,544,188,0,45.76666,-121.5125,NA,NA,1042,TRUE
NEON_Sterling,NA,NA,40.461903,-103.029297,N,523,247,0,40.461903,-103.029297,NA,NA,1043,TRUE
Chiayi,NA,NA,23.495975,120.495975,N,455,963,0,23.495975,120.495975,NA,NA,1044,TRUE
Puli,NA,NA,23.96856,120.96689,N,457,964,0,23.96856,120.96689,NA,NA,1045,TRUE
HOPE-Melpitz,NA,NA,51.525525,12.927601,N,567,618,0,51.525525,12.927601,NA,NA,1046,TRUE
Strzyzow,NA,NA,49.8786,21.8613,N,561,647,0,49.8786,21.8613,NA,NA,1047,TRUE
DRAGON_Galveston_DP,NA,NA,29.254474,-94.861289,N,478,273,0,29.254474,-94.861289,NA,NA,1048,TRUE
Calipso_Carthage,NA,NA,32.06434,-94.06627,N,489,276,0,32.06434,-94.06627,NA,NA,1049,TRUE
Calipso_Sabine_Frst,NA,NA,31.6073,-93.867433,N,487,277,0,31.6073,-93.867433,NA,NA,1050,TRUE
Baskin,NA,NA,32.28222,-91.73866,N,490,283,0,32.28222,-91.73866,NA,NA,1051,TRUE
ARM_Graciosa,NA,NA,39.09109,-28.02917,N,517,487,0,39.09109,-28.02917,NA,NA,1052,TRUE
ARM_Oliktok_AK,NA,NA,70.4995,-149.88,N,643,97,0,70.4995,-149.88,NA,NA,1053,TRUE
Cat_Spring,NA,NA,29.82905,-96.325617,N,480,269,0,29.82905,-96.325617,NA,NA,1054,TRUE
NW_Chapel_Hill,NA,NA,35.9712,-79.0934,N,505,324,0,35.9712,-79.0934,NA,NA,1055,TRUE
James_Res_Center,NA,NA,35.872594,-76.659176,N,504,332,0,35.872594,-76.659176,NA,NA,1056,TRUE
Orlean_Bricy,NA,NA,47.986667,1.761111,N,553,583,0,47.986667,1.761111,NA,NA,1057,TRUE
IAOCA-KRSU,NA,NA,42.46383,78.52895,N,531,828,0,42.46383,78.52895,NA,NA,1058,TRUE
NEON-CASTNET,NA,NA,40.278572,-105.542538,N,522,239,0,40.278572,-105.542538,NA,NA,1059,TRUE
NEON-CPER,NA,NA,40.812444,-104.744238,N,524,242,0,40.812444,-104.744238,NA,NA,1060,TRUE
NEON-HQ,NA,NA,40.016681,-105.245625,N,521,240,0,40.016681,-105.245625,NA,NA,1061,TRUE
NEON-RailroadValley,NA,NA,38.497,-115.691,N,515,207,0,38.497,-115.691,NA,NA,1062,TRUE
NEON-SoaprootSaddle,NA,NA,37.037434,-119.281139,N,509,195,0,37.037434,-119.281139,NA,NA,1063,TRUE
Ieodo_Station,NA,NA,32.122953,125.182447,N,489,978,0,32.122953,125.182447,NA,NA,1064,TRUE
LAQUILA_Coppito,NA,NA,42.368386,13.350636,N,530,620,0,42.368386,13.350636,NA,NA,1065,TRUE
Noumea,NA,NA,-22.301944,166.444167,N,272,1110,0,-22.301944,166.444167,NA,NA,1066,TRUE
Toulouse_MF,NA,NA,43.57261,1.37432,N,535,581,0,43.57261,1.37432,NA,NA,1067,TRUE
Bujumbura,NA,NA,-3.38,29.383833,N,347,671,0,-3.38,29.383833,NA,NA,1068,TRUE
Martova,NA,NA,49.936,36.953,N,561,695,0,49.936,36.953,NA,NA,1069,TRUE
CEILAP-Neuquen,NA,NA,-38.95222,-68.13666,N,205,359,0,-38.95222,-68.13666,NA,NA,1070,TRUE
ARM_HyytialaFinland,NA,NA,61.843536,24.287847,N,608,655,0,61.843536,24.287847,NA,NA,1071,TRUE
ARM_Manacapuru,NA,NA,-3.212972,-60.598056,N,348,383,0,-3.212972,-60.598056,NA,NA,1072,TRUE
Changchun,NA,NA,44.00014,125.3957,N,537,978,0,44.00014,125.3957,NA,NA,1073,TRUE
AOE_Baotou,NA,NA,40.8517,109.6288,N,524,928,0,40.8517,109.6288,NA,NA,1074,TRUE
Mongu_Inn,NA,NA,-15.266667,23.134333,N,300,651,0,-15.266667,23.134333,NA,NA,1075,TRUE
Karunya_University,NA,NA,10.9353,76.7441,N,405,823,0,10.9353,76.7441,NA,NA,1076,TRUE
Progress,NA,NA,-69.37778,76.38861,N,83,821,0,-69.37778,76.38861,NA,NA,1077,TRUE
El_Farafra,NA,NA,27.058,27.990167,N,469,667,0,27.058,27.990167,NA,NA,1078,TRUE
Maeson,NA,NA,19.83046,99.17069,N,440,894,0,19.83046,99.17069,NA,NA,1079,TRUE
Zeebrugge-MOW1,NA,NA,51.362,3.12,N,566,587,0,51.362,3.12,NA,NA,1080,TRUE
Fuguei_Cape,NA,NA,25.297452,121.537859,N,462,966,0,25.297452,121.537859,NA,NA,1081,TRUE
Santiago_Beauchef,NA,NA,-33.457222,-70.661666,N,227,351,0,-33.457222,-70.661666,NA,NA,1082,TRUE
Peterhof,NA,NA,59.881,29.826,N,601,672,0,59.881,29.826,NA,NA,1083,TRUE
SEGC_Lope_Gabon,NA,NA,-0.20155,11.60082,N,360,614,0,-0.20155,11.60082,NA,NA,1084,TRUE
DRAGON_Chatfield_Pk,NA,NA,39.5345,-105.070365,N,519,241,0,39.5345,-105.070365,NA,NA,1085,TRUE
DRAGON_DenverLaCasa,NA,NA,39.77949,-105.00518,N,520,241,0,39.77949,-105.00518,NA,NA,1086,TRUE
DRAGON_Fort_Collins,NA,NA,40.592795,-105.14141,N,523,241,0,40.592795,-105.14141,NA,NA,1087,TRUE
DRAGON_NREL-Golden,NA,NA,39.743725,-105.17799,N,520,240,0,39.743725,-105.17799,NA,NA,1088,TRUE
DRAGON_Platteville,NA,NA,40.182765,-104.7261,N,522,242,0,40.182765,-104.7261,NA,NA,1089,TRUE
DRAGON_Boulder,NA,NA,39.991859,-105.261325,N,521,240,0,39.991859,-105.261325,NA,NA,1090,TRUE
DRAGON_Niwot_Ridge,NA,NA,40.031795,-105.533313,N,521,239,0,40.031795,-105.533313,NA,NA,1091,TRUE
DRAGON_Welch,NA,NA,39.63878,-105.13951,N,520,241,0,39.63878,-105.13951,NA,NA,1092,TRUE
DRAGON_Weld_Co_Twr,NA,NA,40.38636,-104.737445,N,523,242,0,40.38636,-104.737445,NA,NA,1093,TRUE
DRAGON_Aurora_East,NA,NA,39.63854,-104.56913,N,520,242,0,39.63854,-104.56913,NA,NA,1094,TRUE
XuZhou-CUMT,NA,NA,34.21667,117.14167,N,498,952,0,34.21667,117.14167,NA,NA,1095,TRUE
Maggie_Valley,NA,NA,35.519816,-83.09473,N,503,311,0,35.519816,-83.09473,NA,NA,1096,TRUE
Paardefontein,NA,NA,-25.495986,28.374719,N,259,668,0,-25.495986,28.374719,NA,NA,1097,TRUE
Sigma_Space_Corp,NA,NA,38.953,-76.836472,N,517,331,0,38.953,-76.836472,NA,NA,1098,TRUE
Shijiazhuang-SZF,NA,NA,38.01667,114.45833,N,513,943,0,38.01667,114.45833,NA,NA,1099,TRUE
Shijiazhuang-CHEY,NA,NA,38,114.55,N,513,944,0,38,114.55,NA,NA,1100,TRUE
KITcube_Masada,NA,NA,31.322547,35.372297,N,486,690,0,31.322547,35.372297,NA,NA,1101,TRUE
Lingshan_Mountain,NA,NA,40.0537,115.4962,N,521,947,0,40.0537,115.4962,NA,NA,1102,TRUE
Finokalia-FKL,NA,NA,35.337712,25.669762,N,502,659,0,35.337712,25.669762,NA,NA,1103,TRUE
DRAGON_Rocky_Flats,NA,NA,39.912795,-105.188575,N,521,240,0,39.912795,-105.188575,NA,NA,1104,TRUE
American_Samoa,NA,NA,-14.2472,-170.5644,N,304,31,0,-14.2472,-170.5644,NA,NA,1105,TRUE
Gobabeb,NA,NA,-23.561619,15.041058,N,267,625,0,-23.561619,15.041058,NA,NA,1106,TRUE
Medenine-IRA,NA,NA,33.499633,10.642547,N,495,611,0,33.499633,10.642547,NA,NA,1107,TRUE
Berlin_FUB,NA,NA,52.4575,13.310333,N,571,620,0,52.4575,13.310333,NA,NA,1108,TRUE
Tuz_Golu_3,NA,NA,38.792469,33.464678,N,516,684,0,38.792469,33.464678,NA,NA,1109,TRUE
Easton-MDE,NA,NA,38.794972,-76.08425,N,516,334,0,38.794972,-76.08425,NA,NA,1110,TRUE
Durban_UKZN,NA,NA,-29.817233,30.944011,N,242,676,0,-29.817233,30.944011,NA,NA,1111,TRUE
NEON_Bartlett,NA,NA,44.063881,-71.287203,N,537,349,0,44.063881,-71.287203,NA,NA,1112,TRUE
NEON_Harvard,NA,NA,42.5369,-72.172661,N,531,346,0,42.5369,-72.172661,NA,NA,1113,TRUE
Sirmione_Museo_GC,NA,NA,45.500278,10.605833,N,543,611,0,45.500278,10.605833,NA,NA,1114,TRUE
NEON-Disney,NA,NA,28.125039,-81.4362,N,474,316,0,28.125039,-81.4362,NA,NA,1115,TRUE
NEON_OSBS,NA,NA,29.689269,-81.993431,N,480,315,0,29.689269,-81.993431,NA,NA,1116,TRUE
USGS_Flagstaff_ROLO,NA,NA,35.21484,-111.63442,N,502,220,0,35.21484,-111.63442,NA,NA,1117,TRUE
Raciborz,NA,NA,50.0831,18.1917,N,561,635,0,50.0831,18.1917,NA,NA,1118,TRUE
UdeConcepcion-CEFOP,NA,NA,-36.84278,-73.02531,N,214,343,0,-36.84278,-73.02531,NA,NA,1119,TRUE
Toyama,NA,NA,36.699,137.187,N,508,1016,0,36.699,137.187,NA,NA,1120,TRUE
Socheongcho,NA,NA,37.423133,124.738039,N,511,976,0,37.423133,124.738039,NA,NA,1121,TRUE
NEON_RMNP,NA,NA,40.2759,-105.545972,N,522,239,0,40.2759,-105.545972,NA,NA,1122,TRUE
NEON_SCBI,NA,NA,38.892919,-78.1395,N,517,327,0,38.892919,-78.1395,NA,NA,1123,TRUE
NEON_UNDE,NA,NA,46.233881,-89.53725,N,546,290,0,46.233881,-89.53725,NA,NA,1124,TRUE
NEON_OAES,NA,NA,35.41059,-99.05879,N,503,260,0,35.41059,-99.05879,NA,NA,1125,TRUE
Nong_Khai,NA,NA,17.8772,102.71671,N,433,906,0,17.8772,102.71671,NA,NA,1126,TRUE
Nicosia,NA,NA,35.140628,33.381353,N,502,684,0,35.140628,33.381353,NA,NA,1127,TRUE
KIOST_Ansan,NA,NA,37.285983,126.831667,N,510,983,0,37.285983,126.831667,NA,NA,1128,TRUE
Blyth_NOAH,NA,NA,55.146399,-1.420859,N,582,572,0,55.146399,-1.420859,NA,NA,1129,TRUE
NEON_TALL,NA,NA,32.950461,-87.393269,N,493,297,0,32.950461,-87.393269,NA,NA,1130,TRUE
Huancayo-IGP,NA,NA,-12.0402,-75.3209,N,313,336,0,-12.0402,-75.3209,NA,NA,1131,TRUE
Thornton_C-power,NA,NA,51.5325,2.955278,N,567,586,0,51.5325,2.955278,NA,NA,1132,TRUE
Poprad-Ganovce,NA,NA,49.035,20.322,N,557,642,0,49.035,20.322,NA,NA,1133,TRUE
AgiaMarina_Xyliatou,NA,NA,35.038,33.0577,N,501,683,0,35.038,33.0577,NA,NA,1134,TRUE
NEON_ORNL,NA,NA,35.964128,-84.282588,N,505,307,0,35.964128,-84.282588,NA,NA,1135,TRUE
Taylor_Ranch_TWRS,NA,NA,45.1035,-114.84995,N,541,209,0,45.1035,-114.84995,NA,NA,1136,TRUE
NEON_ONAQ,NA,NA,40.177589,-112.452439,N,522,217,0,40.177589,-112.452439,NA,NA,1137,TRUE
Wallops_ACHIEVE,NA,NA,37.933486,-75.471,N,513,335,0,37.933486,-75.471,NA,NA,1138,TRUE
UNC-Gaitan,NA,NA,4.31068,-72.3518,N,378,345,0,4.31068,-72.3518,NA,NA,1139,TRUE
NEON_KONZ,NA,NA,39.10077,-96.56309,N,517,268,0,39.10077,-96.56309,NA,NA,1140,TRUE
KITcube_Karlsruhe,NA,NA,49.0933,8.4279,N,557,604,0,49.0933,8.4279,NA,NA,1141,TRUE
Melpitz,NA,NA,51.525525,12.927601,N,567,618,0,51.525525,12.927601,NA,NA,1142,TRUE
NEON_WOOD,NA,NA,47.128228,-99.241356,N,550,259,0,47.128228,-99.241356,NA,NA,1143,TRUE
Amiaz,NA,NA,31.067081,35.341975,N,485,690,0,31.067081,35.341975,NA,NA,1144,TRUE
Shizafon,NA,NA,30.112539,35.008966,N,481,689,0,30.112539,35.008966,NA,NA,1145,TRUE
Simonstown_IMT,NA,NA,-34.19272,18.44567,N,224,636,0,-34.19272,18.44567,NA,NA,1146,TRUE
NEON_MOAB,NA,NA,38.248331,-109.388269,N,514,227,0,38.248331,-109.388269,NA,NA,1147,TRUE
Shagaya_Park,NA,NA,29.209072,47.060528,N,478,728,0,29.209072,47.060528,NA,NA,1148,TRUE
Camborne_MO,NA,NA,50.21782,-5.32656,N,562,560,0,50.21782,-5.32656,NA,NA,1149,TRUE
Pagosa_Springs,NA,NA,37.270278,-107.050258,N,510,234,0,37.270278,-107.050258,NA,NA,1150,TRUE
Makassar,NA,NA,-4.99768,119.57227,N,341,960,0,-4.99768,119.57227,NA,NA,1151,TRUE
ARM_McMurdo,NA,NA,-77.848889,166.729722,N,50,1111,0,-77.848889,166.729722,NA,NA,1152,TRUE
ARM_WAIS,NA,NA,-79.470556,-112.083333,N,43,218,0,-79.470556,-112.083333,NA,NA,1153,TRUE
Sorong,NA,NA,-0.8746,131.2677,N,358,997,0,-0.8746,131.2677,NA,NA,1154,TRUE
NEON_MLBS,NA,NA,37.378306,-80.524836,N,511,319,0,37.378306,-80.524836,NA,NA,1155,TRUE
Douliu,NA,NA,23.7117,120.5448,N,456,963,0,23.7117,120.5448,NA,NA,1156,TRUE
USC_SEAPRISM_2,NA,NA,33.56371,-118.11782,N,495,199,0,33.56371,-118.11782,NA,NA,1157,TRUE
Hokkaido_University,NA,NA,43.0755,141.3407,N,533,1029,0,43.0755,141.3407,NA,NA,1158,TRUE
Kuwait_Inst_Sci_Res,NA,NA,29.337914,47.906453,N,478,730,0,29.337914,47.906453,NA,NA,1159,TRUE
Rome_ESA_ESRIN,NA,NA,41.826667,12.671833,N,528,618,0,41.826667,12.671833,NA,NA,1160,TRUE
Santa_Rosa,NA,NA,10.8415,-85.615917,N,404,303,0,10.8415,-85.615917,NA,NA,1161,TRUE
Cachoeira_Paulista,NA,NA,-22.689,-45.006,N,270,433,0,-22.689,-45.006,NA,NA,1162,TRUE
Aras_de_los_Olmos,NA,NA,39.945,-1.1016,N,521,573,0,39.945,-1.1016,NA,NA,1163,TRUE
Weizmann_Institute,NA,NA,31.907235,34.810531,N,489,688,0,31.907235,34.810531,NA,NA,1164,TRUE
Windhoek-NUST,NA,NA,-22.56591,17.07304,N,271,632,0,-22.56591,17.07304,NA,NA,1165,TRUE
Paracou,NA,NA,5.266944,-52.925833,N,382,408,0,5.266944,-52.925833,NA,NA,1166,TRUE
Upington,NA,NA,-28.379,21.156,N,247,645,0,-28.379,21.156,NA,NA,1167,TRUE
Bose_Institute,NA,NA,27.031467,88.261403,N,469,859,0,27.031467,88.261403,NA,NA,1168,TRUE
NEON_SERC,NA,NA,38.890117,-76.560017,N,517,332,0,38.890117,-76.560017,NA,NA,1169,TRUE
Bukit_Kototabang,NA,NA,-0.20194,100.31805,N,360,898,0,-0.20194,100.31805,NA,NA,1170,TRUE
NEON_UKFS,NA,NA,39.040431,-95.19215,N,517,272,0,39.040431,-95.19215,NA,NA,1171,TRUE
NEON_LENO,NA,NA,31.853881,-88.161219,N,488,295,0,31.853881,-88.161219,NA,NA,1172,TRUE
Amazon_ATTO_Tower,NA,NA,-2.144117,-58.999867,N,352,388,0,-2.144117,-58.999867,NA,NA,1173,TRUE
Koforidua_ANUC,NA,NA,6.109408,-0.302058,N,385,576,0,6.109408,-0.302058,NA,NA,1174,TRUE
NEON_HEAL,NA,NA,63.875689,-149.213339,N,617,100,0,63.875689,-149.213339,NA,NA,1175,TRUE
Loftus_MO,NA,NA,54.5627,-0.861733,N,579,574,0,54.5627,-0.861733,NA,NA,1176,TRUE
Watnall_MO,NA,NA,53.005652,-1.250958,N,573,573,0,53.005652,-1.250958,NA,NA,1177,TRUE
Potchefstroom,NA,NA,-26.69,27.091,N,254,664,0,-26.69,27.091,NA,NA,1178,TRUE
Natal,NA,NA,-5.8415,-35.1995,N,338,464,0,-5.8415,-35.1995,NA,NA,1179,TRUE
ORS_UNAM_ISNP,NA,NA,19.399467,-99.203683,N,439,260,0,19.399467,-99.203683,NA,NA,1180,TRUE
Napoli_CeSMA,NA,NA,40.836842,14.306567,N,524,623,0,40.836842,14.306567,NA,NA,1181,TRUE
Windpoort,NA,NA,-19.365556,15.482778,N,284,627,0,-19.365556,15.482778,NA,NA,1182,TRUE
Tsumkwe,NA,NA,-19.616667,20.4425,N,283,642,0,-19.616667,20.4425,NA,NA,1183,TRUE
Bonanza,NA,NA,-21.825556,19.590278,N,274,640,0,-21.825556,19.590278,NA,NA,1184,TRUE
HESS,NA,NA,-23.273,16.502944,N,268,630,0,-23.273,16.502944,NA,NA,1185,TRUE
Lubango,NA,NA,-14.958,13.445,N,301,620,0,-14.958,13.445,NA,NA,1186,TRUE
Namibe,NA,NA,-15.159,12.178,N,300,616,0,-15.159,12.178,NA,NA,1187,TRUE
KORUS_Taehwa,NA,NA,37.31248,127.31033,N,510,984,0,37.31248,127.31033,NA,NA,1188,TRUE
AAQ1_SK_Osan,NA,NA,37.087222,127.0257,N,509,983,0,37.087222,127.0257,NA,NA,1189,TRUE
KORUS_Iksan,NA,NA,35.9622,127.0052,N,505,983,0,35.9622,127.0052,NA,NA,1190,TRUE
KORUS_UNIST_Ulsan,NA,NA,35.5819,129.1897,N,503,990,0,35.5819,129.1897,NA,NA,1191,TRUE
KORUS_Kyungpook_NU,NA,NA,35.889989,128.606416,N,505,989,0,35.889989,128.606416,NA,NA,1192,TRUE
KORUS_Olympic_Park,NA,NA,37.52165,127.12418,N,511,984,0,37.52165,127.12418,NA,NA,1193,TRUE
Niigata,NA,NA,37.846,138.942,N,512,1022,0,37.846,138.942,NA,NA,1194,TRUE
KORUS_Daegwallyeong,NA,NA,37.68712,128.75872,N,512,989,0,37.68712,128.75872,NA,NA,1195,TRUE
Lamezia_Terme,NA,NA,38.8764,16.2321,N,517,629,0,38.8764,16.2321,NA,NA,1196,TRUE
NEON_GUAN,NA,NA,17.96955,-66.8687,N,433,363,0,17.96955,-66.8687,NA,NA,1197,TRUE
KORUS_NIER,NA,NA,37.56893,126.63971,N,511,982,0,37.56893,126.63971,NA,NA,1198,TRUE
KORUS_Mokpo_NU,NA,NA,34.91342,126.43736,N,501,982,0,34.91342,126.43736,NA,NA,1199,TRUE
Bakersfield,NA,NA,35.331506,-119.000008,N,502,196,0,35.331506,-119.000008,NA,NA,1200,TRUE
Alishan,NA,NA,23.50844,120.81341,N,455,964,0,23.50844,120.81341,NA,NA,1201,TRUE
Lake_Erie,NA,NA,41.8256,-83.1936,N,528,311,0,41.8256,-83.1936,NA,NA,1202,TRUE
EastMalling_MO,NA,NA,51.29,0.44,N,566,578,0,51.29,0.44,NA,NA,1203,TRUE
KORUS_Baeksa,NA,NA,37.41156,127.5691,N,511,985,0,37.41156,127.5691,NA,NA,1204,TRUE
KORUS_Songchon,NA,NA,37.33849,127.48946,N,510,985,0,37.33849,127.48946,NA,NA,1205,TRUE
SONET_Harbin,NA,NA,45.705,126.614,N,544,982,0,45.705,126.614,NA,NA,1206,TRUE
SONET_Nanjing,NA,NA,32.115,118.957,N,489,958,0,32.115,118.957,NA,NA,1207,TRUE
SONET_Shanghai,NA,NA,31.284,121.481,N,486,966,0,31.284,121.481,NA,NA,1208,TRUE
SONET_Zhoushan,NA,NA,29.994,122.188,N,481,968,0,29.994,122.188,NA,NA,1209,TRUE
SONET_Xingtai,NA,NA,37.182,114.36,N,510,943,0,37.182,114.36,NA,NA,1210,TRUE
KITcube_Save,NA,NA,8.000928,2.427925,N,393,585,0,8.000928,2.427925,NA,NA,1211,TRUE
SONET_Hefei,NA,NA,31.904722,117.162222,N,489,952,0,31.904722,117.162222,NA,NA,1212,TRUE
NASA_KSC,NA,NA,28.463763,-80.663476,N,475,319,0,28.463763,-80.663476,NA,NA,1213,TRUE
Santo_Pekoa,NA,NA,-15.508,167.219,N,299,1112,0,-15.508,167.219,NA,NA,1214,TRUE
Rhyl_MO,NA,NA,53.25929,-3.50859,N,574,566,0,53.25929,-3.50859,NA,NA,1215,TRUE
Modesto,NA,NA,37.64217,-120.99422,N,512,190,0,37.64217,-120.99422,NA,NA,1216,TRUE
St_Helena,NA,NA,-15.9424,-5.6673,N,297,559,0,-15.9424,-5.6673,NA,NA,1217,TRUE
POLWET_Rzecin,NA,NA,52.762019,16.309589,N,572,629,0,52.762019,16.309589,NA,NA,1218,TRUE
Santiago_Beauchef_2,NA,NA,-33.457222,-70.661666,N,227,351,0,-33.457222,-70.661666,NA,NA,1219,TRUE
Albergue_UGR,NA,NA,37.095598,-3.386989,N,509,566,0,37.095598,-3.386989,NA,NA,1220,TRUE
ARM_Ascension_Is,NA,NA,-7.966964,-14.349806,N,329,531,0,-7.966964,-14.349806,NA,NA,1221,TRUE
ARM_Macquarie_Is,NA,NA,-54.499561,158.934581,N,143,1086,0,-54.499561,158.934581,NA,NA,1222,TRUE
Doi_Inthanon,NA,NA,18.59,98.485556,N,435,892,0,18.59,98.485556,NA,NA,1223,TRUE
Vienna_UNIVIE,NA,NA,48.221667,16.355833,N,554,629,0,48.221667,16.355833,NA,NA,1224,TRUE
Stornoway_MO,NA,NA,58.21156,-6.182147,N,594,557,0,58.21156,-6.182147,NA,NA,1225,TRUE
Beijing_PKU,NA,NA,39.992,116.3102,N,521,949,0,39.992,116.3102,NA,NA,1226,TRUE
Mount_Wilson,NA,NA,34.2247,-118.0559,N,498,199,0,34.2247,-118.0559,NA,NA,1227,TRUE
SP-EACH,NA,NA,-23.48163,-46.49967,N,267,428,0,-23.48163,-46.49967,NA,NA,1228,TRUE
Portglenone_MO,NA,NA,54.865,-6.457,N,580,556,0,54.865,-6.457,NA,NA,1229,TRUE
Lerwick_MO,NA,NA,60.139372,-1.185113,N,602,573,0,60.139372,-1.185113,NA,NA,1230,TRUE
UACJ_UNAM_ORS,NA,NA,31.743333,-106.431667,N,488,236,0,31.743333,-106.431667,NA,NA,1231,TRUE
Technion_Haifa_IL,NA,NA,32.77587,35.0249,N,492,689,0,32.77587,35.0249,NA,NA,1232,TRUE
Possession_Island,NA,NA,-27.010428,15.194255,N,253,626,0,-27.010428,15.194255,NA,NA,1233,TRUE
DRAGON_Henties_1,NA,NA,-22.052222,14.295125,N,273,623,0,-22.052222,14.295125,NA,NA,1234,TRUE
DRAGON_Henties_2,NA,NA,-22.115833,14.339791,N,273,623,0,-22.115833,14.339791,NA,NA,1235,TRUE
DRAGON_Henties_3,NA,NA,-22.183889,14.377948,N,272,623,0,-22.183889,14.377948,NA,NA,1236,TRUE
DRAGON_Henties_4,NA,NA,-22.020278,14.345504,N,273,623,0,-22.020278,14.345504,NA,NA,1237,TRUE
DRAGON_Henties_5,NA,NA,-22.091667,14.399573,N,273,623,0,-22.091667,14.399573,NA,NA,1238,TRUE
DRAGON_Henties_6,NA,NA,-22.166667,14.430668,N,272,623,0,-22.166667,14.430668,NA,NA,1239,TRUE
Paranal_CTA,NA,NA,-24.701105,-70.324794,N,262,352,0,-24.701105,-70.324794,NA,NA,1240,TRUE
UPC-GEAB-Valledupar,NA,NA,9.5596,-73.3293,N,399,342,0,9.5596,-73.3293,NA,NA,1241,TRUE
Crucero,NA,NA,-22.2745,-69.5662,N,272,354,0,-22.2745,-69.5662,NA,NA,1242,TRUE
Glasgow_MO,NA,NA,55.9068,-4.53122,N,585,563,0,55.9068,-4.53122,NA,NA,1243,TRUE
Walvis_Bay_airport,NA,NA,-22.98,14.64,N,269,624,0,-22.98,14.64,NA,NA,1244,TRUE
Oxford,NA,NA,51.759,-1.256,N,568,573,0,51.759,-1.256,NA,NA,1245,TRUE
Mesa_Lakes,NA,NA,39.052,-108.0981,N,517,231,0,39.052,-108.0981,NA,NA,1246,TRUE
Bamboo,NA,NA,25.186711,121.535266,N,462,966,0,25.186711,121.535266,NA,NA,1247,TRUE
Nouragues,NA,NA,4.087639,-52.680056,N,377,408,0,4.087639,-52.680056,NA,NA,1248,TRUE
Vienna_BOKU,NA,NA,48.237861,16.331611,N,554,629,0,48.237861,16.331611,NA,NA,1249,TRUE
DigitalGlobe_Cal,NA,NA,40.13889,-105.13722,N,522,241,0,40.13889,-105.13722,NA,NA,1250,TRUE
Cork_UCC,NA,NA,51.89241,-8.493762,N,569,550,0,51.89241,-8.493762,NA,NA,1251,TRUE
Cape_Fuguei_Station,NA,NA,25.297452,121.537859,N,462,966,0,25.297452,121.537859,NA,NA,1252,TRUE
CATUC_Bamenda,NA,NA,5.9491,10.1563,N,385,610,0,5.9491,10.1563,NA,NA,1253,TRUE
Temuco-UFRO_CEFOP,NA,NA,-38.745803,-72.615525,N,206,345,0,-38.745803,-72.615525,NA,NA,1254,TRUE
LAMTO-STATION,NA,NA,6.223517,-5.026617,N,386,561,0,6.223517,-5.026617,NA,NA,1255,TRUE
NEON_NIWO,NA,NA,40.05425,-105.582369,N,521,239,0,40.05425,-105.582369,NA,NA,1256,TRUE
NEON_GRSM,NA,NA,35.688961,-83.50195,N,504,310,0,35.688961,-83.50195,NA,NA,1257,TRUE
NEON_TOOL,NA,NA,68.661089,-149.370469,N,636,99,0,68.661089,-149.370469,NA,NA,1258,TRUE
NEON_CLBJ,NA,NA,33.40123,-97.57,N,495,265,0,33.40123,-97.57,NA,NA,1259,TRUE
NEON_SRER,NA,NA,31.910681,-110.835489,N,489,222,0,31.910681,-110.835489,NA,NA,1260,TRUE
NEON_DEJU,NA,NA,63.881119,-145.751361,N,617,111,0,63.881119,-145.751361,NA,NA,1261,TRUE
NEON_BARR,NA,NA,71.28241,-156.61936,N,646,76,0,71.28241,-156.61936,NA,NA,1262,TRUE
Mandalay_MTU,NA,NA,21.972896,96.186136,N,449,885,0,21.972896,96.186136,NA,NA,1263,TRUE
Weybourne,NA,NA,52.95,1.121944,N,573,581,0,52.95,1.121944,NA,NA,1264,TRUE
SDSU_IPLab,NA,NA,44.314828,-96.786075,N,538,267,0,44.314828,-96.786075,NA,NA,1265,TRUE
Los_Leones_Auger,NA,NA,-35.495807,-69.449759,N,219,355,0,-35.495807,-69.449759,NA,NA,1266,TRUE
UNC-Palmira,NA,NA,3.512295,-76.30761,N,375,333,0,3.512295,-76.30761,NA,NA,1267,TRUE
Kosetice_Inoe,NA,NA,49.558,15.115,N,559,625,0,49.558,15.115,NA,NA,1268,TRUE
Rome_La_Sapienza,NA,NA,41.901695,12.515773,N,529,617,0,41.901695,12.515773,NA,NA,1269,TRUE
Edmonton,NA,NA,53.549,-113.636,N,575,213,0,53.549,-113.636,NA,NA,1270,TRUE
Amity_Univ_Gurgaon,NA,NA,28.317329,76.916031,N,474,823,0,28.317329,76.916031,NA,NA,1271,TRUE
Brno_Airport,NA,NA,49.15647,16.68333,N,558,630,0,49.15647,16.68333,NA,NA,1272,TRUE
Pafos,NA,NA,34.71111,32.48333,N,500,681,0,34.71111,32.48333,NA,NA,1273,TRUE
NEON_SJER,NA,NA,37.10878,-119.73228,N,509,194,0,37.10878,-119.73228,NA,NA,1274,TRUE
NEON_NOGP,NA,NA,46.769719,-100.91535,N,548,254,0,46.769719,-100.91535,NA,NA,1275,TRUE
Rexburg_Idaho,NA,NA,43.82011,-111.78301,N,536,219,0,43.82011,-111.78301,NA,NA,1276,TRUE
Pilar_Cordoba,NA,NA,-31.667411,-63.882597,N,234,373,0,-31.667411,-63.882597,NA,NA,1277,TRUE
Tucuman,NA,NA,-26.787153,-65.206697,N,254,368,0,-26.787153,-65.206697,NA,NA,1278,TRUE
Pioneer_JC,NA,NA,1.384333,103.754528,N,367,909,0,1.384333,103.754528,NA,NA,1279,TRUE
LMOS_Zion_Site,NA,NA,42.467573,-87.810047,N,531,296,0,42.467573,-87.810047,NA,NA,1280,TRUE
Hampton_University,NA,NA,37.0204,-76.3365,N,509,333,0,37.0204,-76.3365,NA,NA,1281,TRUE
Ny_Alesund_AWI,NA,NA,78.923166,11.92304,N,677,615,0,78.923166,11.92304,NA,NA,1282,TRUE
SDU1,NA,NA,-20.072877,-67.601385,N,281,361,0,-20.072877,-67.601385,NA,NA,1283,TRUE
SDU2,NA,NA,-19.982874,-67.586208,N,281,361,0,-19.982874,-67.586208,NA,NA,1284,TRUE
SDU3,NA,NA,-20.10209,-67.510582,N,281,361,0,-20.10209,-67.510582,NA,NA,1285,TRUE
SDU4,NA,NA,-20.122675,-67.679061,N,281,360,0,-20.122675,-67.679061,NA,NA,1286,TRUE
SDU5,NA,NA,-20.279479,-66.982737,N,280,363,0,-20.279479,-66.982737,NA,NA,1287,TRUE
SDU6,NA,NA,-20.153516,-67.57286,N,280,361,0,-20.153516,-67.57286,NA,NA,1288,TRUE
Banqiao,NA,NA,24.997757,121.442497,N,461,966,0,24.997757,121.442497,NA,NA,1289,TRUE
CBBT,NA,NA,37.036667,-76.0766,N,509,334,0,37.036667,-76.0766,NA,NA,1290,TRUE
San_Pietro_Capo,NA,NA,44.650001,11.619999,N,540,614,0,44.650001,11.619999,NA,NA,1291,TRUE
NEON_BONA,NA,NA,65.154033,-147.502583,N,622,105,0,65.154033,-147.502583,NA,NA,1292,TRUE
NEON_TEAK,NA,NA,37.005831,-119.006019,N,509,196,0,37.005831,-119.006019,NA,NA,1293,TRUE
San_Cristobal_USFQ,NA,NA,-0.8954,-89.60879,N,357,290,0,-0.8954,-89.60879,NA,NA,1294,TRUE
Huambo,NA,NA,-12.8679,15.7046,N,310,627,0,-12.8679,15.7046,NA,NA,1295,TRUE
Sao_Tome,NA,NA,0.37469,6.71099,N,362,598,0,0.37469,6.71099,NA,NA,1296,TRUE
Sakeji_School,NA,NA,-11.232956,24.312,N,316,655,0,-11.232956,24.312,NA,NA,1297,TRUE
Quito_USFQ,NA,NA,-0.196244,-78.435589,N,360,326,0,-0.196244,-78.435589,NA,NA,1298,TRUE
Spoon_Butte,NA,NA,42.5962,-104.44255,N,531,243,0,42.5962,-104.44255,NA,NA,1299,TRUE
PNNL,NA,NA,46.34095,-119.2788,N,546,195,0,46.34095,-119.2788,NA,NA,1300,TRUE
Brest_MF,NA,NA,48.444565,-4.411855,N,555,563,0,48.444565,-4.411855,NA,NA,1301,TRUE
El_Alto-Altiplano,NA,NA,-16.509972,-68.198583,N,295,359,0,-16.509972,-68.198583,NA,NA,1302,TRUE
NEON_WREF,NA,NA,45.820488,-121.951912,N,544,187,0,45.820488,-121.951912,NA,NA,1303,TRUE
Langtang_BC,NA,NA,28.214431,85.609781,N,474,851,0,28.214431,85.609781,NA,NA,1304,TRUE
Kyanjin_Gompa,NA,NA,28.211258,85.5663,N,474,851,0,28.211258,85.5663,NA,NA,1305,TRUE
ARM_SGP,NA,NA,36.605175,-97.485619,N,507,265,0,36.605175,-97.485619,NA,NA,1306,TRUE
DEWA_ResearchCentre,NA,NA,24.766847,55.369125,N,460,754,0,24.766847,55.369125,NA,NA,1307,TRUE
ARIAKE_TOWER,NA,NA,33.103617,130.27195,N,493,994,0,33.103617,130.27195,NA,NA,1308,TRUE
Dibrugarh_Univ,NA,NA,27.45085,94.896889,N,471,881,0,27.45085,94.896889,NA,NA,1309,TRUE
Denver_LaCasa,NA,NA,39.77949,-105.00518,N,520,241,0,39.77949,-105.00518,NA,NA,1310,TRUE
Learmonth,NA,NA,-22.2407,114.0967,N,272,942,0,-22.2407,114.0967,NA,NA,1311,TRUE
Maldives_Gan,NA,NA,-0.6905,73.15,N,358,811,0,-0.6905,73.15,NA,NA,1312,TRUE
New_Delhi_IMD,NA,NA,28.5885,77.2216,N,475,824,0,28.5885,77.2216,NA,NA,1313,TRUE
Kaohsiung,NA,NA,22.675621,120.292171,N,452,962,0,22.675621,120.292171,NA,NA,1314,TRUE
Warsaw_UW,NA,NA,52.210932,20.982636,N,570,644,0,52.210932,20.982636,NA,NA,1315,TRUE
Thimphu,NA,NA,27.472643,89.639057,N,471,864,0,27.472643,89.639057,NA,NA,1316,TRUE
Bidur,NA,NA,27.8955,85.140096,N,473,849,0,27.8955,85.140096,NA,NA,1317,TRUE
Victoria_JC,NA,NA,1.306944,103.919444,N,366,910,0,1.306944,103.919444,NA,NA,1318,TRUE
Xitun,NA,NA,24.1622,120.6169,N,458,963,0,24.1622,120.6169,NA,NA,1319,TRUE
AAOT,NA,NA,45.3139,12.5083,N,542,617,0,45.3139,12.5083,NA,NA,1320,TRUE
Misamfu,NA,NA,-10.1712,31.2241,N,320,677,0,-10.1712,31.2241,NA,NA,1321,TRUE
South_Greenbay,NA,NA,44.59633,-87.9512,N,539,296,0,44.59633,-87.9512,NA,NA,1322,TRUE
Lake_Okeechobee,NA,NA,26.9017,-80.7892,N,469,318,0,26.9017,-80.7892,NA,NA,1323,TRUE
Kluane_Lake,NA,NA,61.027,-138.41,N,605,134,0,61.027,-138.41,NA,NA,1324,TRUE
Granite_Island,NA,NA,46.7208,-87.412,N,548,297,0,46.7208,-87.412,NA,NA,1325,TRUE
ASI_Malindi,NA,NA,-2.996,40.1945,N,349,706,0,-2.996,40.1945,NA,NA,1326,TRUE
Migal,NA,NA,33.236394,35.578278,N,494,691,0,33.236394,35.578278,NA,NA,1327,TRUE
Welgegund,NA,NA,-26.569444,26.939167,N,255,663,0,-26.569444,26.939167,NA,NA,1328,TRUE
BMKG_GAW_PALU,NA,NA,-1.6503,120.1829,N,354,962,0,-1.6503,120.1829,NA,NA,1329,TRUE
Hart_Miller_Island,NA,NA,39.2419,-76.3628,N,518,333,0,39.2419,-76.3628,NA,NA,1330,TRUE
Antikythera_NOA,NA,NA,35.86099,23.30982,N,504,652,0,35.86099,23.30982,NA,NA,1331,TRUE
Majadas,NA,NA,39.955031,-5.775914,N,521,559,0,39.955031,-5.775914,NA,NA,1332,TRUE
Naalehu_Elementary,NA,NA,19.060874,-155.578983,N,437,79,0,19.060874,-155.578983,NA,NA,1333,TRUE
HBOI,NA,NA,27.5343,-80.3569,N,471,320,0,27.5343,-80.3569,NA,NA,1334,TRUE
PSDA_Chile,NA,NA,-24.090306,-69.929028,N,265,353,0,-24.090306,-69.929028,NA,NA,1335,TRUE
ETNA_VENA,NA,NA,37.7905,15.1386,N,512,625,0,37.7905,15.1386,NA,NA,1336,TRUE
Yale_Coastal,NA,NA,41.2583,-72.7312,N,526,344,0,41.2583,-72.7312,NA,NA,1337,TRUE
Punta_Arenas_UMAG,NA,NA,-53.1354,-70.8845,N,148,350,0,-53.1354,-70.8845,NA,NA,1338,TRUE
Irbe_Lighthouse,NA,NA,57.75092,21.72297,N,592,647,0,57.75092,21.72297,NA,NA,1339,TRUE
Reykjavik,NA,NA,64.1278,-21.9037,N,618,507,0,64.1278,-21.9037,NA,NA,1340,TRUE
KEMPTEN_UAS,NA,NA,47.715833,10.314133,N,552,610,0,47.715833,10.314133,NA,NA,1341,TRUE
Pinehurst_Idaho,NA,NA,47.536739,-116.236917,N,551,205,0,47.536739,-116.236917,NA,NA,1342,TRUE
Kwajalein_Atoll,NA,NA,8.84749,167.742808,N,396,1114,0,8.84749,167.742808,NA,NA,1343,TRUE
Loch_Leven,NA,NA,56.18803,-3.35165,N,586,566,0,56.18803,-3.35165,NA,NA,1344,TRUE
SDU2018,NA,NA,-20.0318,-67.8695,N,281,360,0,-20.0318,-67.8695,NA,NA,1345,TRUE
Tres_Olivos,NA,NA,40.499111,-3.688514,N,523,565,0,40.499111,-3.688514,NA,NA,1346,TRUE
Barajas,NA,NA,40.465277,-3.580576,N,523,566,0,40.465277,-3.580576,NA,NA,1347,TRUE
Suertes,NA,NA,40.371644,-3.605795,N,522,565,0,40.371644,-3.605795,NA,NA,1348,TRUE
Cuatro_Vientos,NA,NA,40.370096,-3.779692,N,522,565,0,40.370096,-3.779692,NA,NA,1349,TRUE
ARM_Cordoba,NA,NA,-32.12641,-64.72837,N,232,370,0,-32.12641,-64.72837,NA,NA,1350,TRUE
NEON_YELL,NA,NA,44.95348,-110.53914,N,541,223,0,44.95348,-110.53914,NA,NA,1351,TRUE
Payerne,NA,NA,46.812408,6.942019,N,548,599,0,46.812408,6.942019,NA,NA,1352,TRUE
Lopburi,NA,NA,15.266667,101.187361,N,422,901,0,15.266667,101.187361,NA,NA,1353,TRUE
Braccagni,NA,NA,42.827746,11.079531,N,532,612,0,42.827746,11.079531,NA,NA,1354,TRUE
VirginiaTech,NA,NA,37.230775,-80.424681,N,510,320,0,37.230775,-80.424681,NA,NA,1355,TRUE
Montevideo_FING,NA,NA,-34.918167,-56.166767,N,221,397,0,-34.918167,-56.166767,NA,NA,1356,TRUE
Alkali_Lake,NA,NA,37.8588,-117.382,N,512,201,0,37.8588,-117.382,NA,NA,1357,TRUE
Railroad_NSPO,NA,NA,38.504722,-115.692,N,515,207,0,38.504722,-115.692,NA,NA,1358,TRUE
Grizzly_Bay,NA,NA,38.108167,-122.056208,N,513,186,0,38.108167,-122.056208,NA,NA,1359,TRUE
Merida_MEDA,NA,NA,20.9839,-89.6452,N,445,290,0,20.9839,-89.6452,NA,NA,1360,TRUE
NEON_PUUM,NA,NA,19.553144,-155.317242,N,439,80,0,19.553144,-155.317242,NA,NA,1361,TRUE
Campus_USACH,NA,NA,-33.4499,-70.681567,N,227,351,0,-33.4499,-70.681567,NA,NA,1362,TRUE
Qena_SVU,NA,NA,26.199924,32.747029,N,466,682,0,26.199924,32.747029,NA,NA,1363,TRUE
Bangkok,NA,NA,13.7491,100.5177,N,416,899,0,13.7491,100.5177,NA,NA,1364,TRUE
Okinawa_Hedo,NA,NA,26.867,128.249,N,468,987,0,26.867,128.249,NA,NA,1365,TRUE
Sra_Kaeo,NA,NA,13.6889,102.5043,N,416,905,0,13.6889,102.5043,NA,NA,1366,TRUE
Casablanca_Platform,NA,NA,40.717,1.358,N,524,581,0,40.717,1.358,NA,NA,1367,TRUE
Fang,NA,NA,19.913397,99.206425,N,441,894,0,19.913397,99.206425,NA,NA,1368,TRUE
MAXAR_FUTON,NA,NA,40.03556,-104.885,N,521,241,0,40.03556,-104.885,NA,NA,1369,TRUE
TASA_Taiwan,NA,NA,24.783889,121.001122,N,460,964,0,24.783889,121.001122,NA,NA,1370,TRUE
Kashi,NA,NA,39.5043,75.9304,N,519,820,0,39.5043,75.9304,NA,NA,1371,TRUE
Lumbini_North,NA,NA,27.503722,83.282133,N,471,844,0,27.503722,83.282133,NA,NA,1372,TRUE
UEM_Maputo,NA,NA,-25.949667,32.598833,N,257,681,0,-25.949667,32.598833,NA,NA,1373,TRUE
Matorova_FMI,NA,NA,67.99997,24.240012,N,633,655,0,67.99997,24.240012,NA,NA,1374,TRUE
Niassa,NA,NA,-12.15512,37.56656,N,312,697,0,-12.15512,37.56656,NA,NA,1375,TRUE
Cliff_Creek_1,NA,NA,45.108708,-114.843318,N,541,210,0,45.108708,-114.843318,NA,NA,1376,TRUE
Cliff_Creek_2,NA,NA,45.115091,-114.843248,N,541,210,0,45.115091,-114.843248,NA,NA,1377,TRUE
Cliff_Creek_3,NA,NA,45.115417,-114.836824,N,541,210,0,45.115417,-114.836824,NA,NA,1378,TRUE
Cliff_Creek_4,NA,NA,45.123432,-114.83938,N,541,210,0,45.123432,-114.83938,NA,NA,1379,TRUE
Cliff_Creek_5,NA,NA,45.129928,-114.846827,N,542,209,0,45.129928,-114.846827,NA,NA,1380,TRUE
Cliff_Creek_6,NA,NA,45.144171,-114.845318,N,542,209,0,45.144171,-114.845318,NA,NA,1381,TRUE
Yanqihu,NA,NA,40.4083,116.6744,N,523,950,0,40.4083,116.6744,NA,NA,1382,TRUE
Railroad_Valley2,NA,NA,38.497,-115.691,N,515,207,0,38.497,-115.691,NA,NA,1383,TRUE
Dakar_Belair,NA,NA,14.7017,-17.4256,N,420,521,0,14.7017,-17.4256,NA,NA,1384,TRUE
Caillouel_COBIACC,NA,NA,49.619914,3.12681,N,559,587,0,49.619914,3.12681,NA,NA,1385,TRUE
Missoula_Health_Dpt,NA,NA,46.875753,-113.995597,N,549,212,0,46.875753,-113.995597,NA,NA,1386,TRUE
Missoula_Pt_Six,NA,NA,47.041333,-113.986306,N,549,212,0,47.041333,-113.986306,NA,NA,1387,TRUE
Missoula_Waterworks,NA,NA,46.880881,-113.987222,N,549,212,0,46.880881,-113.987222,NA,NA,1388,TRUE
Missoula_Midslope,NA,NA,46.999861,-114.025889,N,549,212,0,46.999861,-114.025889,NA,NA,1389,TRUE
Hainich_UGOE,NA,NA,51.0792,10.4522,N,565,610,0,51.0792,10.4522,NA,NA,1390,TRUE
Meridian_DEQ,NA,NA,43.600697,-116.347989,N,535,205,0,43.600697,-116.347989,NA,NA,1391,TRUE
Cascade_Airport,NA,NA,44.495286,-116.016825,N,539,206,0,44.495286,-116.016825,NA,NA,1392,TRUE
Tumbarumba,NA,NA,-35.7083,147.9499,N,218,1050,0,-35.7083,147.9499,NA,NA,1393,TRUE
McCall_Dragon_1,NA,NA,44.764,-116.1962,N,540,205,0,44.764,-116.1962,NA,NA,1394,TRUE
McCall_Dragon_3,NA,NA,45.0385,-116.2894,N,541,205,0,45.0385,-116.2894,NA,NA,1395,TRUE
McCall_Dragon_4,NA,NA,45.2767,-115.9146,N,542,206,0,45.2767,-115.9146,NA,NA,1396,TRUE
McCall_Dragon_5,NA,NA,45.2674,-115.6834,N,542,207,0,45.2674,-115.6834,NA,NA,1397,TRUE
McCall_Dragon_6,NA,NA,45.4056,-116.0255,N,543,206,0,45.4056,-116.0255,NA,NA,1398,TRUE
McCall_Dragon_7,NA,NA,45.4105,-116.3295,N,543,205,0,45.4105,-116.3295,NA,NA,1399,TRUE
McCall_AB_Standard,NA,NA,44.870242,-116.115561,N,540,205,0,44.870242,-116.115561,NA,NA,1400,TRUE
McCall_AB_Polar,NA,NA,44.870242,-116.115561,N,540,205,0,44.870242,-116.115561,NA,NA,1401,TRUE
Ibirapuera,NA,NA,-23.589183,-46.650924,N,267,428,0,-23.589183,-46.650924,NA,NA,1402,TRUE
Kemigawa_Offshore,NA,NA,35.610833,140.02333,N,503,1025,0,35.610833,140.02333,NA,NA,1403,TRUE
McCall_Dragon_8,NA,NA,45.268874,-115.845115,N,542,206,0,45.268874,-115.845115,NA,NA,1404,TRUE
McCall_Dragon_9,NA,NA,45.272417,-115.849037,N,542,206,0,45.272417,-115.849037,NA,NA,1405,TRUE
Section-7_Platform,NA,NA,44.5458,29.4466,N,539,671,0,44.5458,29.4466,NA,NA,1406,TRUE
BMKG_Jakarta,NA,NA,-6.155239,106.841197,N,336,919,0,-6.155239,106.841197,NA,NA,1407,TRUE
Kupang,NA,NA,-10.139178,123.667097,N,320,973,0,-10.139178,123.667097,NA,NA,1408,TRUE
ARM_Andenes,NA,NA,69.141281,15.684166,N,638,627,0,69.141281,15.684166,NA,NA,1409,TRUE
Salton_Sea,NA,NA,33.16923,-115.85593,N,494,206,0,33.16923,-115.85593,NA,NA,1410,TRUE
Roque_Muchachos,NA,NA,28.7639,-17.8939,N,476,520,0,28.7639,-17.8939,NA,NA,1411,TRUE
Croisic_UTLN,NA,NA,47.293606,-2.5134,N,550,569,0,47.293606,-2.5134,NA,NA,1412,TRUE
Debrzyna_PULS,NA,NA,53.7825,16.592157,N,576,630,0,53.7825,16.592157,NA,NA,1413,TRUE
Pretoria_CSIR-EC,NA,NA,-25.750126,28.278441,N,258,667,0,-25.750126,28.278441,NA,NA,1414,TRUE
Bahia_Blanca,NA,NA,-39.148333,-61.721667,N,204,379,0,-39.148333,-61.721667,NA,NA,1415,TRUE
Escudero_Station,NA,NA,-62.2015,-58.9657,N,112,388,0,-62.2015,-58.9657,NA,NA,1416,TRUE
Univ_of_Auckland,NA,NA,-36.852621,174.768143,N,214,1136,0,-36.852621,174.768143,NA,NA,1417,TRUE
Sacramento_CARB,NA,NA,38.56844,-121.49311,N,515,188,0,38.56844,-121.49311,NA,NA,1418,TRUE
Maido_OPAR,NA,NA,-21.07985,55.383087,N,277,754,0,-21.07985,55.383087,NA,NA,1419,TRUE
Princeton_Univ,NA,NA,40.35028,-74.65219,N,522,338,0,40.35028,-74.65219,NA,NA,1420,TRUE
DRAGON_Mt_Happo,NA,NA,36.696944,137.798126,N,508,1018,0,36.696944,137.798126,NA,NA,1421,TRUE
DRAGON_Hakuba,NA,NA,36.700556,137.864134,N,508,1018,0,36.700556,137.864134,NA,NA,1422,TRUE
DRAGON_Matsumoto,NA,NA,36.251389,137.977832,N,506,1019,0,36.251389,137.977832,NA,NA,1423,TRUE
DRAGON_Suwa,NA,NA,36.045556,138.108754,N,505,1019,0,36.045556,138.108754,NA,NA,1424,TRUE
DRAGON_Mt_Krigamine,NA,NA,36.098056,138.168297,N,505,1019,0,36.098056,138.168297,NA,NA,1425,TRUE
DRAGON_Kofu,NA,NA,35.678889,138.571534,N,504,1020,0,35.678889,138.571534,NA,NA,1426,TRUE
DRAGON_Mt_Haruna,NA,NA,36.475556,138.877794,N,507,1021,0,36.475556,138.877794,NA,NA,1427,TRUE
DRAGON_Minowa,NA,NA,35.915,137.980741,N,505,1019,0,35.915,137.980741,NA,NA,1428,TRUE
DRAGON_Ina,NA,NA,35.8475,137.96125,N,504,1018,0,35.8475,137.96125,NA,NA,1429,TRUE
DRAGON_Iida,NA,NA,35.516667,137.842199,N,503,1018,0,35.516667,137.842199,NA,NA,1430,TRUE
EIN_TAMAR,NA,NA,30.945667,35.389232,N,485,690,0,30.945667,35.389232,NA,NA,1431,TRUE
Sofia_IEBAS,NA,NA,42.6539,23.3868,N,532,652,0,42.6539,23.3868,NA,NA,1432,TRUE
Chiang_Dao,NA,NA,19.454722,98.9609,N,439,894,0,19.454722,98.9609,NA,NA,1433,TRUE
Masdar_Institute_2,NA,NA,24.4416,54.6166,N,459,752,0,24.4416,54.6166,NA,NA,1434,TRUE
USDA_ALARC,NA,NA,33.077454,-111.97339,N,493,219,0,33.077454,-111.97339,NA,NA,1435,TRUE
Herstmonceux,NA,NA,50.867517,0.334378,N,564,578,0,50.867517,0.334378,NA,NA,1436,TRUE
Gosan_NIMS_SNU,NA,NA,33.3001,126.2058,N,494,981,0,33.3001,126.2058,NA,NA,1437,TRUE
Catalina,NA,NA,32.456511,-110.879547,N,491,222,0,32.456511,-110.879547,NA,NA,1438,TRUE
Zugspitze_KIT,NA,NA,47.421,10.986,N,551,612,0,47.421,10.986,NA,NA,1439,TRUE
DRAGON_Omachi,NA,NA,36.503056,137.8514,N,507,1018,0,36.503056,137.8514,NA,NA,1440,TRUE
DRAGON_Takayama,NA,NA,36.252778,137.3045,N,506,1016,0,36.252778,137.3045,NA,NA,1441,TRUE
Tel-Aviv_University,NA,NA,32.1129,34.8062,N,489,688,0,32.1129,34.8062,NA,NA,1442,TRUE
San_Marco_Platform,NA,NA,-2.941667,40.214722,N,349,706,0,-2.941667,40.214722,NA,NA,1443,TRUE
Erlin,NA,NA,23.9253,120.4096,N,457,962,0,23.9253,120.4096,NA,NA,1444,TRUE
Metsi,NA,NA,-26.490781,27.132408,N,255,664,0,-26.490781,27.132408,NA,NA,1445,TRUE
London-CDN,NA,NA,43.008,-81.27,N,533,317,0,43.008,-81.27,NA,NA,1446,TRUE
TGF_Tsukuba,NA,NA,36.113889,140.096,N,505,1025,0,36.113889,140.096,NA,NA,1447,TRUE
IIT_Delhi,NA,NA,28.545,77.1926,N,475,824,0,28.545,77.1926,NA,NA,1448,TRUE
AAU_ET,NA,NA,9.019167,38.747778,N,397,701,0,9.019167,38.747778,NA,NA,1449,TRUE
Girardota_Colombia,NA,NA,6.376324,-75.448979,N,387,336,0,6.376324,-75.448979,NA,NA,1450,TRUE
Freiburg_ALU,NA,NA,48.0011,7.8486,N,553,602,0,48.0011,7.8486,NA,NA,1451,TRUE
Dugway_Utah,NA,NA,40.101944,-113.21408,N,521,215,0,40.101944,-113.21408,NA,NA,1452,TRUE
Ji_Parana_UNIR_2,NA,NA,-10.9702,-61.9812,N,317,379,0,-10.9702,-61.9812,NA,NA,1453,TRUE
Chesapeake_Bay,NA,NA,39.12351,-76.3489,N,517,333,0,39.12351,-76.3489,NA,NA,1454,TRUE
Lake_Okeechobee_N,NA,NA,27.139117,-80.788803,N,470,318,0,27.139117,-80.788803,NA,NA,1455,TRUE
Guadiana-UGR,NA,NA,37.910839,-3.228483,N,513,567,0,37.910839,-3.228483,NA,NA,1456,TRUE
Amsterdam_Ruisdael,NA,NA,52.334336,4.866967,N,570,593,0,52.334336,4.866967,NA,NA,1457,TRUE
Chachoengsao,NA,NA,13.5,101.45,N,415,902,0,13.5,101.45,NA,NA,1458,TRUE
Apulian_Tavoliere,NA,NA,41.46084,15.5016,N,527,627,0,41.46084,15.5016,NA,NA,1459,TRUE
Capel_Dewi,NA,NA,52.424804,-4.004613,N,571,564,0,52.424804,-4.004613,NA,NA,1460,TRUE
YUMA_SL,NA,NA,32.644138,-114.58278,N,492,210,0,32.644138,-114.58278,NA,NA,1461,TRUE
Asuncion_Airport,NA,NA,-25.235809,-57.514727,N,260,393,0,-25.235809,-57.514727,NA,NA,1462,TRUE
GasLab_SJ_CostaRica,NA,NA,9.939444,-84.0425,N,401,308,0,9.939444,-84.0425,NA,NA,1463,TRUE
NREL-Golden,NA,NA,39.743725,-105.17799,N,520,240,0,39.743725,-105.17799,NA,NA,1464,TRUE
KITcube_Rottenburg,NA,NA,48.489074,8.955358,N,555,606,0,48.489074,8.955358,NA,NA,1465,TRUE
Momuy_MF,NA,NA,43.6243,-0.6092,N,535,575,0,43.6243,-0.6092,NA,NA,1466,TRUE
FORTH_RSLab,NA,NA,35.336111,25.132861,N,502,657,0,35.336111,25.132861,NA,NA,1467,TRUE
WFF_X-75_Sci_Obs,NA,NA,37.843908,-75.477517,N,512,335,0,37.843908,-75.477517,NA,NA,1468,TRUE
Sacramento_River,NA,NA,38.049531,-121.88755,N,513,187,0,38.049531,-121.88755,NA,NA,1469,TRUE
Manchester_UoM,NA,NA,53.467374,-2.232006,N,575,570,0,53.467374,-2.232006,NA,NA,1470,TRUE
NPL_Teddington,NA,NA,51.4258,-0.3445,N,567,576,0,51.4258,-0.3445,NA,NA,1471,TRUE
Highfield,NA,NA,51.608,0.1745,N,567,578,0,51.608,0.1745,NA,NA,1472,TRUE
ECCOE-EROS-InstFarm,NA,NA,43.733706,-96.62185,N,536,268,0,43.733706,-96.62185,NA,NA,1473,TRUE
ECCOE-Mann-Farm-SD,NA,NA,43.997131,-98.215017,N,537,263,0,43.997131,-98.215017,NA,NA,1474,TRUE
ECCOE-SDSU-R-Park,NA,NA,44.321064,-96.76225,N,538,267,0,44.321064,-96.76225,NA,NA,1475,TRUE
Soverato_IMAA,NA,NA,38.689444,16.545278,N,516,630,0,38.689444,16.545278,NA,NA,1476,TRUE
Lewis-Clark_ID_USA,NA,NA,46.413153,-117.02717,N,547,203,0,46.413153,-117.02717,NA,NA,1477,TRUE
Mindelo_OSCM,NA,NA,16.877772,-24.995374,N,429,497,0,16.877772,-24.995374,NA,NA,1478,TRUE
Marseille_ATMO,NA,NA,43.3059,5.395,N,534,594,0,43.3059,5.395,NA,NA,1479,TRUE
Montreal,NA,NA,45.522558,-73.620786,N,543,341,0,45.522558,-73.620786,NA,NA,1480,TRUE
OU_NWC,NA,NA,35.181861,-97.440306,N,502,265,0,35.181861,-97.440306,NA,NA,1481,TRUE
Berlin_FRIE,NA,NA,52.5075,13.398,N,571,620,0,52.5075,13.398,NA,NA,1482,TRUE
MammothCUES_CA_USA,NA,NA,37.643,-119.029,N,512,196,0,37.643,-119.029,NA,NA,1483,TRUE
ECCOE-Edwards-AFB,NA,NA,34.947386,-117.879672,N,501,200,0,34.947386,-117.879672,NA,NA,1484,TRUE
UH_Liberty,NA,NA,30.096944,-94.763,N,481,274,0,30.096944,-94.763,NA,NA,1485,TRUE
ARM_Gothic,NA,NA,38.956,-106.988,N,517,235,0,38.956,-106.988,NA,NA,1486,TRUE
ARM_LaPorte,NA,NA,29.669,-95.059,N,480,273,0,29.669,-95.059,NA,NA,1487,TRUE
Tahiti_MF,NA,NA,-17.555379,-149.614539,N,291,98,0,-17.555379,-149.614539,NA,NA,1488,TRUE
UH_Aldine,NA,NA,29.901111,-95.326125,N,481,272,0,29.901111,-95.326125,NA,NA,1489,TRUE
UH_Sugarland,NA,NA,29.574167,-95.652,N,479,271,0,29.574167,-95.652,NA,NA,1490,TRUE
La_Parva,NA,NA,-33.3304,-70.2972,N,228,352,0,-33.3304,-70.2972,NA,NA,1491,TRUE
ECCOE-Moneta-WY,NA,NA,43.150422,-107.695394,N,534,232,0,43.150422,-107.695394,NA,NA,1492,TRUE
Alta_Floresta_IF,NA,NA,-9.908354,-56.064393,N,321,398,0,-9.908354,-56.064393,NA,NA,1493,TRUE
ATHENS_NTUA,NA,NA,37.977036,23.783088,N,513,653,0,37.977036,23.783088,NA,NA,1494,TRUE
Union_Glacier,NA,NA,-79.7679,-82.9131,N,42,312,0,-79.7679,-82.9131,NA,NA,1495,TRUE
Helmos_NTUA,NA,NA,38.00558,22.19825,N,513,648,0,38.00558,22.19825,NA,NA,1496,TRUE
La_Palma,NA,NA,28.486667,-17.848611,N,475,520,0,28.486667,-17.848611,NA,NA,1497,TRUE
Carmel_Valley,NA,NA,36.4021,-121.6464,N,507,188,0,36.4021,-121.6464,NA,NA,1498,TRUE
Roosevelt_HS,NA,NA,38.994375,-76.868269,N,517,331,0,38.994375,-76.868269,NA,NA,1499,TRUE
ECCOE-Guymon-OK,NA,NA,36.714822,-101.4787,N,508,252,0,36.714822,-101.4787,NA,NA,1500,TRUE
ECCOE-CoconinoNF-AZ,NA,NA,35.447761,-111.566153,N,503,220,0,35.447761,-111.566153,NA,NA,1501,TRUE
ATTO-Campina,NA,NA,-2.181583,-59.021861,N,352,388,0,-2.181583,-59.021861,NA,NA,1502,TRUE
AU_NSW_Merriwa,NA,NA,-32.12667,150.4583,N,232,1058,0,-32.12667,150.4583,NA,NA,1503,TRUE
AU_NSW_Lidcombe,NA,NA,-33.93139,151.0467,N,225,1060,0,-33.93139,151.0467,NA,NA,1504,TRUE
Seguin_Texas_USA,NA,NA,29.570896,-97.982997,N,479,263,0,29.570896,-97.982997,NA,NA,1505,TRUE
Incheon,NA,NA,37.568819,126.637197,N,511,982,0,37.568819,126.637197,NA,NA,1506,TRUE
Ilo_UNAM,NA,NA,-17.601983,-71.338867,N,291,349,0,-17.601983,-71.338867,NA,NA,1507,TRUE
Agen_Palissy,NA,NA,44.200933,0.623925,N,538,579,0,44.200933,0.623925,NA,NA,1508,TRUE
Troodos_CAO,NA,NA,34.943056,32.865475,N,501,682,0,34.943056,32.865475,NA,NA,1509,TRUE
Banana_River,NA,NA,28.36699,-80.63328,N,474,319,0,28.36699,-80.63328,NA,NA,1510,TRUE
Ioannina_UoI,NA,NA,39.616,20.837,N,519,644,0,39.616,20.837,NA,NA,1511,TRUE
Kosetice_NAOK,NA,NA,49.5718,15.0813,N,559,625,0,49.5718,15.0813,NA,NA,1512,TRUE
Yerba_Loca,NA,NA,-33.33015,-70.2965,N,228,352,0,-33.33015,-70.2965,NA,NA,1513,TRUE
Greifswald_Univ,NA,NA,54.09126,13.40391,N,577,620,0,54.09126,13.40391,NA,NA,1514,TRUE
Chajnantor,NA,NA,-22.959314,-67.786118,N,269,360,0,-22.959314,-67.786118,NA,NA,1515,TRUE
Cerro_Tres_Puntas,NA,NA,-33.318,-70.233,N,228,352,0,-33.318,-70.233,NA,NA,1516,TRUE
PLOCAN_Tower,NA,NA,28.041118,-15.385113,N,473,528,0,28.041118,-15.385113,NA,NA,1517,TRUE
Aspendale_Mel_AU,NA,NA,-38.02464,145.1015,N,209,1041,0,-38.02464,145.1015,NA,NA,1518,TRUE
ICIMOD,NA,NA,27.646647,85.323269,N,472,850,0,27.646647,85.323269,NA,NA,1519,TRUE
ALERIA_MF,NA,NA,42.129,9.496,N,530,607,0,42.129,9.496,NA,NA,1520,TRUE
UCR_Santa_Cruz,NA,NA,10.283649,-85.595211,N,402,303,0,10.283649,-85.595211,NA,NA,1521,TRUE
Rambouillet_ACROSS,NA,NA,48.686604,1.704426,N,556,582,0,48.686604,1.704426,NA,NA,1522,TRUE
Vilnius,NA,NA,54.7236,25.3257,N,580,658,0,54.7236,25.3257,NA,NA,1523,TRUE
KITcube_WadiRum,NA,NA,29.738889,35.385833,N,480,690,0,29.738889,35.385833,NA,NA,1524,TRUE
Mohawk_Mountain,NA,NA,41.8214,-73.29733,N,528,342,0,41.8214,-73.29733,NA,NA,1525,TRUE
New_Haven,NA,NA,41.301111,-72.90288,N,526,344,0,41.301111,-72.90288,NA,NA,1526,TRUE
East_Brunswick,NA,NA,40.4623,-74.4294,N,523,339,0,40.4623,-74.4294,NA,NA,1527,TRUE
Flushing,NA,NA,40.734167,-73.8157,N,524,341,0,40.734167,-73.8157,NA,NA,1528,TRUE
University_of_Nizwa,NA,NA,22.9101,57.6741,N,453,762,0,22.9101,57.6741,NA,NA,1529,TRUE
SUNY_Rockland,NA,NA,41.134722,-74.0855,N,526,340,0,41.134722,-74.0855,NA,NA,1530,TRUE
Guadiana_UGR_4,NA,NA,37.915013,-3.22757,N,513,567,0,37.915013,-3.22757,NA,NA,1531,TRUE
REIMS_GSMA,NA,NA,49.243248,4.067048,N,558,590,0,49.243248,4.067048,NA,NA,1532,TRUE
San_Nicolas_Island,NA,NA,33.2799,-119.5223,N,494,195,0,33.2799,-119.5223,NA,NA,1533,TRUE
AAU_Jackros_ET,NA,NA,9.011667,38.820833,N,397,701,0,9.011667,38.820833,NA,NA,1534,TRUE
Pahia_TROPOS,NA,NA,-46.31,167.71,N,176,1114,0,-46.31,167.71,NA,NA,1535,TRUE
Oslo_MET_Norway,NA,NA,59.942,10.721,N,601,611,0,59.942,10.721,NA,NA,1536,TRUE
MAGIC_ORM_La_Palma,NA,NA,28.761767,-17.89067,N,476,520,0,28.761767,-17.89067,NA,NA,1537,TRUE
Chi_Kraeng_Station,NA,NA,13.225008,104.36535,N,414,911,0,13.225008,104.36535,NA,NA,1538,TRUE
ARM_La_Jolla,NA,NA,32.866906,-117.256723,N,492,202,0,32.866906,-117.256723,NA,NA,1539,TRUE
Innsbruck_MUI,NA,NA,47.264167,11.385694,N,550,613,0,47.264167,11.385694,NA,NA,1540,TRUE
Juan_Carlos_I_base,NA,NA,-62.663056,-60.389444,N,110,384,0,-62.663056,-60.389444,NA,NA,1541,TRUE
Eriswil_TROPOS,NA,NA,47.070514,7.872918,N,549,602,0,47.070514,7.872918,NA,NA,1542,TRUE
IMPACTS_UConn,NA,NA,41.818175,-72.258149,N,528,346,0,41.818175,-72.258149,NA,NA,1543,TRUE
Neumayer3_TROPOS,NA,NA,-70.665278,-8.28367,N,78,550,0,-70.665278,-8.28367,NA,NA,1544,TRUE
Hel_IGF,NA,NA,54.603,18.813,N,579,637,0,54.603,18.813,NA,NA,1545,TRUE
Riyadh_Airport_SDSC,NA,NA,24.925833,46.72171,N,461,727,0,24.925833,46.72171,NA,NA,1546,TRUE
Rafha_Airport_SDSC,NA,NA,29.62195,43.49336,N,479,716,0,29.62195,43.49336,NA,NA,1547,TRUE
RdP-EsNM,NA,NA,-34.818,-57.8959,N,222,392,0,-34.818,-57.8959,NA,NA,1548,TRUE
CASP_Watkins_CO_USA,NA,NA,39.786017,-104.531911,N,520,242,0,39.786017,-104.531911,NA,NA,1549,TRUE
Aosta,NA,NA,45.7422,7.357,N,544,601,0,45.7422,7.357,NA,NA,1550,TRUE
Paranal_basecamp,NA,NA,-24.640915,-70.387045,N,262,352,0,-24.640915,-70.387045,NA,NA,1551,TRUE
Chiwaukee_Prairie,NA,NA,42.5047,-87.8093,N,531,296,0,42.5047,-87.8093,NA,NA,1552,TRUE
Howard_Univ-IRB,NA,NA,38.919424,-77.021542,N,517,331,0,38.919424,-77.021542,NA,NA,1553,TRUE
Pinnacles_PIAU,NA,NA,-30.583611,115.155,N,239,945,0,-30.583611,115.155,NA,NA,1554,TRUE
WC_Whittier_CA,NA,NA,33.9678,-118.0299,N,497,199,0,33.9678,-118.0299,NA,NA,1555,TRUE
NPU_Chicago_IL,NA,NA,41.9748,-87.712,N,529,296,0,41.9748,-87.712,NA,NA,1556,TRUE
Turlock_CA_USA,NA,NA,37.52387,-120.85586,N,511,190,0,37.52387,-120.85586,NA,NA,1557,TRUE
VCURRC_CharlesCity,NA,NA,37.326192,-77.205661,N,510,330,0,37.326192,-77.205661,NA,NA,1558,TRUE
Kuching_Swinburne,NA,NA,1.5317,110.3567,N,367,930,0,1.5317,110.3567,NA,NA,1559,TRUE
Selegua_BSRN,NA,NA,15.783889,-91.99021,N,424,283,0,15.783889,-91.99021,NA,NA,1560,TRUE
Canchones,NA,NA,-20.4441,-69.5326,N,279,354,0,-20.4441,-69.5326,NA,NA,1561,TRUE
Lubbock_TTU_TX_USA,NA,NA,33.61054,-102.05054,N,495,250,0,33.61054,-102.05054,NA,NA,1562,TRUE
KITcube_VS,NA,NA,48.05614,8.48647,N,553,604,0,48.05614,8.48647,NA,NA,1563,TRUE
Alert_ARCSIX,NA,NA,82.49,-62.42,N,691,377,0,82.49,-62.42,NA,NA,1564,TRUE
Ragged_Point_2,NA,NA,13.165,-59.432,N,414,387,0,13.165,-59.432,NA,NA,1565,TRUE
GSFC_POLAR,NA,NA,38.9925,-76.839833,N,517,331,0,38.9925,-76.839833,NA,NA,1566,TRUE
ESP-VLC-ELPALMAR,NA,NA,39.29791,-0.326363,N,518,576,0,39.29791,-0.326363,NA,NA,1567,TRUE
TEST_Cypress_TX,NA,NA,29.954444,-95.730018,N,481,271,0,29.954444,-95.730018,NA,NA,1568,TRUE
Aguamarga,NA,NA,36.94,-2.033208,N,509,570,0,36.94,-2.033208,NA,NA,1569,TRUE
Bruz_BZH,NA,NA,47.989592,-1.731081,N,553,571,0,47.989592,-1.731081,NA,NA,1570,TRUE
ARIAKE_TOWER_2,NA,NA,33.114,130.29,N,493,994,0,33.114,130.29,NA,NA,1571,TRUE
South_DeKalb_GA,NA,NA,33.688,-84.290493,N,496,307,0,33.688,-84.290493,NA,NA,1572,TRUE
Frying_Pan_Tower,NA,NA,33.4853,-77.5901,N,495,329,0,33.4853,-77.5901,NA,NA,1573,TRUE
Duke_Forest_NC_US,NA,NA,35.970796,-79.093246,N,505,324,0,35.970796,-79.093246,NA,NA,1574,TRUE
Lecce_ECO,NA,NA,40.335857,18.124499,N,522,635,0,40.335857,18.124499,NA,NA,1575,TRUE
AAQ2_SK_Suwon,NA,NA,37.2611,126.9928,N,510,983,0,37.2611,126.9928,NA,NA,1576,TRUE
AAQ3_SK_CBNU,NA,NA,36.6263,127.4566,N,508,985,0,36.6263,127.4566,NA,NA,1577,TRUE
AAQ4_SK_Jincheon,NA,NA,36.8548,127.4413,N,508,985,0,36.8548,127.4413,NA,NA,1578,TRUE
AAQ5_SK_Ansung,NA,NA,36.988539,127.275684,N,509,984,0,36.988539,127.275684,NA,NA,1579,TRUE
Wroclaw_UWR,NA,NA,51.105726,17.08927,N,565,632,0,51.105726,17.08927,NA,NA,1580,TRUE
AAQ6_PH_Meycauayan,NA,NA,14.7644,120.9887,N,420,964,0,14.7644,120.9887,NA,NA,1581,TRUE
AAQ7_PH_Bilibid,NA,NA,14.3835,121.0337,N,419,964,0,14.3835,121.0337,NA,NA,1582,TRUE
Corpus_Christi_TX,NA,NA,27.715174,-97.328741,N,472,266,0,27.715174,-97.328741,NA,NA,1583,TRUE
SEU_Austin_TX,NA,NA,30.228416,-97.754365,N,482,264,0,30.228416,-97.754365,NA,NA,1584,TRUE
AAQ8_MY_Klang,NA,NA,3.014889,101.413111,N,373,902,0,3.014889,101.413111,NA,NA,1585,TRUE
AAQ9_MY_Cheras,NA,NA,3.106236,101.717917,N,373,902,0,3.106236,101.717917,NA,NA,1586,TRUE
HengChun-MetSta,NA,NA,22.003611,120.74612,N,449,963,0,22.003611,120.74612,NA,NA,1587,TRUE
AAQ13_Kx_Wanluan,NA,NA,22.579167,120.57455,N,451,963,0,22.579167,120.57455,NA,NA,1588,TRUE
AAQ12_Kx_Xiaoliuqiu,NA,NA,22.336389,120.36847,N,450,962,0,22.336389,120.36847,NA,NA,1589,TRUE
AAQ10_MY_Banting,NA,NA,2.81664,101.62288,N,372,902,0,2.81664,101.62288,NA,NA,1590,TRUE
Rottnest_WA_Aus,NA,NA,-32.023889,115.454361,N,233,946,0,-32.023889,115.454361,NA,NA,1591,TRUE
IITM_ARTCI_Bhopal,NA,NA,23.572259,77.244293,N,455,824,0,23.572259,77.244293,NA,NA,1592,TRUE
Santarem_SONDA,NA,NA,-2.683611,-54.535,N,350,402,0,-2.683611,-54.535,NA,NA,1593,TRUE
Greyhills_Tuba_AZ,NA,NA,36.12704,-111.22123,N,506,221,0,36.12704,-111.22123,NA,NA,1594,TRUE
PCDS_HAZELGREEN_AL,NA,NA,34.89893,-86.556889,N,501,300,0,34.89893,-86.556889,NA,NA,1595,TRUE
ARM_KCG,NA,NA,-40.6804,144.6896,N,198,1040,0,-40.6804,144.6896,NA,NA,1596,TRUE
Fengshan,NA,NA,22.62964,120.34594,N,452,962,0,22.62964,120.34594,NA,NA,1597,TRUE
NUST_Islamabad,NA,NA,33.647866,72.989307,N,496,811,0,33.647866,72.989307,NA,NA,1598,TRUE
SRMIST_CHENNAI,NA,NA,12.821113,80.046432,N,412,833,0,12.821113,80.046432,NA,NA,1599,TRUE
Xavier_Univ_LA,NA,NA,29.9643,-90.1074,N,481,289,0,29.9643,-90.1074,NA,NA,1600,TRUE
Andenes_Harbour,NA,NA,69.316669,16.130556,N,638,629,0,69.316669,16.130556,NA,NA,1601,TRUE
Mt_Cimone,NA,NA,44.115827,10.420891,N,537,610,0,44.115827,10.420891,NA,NA,1602,TRUE
Perth-CSIRO_AU,NA,NA,-31.99361,115.885254,N,233,948,0,-31.99361,115.885254,NA,NA,1603,TRUE
Cabauw_profiling_NL,NA,NA,51.968,4.929,N,569,593,0,51.968,4.929,NA,NA,1604,TRUE
RotterdamSlufter_NL,NA,NA,51.933495,3.999843,N,569,590,0,51.933495,3.999843,NA,NA,1605,TRUE
NRL_CEOBS_MBAYCAUSA,NA,NA,36.905678,-121.840389,N,509,187,0,36.905678,-121.840389,NA,NA,1606,TRUE
Onsala_Chalmers,NA,NA,57.391938,11.918862,N,591,615,0,57.391938,11.918862,NA,NA,1607,TRUE
Zhengzhou,NA,NA,34.799167,113.803056,N,500,941,0,34.799167,113.803056,NA,NA,1608,TRUE
Garmisch_KIT,NA,NA,47.476388,11.063055,N,551,612,0,47.476388,11.063055,NA,NA,1609,TRUE
CNES_ASA,NA,NA,43.7,-0.266667,N,536,576,0,43.7,-0.266667,NA,NA,1610,TRUE
Cambridge_Bay,NA,NA,69.1213,-105.03941,N,637,241,0,69.1213,-105.03941,NA,NA,1611,TRUE
Stony_Plain,NA,NA,53.5293,-114.002,N,575,212,0,53.5293,-114.002,NA,NA,1612,TRUE
